id,lat,lon,name,street,zip_code,city,planning_area_id
137549003,52.56995,13.31386,Bunte  Klänge Kindergarten,Graf-Haeseler-Straße 23,13403.0,Berlin,12200309
167048488,52.50153,13.43339,Nestwärme Kita,,,,02300315
268915158,52.47674,13.32582,Kita Fehlerstraße 2,Fehlerstraße 2,12161.0,Berlin,07300515
268915167,52.46852,13.33250,Ganztagsbetreuung der Fläming-Grundschule,Rheinstraße 54,12161.0,Berlin,07300618
268915173,52.53988,13.34962,kidsweb.de Kindertagesbetreuung,,,,01401046
268915177,52.50068,13.35870,EKG - An der Apostelkirche 1,Kurfürstenstraße 139,10785.0,,07100103
268915180,52.59163,13.32583,EKG - Alt-Wittenau 64,Alt-Wittenau 64,13437.0,Berlin,12500927
268915183,52.55046,13.26980,EKG - An der Mäckeritzbrücke 4,,,,12200414
268915185,52.61758,13.31551,EKG - Berliner Straße 120,,,,12400723
268915194,52.44738,13.35714,EKG - Ellwanger Straße 9-11,,,,06100205
268915196,52.47913,13.32110,EKG - Detmolder Straße 17,,,,04501151
268915198,52.43899,13.38667,EKG - Friedenstraße 20,,,,07501133
268915205,52.38533,13.40576,Ev. Teilzeit-Kita Goltzstraße,Goltzstraße 33,12307.0,Berlin,07601547
268915206,52.56020,13.36077,EKG - Gemeindezentrum Schillerhöhe,,,,01400940
268915210,52.50449,13.28704,Kita der Evangelischen Kirchengemeinde Am Lietzensee,Herbartstraße 4,14057.0,Berlin,04300415
268915214,52.44763,13.32743,Lemmis Kreativ-Kita,Gravelottestraße 10,12167.0,Berlin,06100206
268915217,52.46003,13.37843,EKG - Kaiserin-Augusta-Straße 23,Kaiserin-Augusta-Straße 23,12103.0,Berlin,07400824
268915220,52.45396,13.14479,Miniclub,Kladower Damm 369,14089.0,Berlin,05400944
268915222,52.51186,13.18584,Eltern-Kind-Gruppe,Jaczostraße 54,13595.0,Berlin,05200634
268915227,52.42264,13.45053,EKG - Martin-Luther-King-Weg 6,,,,08200833
268915231,52.50829,13.31395,Kindergarten Trinitatis,Leibnizstraße 79,10625.0,Berlin,04300623
268915236,52.45942,13.28672,Teilzeit-KiTa Martin-Niemöller-Haus,Pacelliallee 61,14195.0,Berlin,06400844
268915238,52.43761,13.21926,EKG - Matterhornstraße 37,,,,06400838
268915239,52.49395,13.32688,EKG - Nassauische Straße 66,,,,04501149
268915241,52.55894,13.18220,EKG - Schwanter Weg 3,,,,05100105
268915244,52.54148,13.26740,EKG - Schuckertdamm 336-338,,,,05300839
268915246,52.45610,13.31861,Eltern-Kind-Gruppe Matthäus,Schloßstraße 44C,12165.0,Berlin,06100101
268915247,52.40536,13.40226,EKG - Rackebüller Weg 64,Rackebüller Weg 64,,,07601442
268915250,52.46533,13.12759,Kita der Evangelischen Kirchengemeinde Am Groß-Glienicker See,Waldallee 3,14089.0,Berlin,05400943
268915258,52.49473,13.33926,EKT - Abrakadabra e.V.,Motzstraße 63,10777.0,Berlin,07100101
268915266,52.52998,13.33158,Kinderladen Ali Baba,Waldstraße 15,10551.0,Berlin,01200519
268915269,52.46633,13.43637,"Ali Baba und seine Räuber ""Löwenzahn""",Kranoldstraße 1,12051.0,Berlin,08100209
268915271,52.46038,13.32047,EKT - Ahörnchen e.V.,,,,06100102
268915272,52.48787,13.35268,Kinderladen Affentheater,Merseburger Straße 5,10823.0,Berlin,07200409
268915276,52.52979,13.31568,Arche Moabit,Huttenstraße 31,10553.0,Berlin,01200517
268915281,52.47266,13.32467,Kinderladen Atze + Co.,Wilhelmshöher Straße 9,12161.0,Berlin,07300515
268915285,52.47131,13.43186,Altenbraker Kinderladen,,,,08100208
268915289,52.47704,13.41995,Feldmäuse an der Hasenheide,Lichtenrader Straße 11,12049.0,Berlin,08100102
268915290,52.44598,13.30794,Kinderladen Blumenladen,Moltkestraße 47,12203.0,Berlin,06300633
268915292,52.51413,13.28954,Kita Bollerwagen,Sophie-Charlotten-Straße 83b,14059.0,Berlin,04300413
268915293,52.49398,13.40151,EKT - Brausepulver e.V.,Urbanstraße 6,10961.0,Berlin,02200210
268915297,52.49427,13.41725,EKT - Bunte Mischung e.V.,Böckhstraße 47-48,10967.0,Berlin,02200213
268915298,52.46938,13.43168,"Kinderladen ""Lieblingsmenschen""",Nogatstraße 24,12051.0,Berlin,08100208
268915302,52.47585,13.32580,Kinderladen Berliner Malbüro,Mainauer Straße 6,12161.0,Berlin,07300515
268915307,52.54666,13.41528,Kita Billabong,Greifenhagener Straße 14,10437.0,Berlin,03601346
268915311,52.57522,13.35456,EKT - Das EI,,,,12100205
268915313,52.48747,13.39360,EKT - Combo e.V.,,10965.0,Berlin,02200211
268915314,52.49418,13.41890,EKT - Der kleine Horrorladen e.V.,,,,02200213
268915317,52.48832,13.52431,EKT - Das tapfere Schneiderlein,,,,11501339
268915322,52.50274,13.36147,Cocorico et Co,Kluckstraße 29,10785.0,Berlin,01100103
268915324,52.52385,13.30217,CIP Kita Theo Tintenklecks,Mierendorffstraße 21,10589.0,Berlin,04300517
268915325,52.51672,13.29321,Sonnenblume,Christstraße 42,14059.0,Berlin,04300413
268915327,52.55576,13.20431,EKT - Die Knöpfe,,,,05100105
268915328,52.47969,13.42302,Die Kinkies,Weisestraße 4,12049.0,Berlin,08100102
268915330,52.48767,13.37423,Kinderladen Monumentenbande,Monumentenstraße 16,10965.0,Berlin,02200209
268915331,52.4173,13.3225,EKT - Die Maulwürfe,,,,06200423
268915332,52.48560,13.36369,Kita Tulpen,,,,07200414
268915333,52.48010,13.32140,Kinderladen Die Lauser,Koblenzer Straße 7,10715.0,Berlin,04501151
268915337,52.55270,13.38460,Kita SilberStern,Stettiner Straße 56,13357.0,Berlin,01300733
268915339,52.61063,13.24747,Die Igelkinder,Am Bärensprung 36,13503.0,Berlin,12400619
268915340,52.41727,13.40168,Kinderladen Igelkinder,Sandsteinweg 25A,12349.0,Berlin,08200831
268915341,52.46247,13.58842,EKT - Die Grünspechte e.V.,,,,09502042
268915343,52.54238,13.41583,Domino,Lychener Straße 21,10437.0,Berlin,03601347
268915346,52.48034,13.34815,Kita Wilde 13,Fritz-Reuter-Straße 8,10827.0,Berlin,07200308
268915347,52.52612,13.18050,EKT - Die Seeburg e.V.,,,,05200420
268915351,52.49025,13.35178,Schülerladen Minipfiff,,,,07100204
268915353,52.48397,13.35373,Kita Rosen,Albertstraße 14-18,10827.0,Berlin,07200410
268915354,52.56505,13.38989,EKT - Die Ministerne e.V.,Sternstraße 9,13359.0,Berlin,01300731
268915357,52.58761,13.40273,Pankis,Heinrich-Böll-Straße 1,13156.0,Berlin,03200207
268915361,52.53579,13.40991,EKT - Erdnuckel e.V.,Choriner Straße 30,10435.0,Berlin,03701554
268915364,52.54225,13.35945,EKT Eisbär,Sparrstraße 20,13353.0,Berlin,01401047
268915365,52.53362,13.43353,Elfenland,Pasteurstraße 15,10407.0,Berlin,03701660
268915366,52.49331,13.39084,Deutsch-Türkischer Kinderklub,Nostitzstraße 6,10961.0,Berlin,02200210
268915367,52.50377,13.50076,Kita „Sonnenhof“,Archenholdstraße 72,10315.0,Berlin,11400929
268915368,52.50453,13.50767,Kita „Erlenhof“,Kraetkestraße 18,10315.0,Berlin,11400930
268915369,52.50329,13.26379,Kinderladen Eichhörnchen,Harbigstraße 14,14055.0,Berlin,04200207
268915370,52.49579,13.26614,Kinderladen Eichkatzweg,Eichkatzweg 11,14055.0,Berlin,04200207
268915371,52.54778,13.20822,EKT - Dreiecke und Kreise e.V.,,,,05100314
268915372,52.50105,13.30226,EKT - Droysen-Mäuse e.V.,,,,04500936
268915373,52.52754,13.34299,Integrationskinderladen Drunter & Drüber,Stromstraße 58,10551.0,Berlin,01200520
268915374,52.51767,13.29423,Drunter und Drüber,Neufertstraße 12,14059.0,Berlin,04300413
268915376,52.52161,13.33566,Kila Frecher Spatz,Elberfelder Straße 18,10555.0,Berlin,01200522
268915379,52.51646,13.19525,EKT - Förderverein christlicher Kindererziehung e.V.,,,,05200630
268915382,52.50491,13.29485,Kinderladen Flitzpiepen,Holtzendorffstraße 14,14057.0,Berlin,04300416
268915384,52.52340,13.33381,Katz&Kedi Kinderladen,Jagowstraße 28,10555.0,Berlin,01200522
268915385,52.50518,13.29938,EKT - Firlefanz e.V.,,,,04300416
268915388,52.49294,13.35184,Kindertagesstätte Fidibus,,,,07100204
268915391,52.49668,13.29579,EKT - Georg-Wilhelm-Kindergruppe e.V.,Joachim-Friedrich-Straße 48,10711.0,Berlin,04500938
268915400,52.56877,13.39786,Kinderladen Garuda,Kreuzstraße 5,13187.0,Berlin,03400721
268915402,52.51903,13.31582,Kinderladen Charlottenburg,Galvanistraße 14,10587.0,Berlin,04300619
268915403,52.45277,13.62669,Der Friedrichshagener Kinderladen,Drachholzstraße 2,12587.0,Berlin,09501737
268915410,52.47752,13.42152,EKT - Hasenreiter e.V.,Herrfurthplatz 4,12049.0,Berlin,08100102
268915411,52.50363,13.29226,Kita Canicas,Friedbergstraße 41,14057.0,Berlin,04300416
268915413,52.48902,13.41052,EKT Herzlichtgarten e.V.,Hasenheide 51,10967.0,Berlin,02200212
268915415,52.58380,13.30354,Schubarts Lieblingskinder,Schubartstraße 44,13509.0,Berlin,12500825
268915419,52.45601,13.27465,EKT - Hort der Rudolf-Steiner-Schule e.V.,,,,06400844
268915420,52.51874,13.31582,EKT - Hoppel-Poppel,Galvanistraße 15,10587.0,Berlin,04300619
268915421,52.49323,13.43890,EKT - Hollerbusch e.V.,Reichenberger Straße 99,10999.0,Berlin,02300418
268915422,52.58603,13.28033,EKT - Hokus Pokus e.V.,,,,12200515
268915424,52.54626,13.41038,EKT - Grashüpfer e.V.,,,,03601142
268915427,52.46437,13.34284,Kinderladen Großstadtpflänzchen,Cranachstraße 39/40,12157.0,Berlin,07300619
268915431,52.49326,13.39589,Kinderladen Guten Tag Kinder,Fürbringerstraße 27,10961.0,Berlin,02200210
268915432,52.46336,13.31588,Kindergarten Happy Kids,Gritznerstraße 33,12163.0,Berlin,06100102
268915433,52.51347,13.28033,EKT - Grünes Nashorn e.V.,,,,04200311
268915441,52.49396,13.40167,EKT - Känguruh e.V.,Urbanstraße 6,10961.0,Berlin,02200210
268915442,52.48692,13.39146,Kinderladen Kalle Kirschkern,Fidicinstraße 32,10965.0,Berlin,02200211
268915443,52.47032,13.29263,EKT - Kantis Kinder-Klub e.V.,,,,04400832
268915445,52.51770,13.30254,Kita Karamell,Gierkezeile 42,10585.0,Berlin,04300621
268915447,52.51345,13.29293,EKT - Kartoffelladen e.V.,,,Berlin,04300413
268915449,52.48708,13.37601,Katzbachpiraten,Katzbachstraße 19,10965.0,Berlin,02200209
268915455,52.60015,13.36490,EKT - Hort im Märkischen Viertel e.V.,,,,12601133
268915466,52.55506,13.37608,EKT - Jo Jo e.V.,Schwedenstraße 3a,13357.0,Berlin,01401045
268915467,52.52535,13.29882,Kita Cheburashka,Mindener Straße 11,10589.0,Berlin,04300517
268915471,52.47929,13.35024,Kita Ebersstraße,Ebersstraße 68,10827.0,Berlin,07200308
268915474,52.47449,13.33555,Kita Lauterstraße 30,Lauterstraße 30,12159.0,Berlin,07300517
268915487,52.45837,13.33150,Kinderladen Kasymir,Menckenstraße 1,12169.0,Berlin,06100208
268915494,52.54767,13.20492,EKT - Kinderhaus Gruberzeile e.V.,,,,05100314
268915497,52.53639,13.40670,Kita Kindersorpresa,Schwedter Straße 29,10435.0,Berlin,03701554
268915498,52.51384,13.29459,KiBest Die Kita,Nehringstraße 16A,14059.0,Berlin,04300413
268915500,52.50047,13.42947,Kinder aus Kreuzberg,,,Berlin,02300315
268915502,52.51079,13.31365,EKT - Kinderladen Purzelbaum e.V.,,,Berlin,04300623
268915506,52.48724,13.27105,Kindergruppe Hasensprung,Koenigsallee 35,14193.0,Berlin,04400728
268915508,52.48006,13.32289,Kinderladen Mainzelmännchen,Mainzer Straße 25,10715.0,Berlin,04501151
268915509,52.52047,13.30185,EKT - Kindergarten am Schloß Charlottenburg,Eosanderstraße 13,10587.0,Berlin,04300619
268915511,52.51298,13.46241,Kinderladen Kinderbüro,Scharnweberstraße 33,10247.0,Berlin,02500831
268915514,52.48566,13.32426,Kinderland,Wilhelmsaue 18,10715.0,Berlin,04501150
268915515,52.45819,13.36983,Kinderspielkreis Alboinplatz,Alboinstraße 113,12105.0,Berlin,07400823
268915519,52.44580,13.36807,"Kinderladen ""Villa Kunterbunt""",Kurfürstenstraße 114,12105.0,Berlin,07501029
268915520,52.46157,13.34436,Kinderladen Zweitausendfüssler,Thorwaldsenstraße 29,12157.0,Berlin,06100210
268915524,52.40819,13.35556,EKT - Kinderwelt e.V.,,,,07601341
268915529,52.52732,13.35137,Kinderladen Badehaus,Wilsnacker Straße 62,10559.0,Berlin,01200625
268915530,52.49967,13.42468,EKT - Kinderladen Bande e.V.,Oranienstraße 202,10999.0,Berlin,02300315
268915531,52.49330,13.35279,Kinderladen Feuerkäfer,Frankenstraße 15,10781.0,Berlin,07100204
268915536,52.50458,13.29756,EKT - Kinderladen - was sonst e.V.,Friedbergstraße 5,14057.0,Berlin,04300416
268915537,52.49248,13.38626,Kinderladen Luftabong,Yorckstraße 88H,10965.0,Berlin,02200209
268915538,52.50045,13.43376,EKT – Kinderladen Muko e.V.,,,,02300315
268915539,52.46601,13.43342,Kinderladen Pimpinella,Kranoldstraße 9,12051.0,Berlin,08100209
268915540,52.50827,13.45703,Kinderladen Sol,Dirschauer Straße 13,10245.0,Berlin,02500834
268915542,52.50906,13.31871,Kinderladen Goethestraße,Goethestraße 13,10623.0,Berlin,04300624
268915544,52.53517,13.27068,EKT - Kinderladen Immerfrech e.V.,,,,05300841
268915546,52.49907,13.26235,EKT - Knuddelmonster e.V./Helene-Keller-Schule,,,,04200207
268915548,52.47410,13.42474,Kleiner Fratz,Weisestraße 28,12049.0,Berlin,08100103
268915550,52.49312,13.35492,Kinderladen Konfetti,Gleditschstraße 40,10781.0,Berlin,07100204
268915552,52.48896,13.41932,Kinderladen Knulp,Jahnstraße 4,10967.0,Berlin,02200212
268915554,52.48210,13.31878,Kleine Panther,Aachener Straße 43,10713.0,Berlin,04501148
268915556,52.55393,13.34850,Kleine Himmelswolke,Türkenstraße 5,13349.0,Berlin,01400939
268915557,52.61238,13.43006,EKT - Kleiner Fratz e.V.,Triftstraße 27B,13127.0,Berlin,03200310
268915560,52.48888,13.35757,Kleine Ungeheuer,Vorbergstraße 2,10823.0,Berlin,07200409
268915566,52.52368,13.34947,Kleckerburg,Kirchstraße 22,10557.0,Berlin,01200626
268915567,52.49002,13.38998,Kinderladen Klara Kirschkern,Nostitzstraße 25,10961.0,Berlin,02200211
268915568,52.55941,13.38428,Kinderladen Klapperkiste,Soldiner Straße 33,13359.0,Berlin,01300731
268915574,52.39439,13.41917,EKT - Kita-Verein Lichtenrade Ost e.V.,,,,07601545
268915575,52.47495,13.42317,EKT - Kita Karlsgartenstraße e.V.,Schillerpromenade 29,12049.0,Berlin,08100103
268915576,52.48345,13.46936,EKT - Kita am Karpfenteich /Clara Petudio e.V.,,,,09100202
268915579,52.4491,13.3818,EKT - Kitaverein Mücke e.V.,,,,07501030
268915582,52.40860,13.40288,Lichtenrader Dreckspatzen,Lintruper Straße 57,12305.0,Berlin,07601442
268915583,52.48289,13.36043,Kinderladen Lilo Leopard,Gotenstraße 71,10829.0,Berlin,07200413
268915584,52.48839,13.43815,EKT - Lima e.V.,Weichselstraße 38,12045.0,Berlin,08100312
268915585,52.49593,13.43431,EKT – Lindenblüte e.V.,Forster Straße 56,10999.0,Berlin,02300418
268915586,52.48612,13.43869,Loupiot e.V.,Fuldastraße 37,12045.0,Berlin,08100312
268915587,52.49736,13.44456,Kita Löwenhöhle,,,,02300419
268915588,52.54632,13.31834,EKT - Luftikus,,,,04100101
268915590,52.46001,13.33253,EKT - Kuschelburg e.V.,Kniephofstraße 7,12157.0,Berlin,06100209
268915591,52.49888,13.34062,LAngolino,Ansbacher Straße 41,10777.0,Berlin,07100101
268915595,52.43606,13.34994,EKT - Lankwitzer Spielkiste e.V.,,,,06200313
268915596,52.50202,13.42955,Leierkasten,Muskauer Straße 43,10997.0,Berlin,02300315
268915598,52.49019,13.37952,EKT - Krümelmonster e.V.,,,,02200209
268915626,52.45946,13.34216,Kinderladen Kulleberga,Altmarkstraße 26,12169.0,Berlin,06100210
268915649,52.48725,13.39406,EKT - Kulturschlüssel e.V.,,10965.0,Berlin,02200211
268915663,52.46994,13.43791,EKT - Kurdistan Kultur- und Hilfeverein e.V.,,,,08100208
268915680,52.53105,13.41305,Secret Garden,Saarbrücker Straße 15,10405.0,Berlin,03701556
268915691,52.57150,13.41021,EKT - Krikelkrakel e.V.,,,,03400724
268915711,52.50161,13.43453,EKT - Kröwalda e.V.,,,,02300316
268915723,52.48757,13.39659,EKT - Krötenpfuhl e.V.,Heimstraße 7,10965.0,Berlin,02200211
268915731,52.54657,13.34794,EKT - Krümelbande e.V.,,,,01400942
268915740,52.52562,13.19804,Kinderladen Krowelstraße,Krowelstraße 33,13581.0,Berlin,05200631
268915771,52.54142,13.36018,Montessori Kinderhaus-Kolibris,Sparrstraße 26,13353.0,Berlin,01401047
268915805,52.45962,13.27551,Montessori Gemeinschaftshaus e.V.,Clayallee 92,14195.0,Berlin,06400844
268915809,52.53243,13.40988,EKT - Mittenmang e.V.,Christinenstraße 30,10119.0,Berlin,03701554
268915810,52.47905,13.33389,Kinderladen Felix,Wexstraße 20,10715.0,Berlin,04501153
268915811,52.47415,13.45123,EKT - Minihausen e.V.,Mareschstraße 18,12055.0,Berlin,08100417
268915813,52.48657,13.39266,Schülerladen Milli Vanilli,Fidicinstraße 19,10965.0,Berlin,02200211
268915829,52.42749,13.46689,Kinderhort Gropiusstadt,Lipschitzallee 38,12353.0,Berlin,08300934
268915830,52.63390,13.28623,EKT - Maxizwerge e.V.,,,,12400720
268915833,52.46060,13.38558,Schülerladen Maulwurf e.V.,Albrechtstraße 123,12099.0,Berlin,07400927
268915835,52.40701,13.34922,EKT - Marienfelde e.V.,,,,07601339
268915836,52.45796,13.37446,Kita Märchenwald,Burgemeisterstraße 30,12103.0,Berlin,07400823
268915837,52.50585,13.28357,EKT - Mappagei e.V.,Dernburgstraße 57,14057.0,Berlin,04300415
268915838,52.53430,13.34972,Kinderladen Maluch,Stephanstraße 17,10559.0,Berlin,01200623
268915840,52.51557,13.31841,Kindertagesstätte Maikäfer,Fraunhoferstraße 26,10587.0,Berlin,04300622
268915841,52.47495,13.42597,Mafalda e.V.,,,,08100103
268915844,52.48884,13.37476,EKT - Macht nix e.V.,,,,02200209
268915846,52.52771,13.35167,Kinderladen Perle,Wilsnacker Straße 14,10559.0,Berlin,01200625
268915849,52.39281,13.41026,Kinderladen Pillepoppen,Alt-Lichtenrade 100,12309.0,Berlin,07601545
268915850,52.50306,13.30404,EKT - Paretz e.V.,,,,04500936
268915851,52.48005,13.32223,Paul und Klärchen,Mainzer Straße 26a,10715.0,Berlin,04501151
268915852,52.55115,13.34002,Kinderladen Berliner Stadtmäuse,,,,01400937
268915854,52.50426,13.36825,Kita Pädagogisches Zentrum Bissingzeile,Bissingzeile 5,10785.0,Berlin,01100104
268915856,52.52857,13.34553,"Kinderladen Panther, Tiger & Co.",Lübecker Straße 13,10559.0,Berlin,01200625
268915858,52.49457,13.41426,Kinderladen „Die Optimisten“,Grimmstraße 1A,10967.0,Berlin,02200213
268915859,52.48048,13.44645,EKT - Orgelpfeifen e.V.,,,,08100418
268915863,52.53629,13.42592,Obst und Gemüse,Christburger Straße 41,10405.0,Berlin,03701658
268915864,52.47869,13.34745,Kinderladen Onnimanni,Kärntener Straße 11,10827.0,Berlin,07200308
268915866,52.49297,13.32803,Aventura Nikolsburg,Nikolsburger Straße 6-7,10717.0,Berlin,04501149
268915867,52.47874,13.42285,EKT - Neuzeitlich-christliche Initiative e.V.,,,,08100102
268915868,52.48771,13.35270,Kinderladen Nusskasper,Merseburger Straße 4,10823.0,Berlin,07200409
268915869,52.49209,13.35421,EKT Nina,,,,07100204
268915871,52.50030,13.38608,Kinderladen Nasreddin,Großbeerenstraße 94,10963.0,Berlin,02100101
268915873,52.48893,13.37643,EKT Nervensägen,Katzbachstraße 11,10965.0,Berlin,02200209
268915875,52.50320,13.42593,EKT Muskauer Straße 30,,,,02300315
268915877,52.48987,13.32618,Kinderladen Narrenfreiheit,,,,04501149
268915880,52.50423,13.29817,EKT - Roter Boller e.V.,Rönnestraße 3,14057.0,Berlin,04300416
268915881,52.46153,13.34374,Kinderladen Rotkappe,Horst-Kohl-Straße 12,12157.0,Berlin,06100210
268915882,52.52467,13.33763,Kinderladen Rosa Kirschkern,Bochumer Straße 2,10555.0,Berlin,01200522
268915885,52.45445,13.37675,Wolkenkinder,Konradinstraße 15/17,12105.0,Berlin,07400825
268915886,52.53482,13.34870,Kinderladen Sagaland,Quitzowstraße 125,10559.0,Berlin,01200623
268915887,52.50046,13.43360,EKT – Schippe und Eimer e.V.,,,,02300315
268915888,52.54794,13.26278,EKT - Saatwinkler Küken e.V.,,,,05300839
268915889,52.57118,13.37581,EKT - Saftladen e.V.,,,,12100102
268915890,52.48346,13.35447,Kinderladen Rübezahl,Feurigstraße 53,10827.0,Berlin,07200410
268915891,52.56907,13.37850,Kinderladen - Rummel-Bummel e.V.,,,,12100102
268915893,52.49718,13.44078,Kinderladen Rübezahl,Falckensteinstraße 20,10997.0,Berlin,02300419
268915894,52.45782,13.38588,Schmunzelmonster,Friedrich-Wilhelm-Straße 87,12099.0,Berlin,07400927
268915895,52.48764,13.36135,Schülerladen Schmuddelkinder,,,,07200411
268915896,52.60027,13.33286,Kinderladen Schlumpfoase,Lübarser Straße 13,13435.0,Berlin,12601031
268915900,52.47735,13.30848,EKT - Schlange 99 e.V.,,,,04400834
268915901,52.42880,13.21606,EKT Schlachtensee,Wasgenstraße 75,14129.0,Berlin,06400737
268915904,52.46643,13.33455,Kita Holsteinische Straße,Holsteinische Straße 30,12161.0,Berlin,07300618
268915906,52.47661,13.32914,Kinderladen Mäusebande,Sieglindestraße 4,12159.0,Berlin,07300517
268915908,52.50125,13.42290,Kinderladen Schokokids,Naunynstraße 72,10997.0,Berlin,02300314
268915911,52.49331,13.41981,EKT - Pittiplatsch e.V.,,,,02200213
268915912,52.49529,13.44490,EKT Plutonia,,,,02300419
268915913,52.49048,13.33327,Kinderladen Prinz-Güntzel,,,,04501152
268915914,52.47290,13.45052,Kinderladen Puzzle,Niemetzstraße 11,12055.0,Berlin,08100417
268915918,52.54755,13.35137,EKT - Pinocchio e.V.,,,,01400942
268915919,52.52496,13.39640,Kinderladen Pippi Langstrumpf,Krausnickstraße 3A,10115.0,Berlin,01100309
268915920,52.46963,13.42477,Kita Pumuckel,Warthestraße 56,12051.0,Berlin,08100104
268915921,52.51829,13.30764,Kinderladen Pünktchen,Alt-Lietzow 7,10587.0,Berlin,04300619
268915922,52.48709,13.29838,EKT - Pünktchen und Anton e.V.,,,,04400727
268915931,52.49515,13.41707,Räuberhöhle,Planufer 92,10967.0,Berlin,02200213
268915933,52.45011,13.33387,Kinderladen Pusteblume,Sedanstraße 7,12167.0,Berlin,06100206
268915934,52.50877,13.31633,EKT - Randale e.V.,,,Berlin,04300624
268915935,52.53871,13.40853,EKT - Quasselstrippe e.V.,Oderberger Straße 50,10435.0,Berlin,03701554
268915937,52.45806,13.31292,Ringelbande e.V.,Schmidt-Ott-Straße 4,12165.0,Berlin,06100101
268915938,52.50327,13.29352,Kinderladen Rönne 18,Rönnestraße 18,14057.0,Berlin,04300416
268915939,52.47847,13.44045,Kita Rixdorfer Rüpel,Berthelsdorfer Straße 11,12043.0,Berlin,08100415
268915940,52.52165,13.35117,Kinderladen Regenbogen,Calvinstraße 13,10557.0,Berlin,01200626
268915944,52.46569,13.32050,EKT - Steglitzer Eierpamper e.V.,,,,06100103
268915951,52.52517,13.19569,EKT - Sternenkinder e.V.,,,,05200630
268915955,52.53511,13.35158,Kinderladen Stoppelhopser,,,,01200623
268915956,52.49451,13.42956,EKT - Tentakel e.V.,,,,02300418
268915959,52.55135,13.35730,Eikita Tausendfüßler,Amsterdamer Straße 12,13347.0,Berlin,01401048
268915960,52.45029,13.36821,EKT - Tigerente/Förderkr.f.Musik-u.Bewegungserz.v.Kindern e.V.,,,,07400826
268915961,52.48916,13.39063,Kinderladen Tigerente,Bergmannstraße 12,10961.0,Berlin,02200211
268915963,52.53104,13.43432,EKT - Theaterspiel-Kita Capriola e.V.,,,,03701660
268915966,52.58160,13.39794,EKT - Timpetu e.V.,Treskowstraße 5,13156.0,Berlin,03200206
268915968,52.49407,13.32812,Kinderladen Trolle,Nikolsburger Straße 8,10717.0,Berlin,04501149
268915969,52.52472,13.19356,EKT - Traumzauberbaum e.V.,,,,05200630
268915972,52.47155,13.33872,Kinderladen Trotzköpfchen,Hedwigstraße 12,12159.0,Berlin,07300618
268915978,52.44691,13.39884,EKT - Schülerladen Pimpanella e.V.,Didostraße 1,12109.0,,07501031
268915980,52.50294,13.43342,Schülerladen Trau Dich,Eisenbahnstraße 13,,Berlin,02300316
268915984,52.47655,13.32962,Kinderladen mima,Sieglindestraße 8,12159.0,Berlin,07300517
268915986,52.53979,13.35038,Kinderladen Sonnenblume,Fehmarner Straße 14,,,01401046
268915987,52.45772,13.38649,Sonnengarten,Friedrich-Wilhelm-Straße 89,12099.0,Berlin,07400927
268915990,52.51786,13.30284,EKT Sonnenkinder e.V.,Gierkezeile 42,10585.0,Berlin,04300621
268915992,52.54511,13.14405,EKT - Spandauer Schwalbennest e.V.,,,,05200419
268915994,52.41367,13.36098,EKT - Spatzennest e.V.,,,,07601236
268915995,52.54212,13.35953,EKT Sparrbande,Sparrstraße 21,13353.0,Berlin,01401047
268916001,52.51830,13.29817,EKT - Spielschloß e.V.,,,Berlin,04300414
268916002,52.49218,13.41757,EKT - Spreepiraten e.V.,,,,02200213
268916004,52.49232,13.39718,Springteufel Kinder- und Schülerladen,Mittenwalder Straße 47,10961.0,Berlin,02200210
268916006,52.55172,13.38643,Stadtkinder,Grüntaler Straße 8,13357.0,Berlin,01300733
268916007,52.55223,13.38713,EKT - Stadtkinder e.V.,,,,01300733
268916008,52.48196,13.32411,Wilde Hilde,Hildegardstraße 13,10715.0,Berlin,04501151
268916010,52.48648,13.39370,Wild Poppies,Fidicinstraße 23,10965.0,Berlin,02200211
268916014,52.48731,13.39706,Wildblume I,Heimstraße 16,10965.0,Berlin,02200211
268916015,52.50380,13.31527,EKT - Wielandstraße 13 e.V.,,10629.0,Berlin,04501041
268916017,52.49543,13.44442,EKT Whistcastle of Eternia,,,,02300419
268916023,52.46952,13.43276,Waldorfkindergarten Lindenbaum,,,,08100208
268916027,52.48308,13.35581,Kinderladen Zappzarapp,Ebersstraße 12,10827.0,Berlin,07200410
268916029,52.46950,13.43435,Kita Die Schlümpfe,Nogatstraße 40,12051.0,Berlin,08100208
268916032,52.44722,13.37441,Kinderladen Wolkenhopper,Schützenstraße 14,12105.0,Berlin,07501029
268916034,52.50446,13.39540,Kita Wohnhof,Markgrafenstraße 8,10969.0,Berlin,02100102
268916037,52.49804,13.28889,Wir um vier,Ringbahnstraße 13,10711.0,Berlin,04500937
268916040,52.48602,13.32634,Wilde Hummeln,Mehlitzstraße 8,10715.0,Berlin,04501150
268916041,52.49872,13.43650,Kinder einer Erde,Lübbener Straße 26,10997.0,Berlin,02300419
268916042,52.46925,13.43605,Kita Arielle,Emser Straße 20,12051.0,Berlin,08100208
268916045,52.54241,13.35929,EKT Pustebär,Sparrstraße 19,13353.0,Berlin,01401047
268916046,52.46892,13.32355,Friedenauer Kinder,Hertelstraße 1,12161.0,Berlin,07300516
268916047,52.39792,13.14569,Kita Bruja,Dorotheenstraße 3,14109.0,Berlin,06400735
268916048,52.48783,13.31731,Kinderladen Maikäfer,Brandenburgische Straße 75,10713.0,Berlin,04501146
268916050,52.55044,13.38076,EKT Kinderladen Spatzenkinder,Bastianstraße 18,13357.0,Berlin,01300836
268916052,52.48804,13.39603,Veda Lila Kindergarten e.V.,Arndtstraße 42,10965.0,Berlin,02200211
268916056,52.54927,13.34710,Kinderladen Tüte Mücken,Togostraße 78,13351.0,Berlin,01400938
268916059,52.54767,13.39372,Waldorfkindergarten Wedding,Swinemünder Straße 65,13355.0,Berlin,01300834
268916063,52.45858,13.38198,Kita Gulliver,Friedrich-Wilhelm-Straße 21,12103.0,Berlin,07400825
268916067,52.48663,13.36254,Kindergarten am Haselstrauch,,,,07200414
268916069,52.54396,13.42239,Villa Kunterbunt,Dunckerstraße 21,10437.0,Berlin,03601348
268916074,52.51012,13.39775,Umka,Leipziger Straße 47,10117.0,Berlin,01100207
268916075,52.54662,13.40708,Pustekuchen,Sonnenburger Straße 57,10437.0,Berlin,03601142
268916076,52.49570,13.29881,Kita Beerenkinder,Johann-Georg-Straße 26,10709.0,Berlin,04500938
268916077,52.53930,13.28721,Sport-Club Charlottenburg Hort Halemweg,Halemweg 34,13627.0,Berlin,04100101
268916078,52.50409,13.29759,Kinder- und Schülerladen Halensee e.V.,Rönnestraße 5,14057.0,Berlin,04300416
268916079,52.50324,13.38533,Kath.Kita bei St.Clemens/Kita d.Kath.Kirchengem.St.Bonifatius,,,,02100101
268916086,52.50043,13.41390,Hort der Freien Waldorfschule Kreuzberg e.V.,Ritterstraße 78,10969.0,Berlin,02100104
268916088,52.52288,13.40622,Hort der Evangelische Schule Berlin-Mitte,,,,01100310
268916089,52.51758,13.24886,Kita Rominter Allee,Rominter Allee 2,14052.0,Berlin,04200203
268916091,52.48217,13.43030,Kinderladen Lach und Krach,,,,08100206
268916094,52.48156,13.35380,Kinderladen Stadtmäuse,Ebersstraße 18,10827.0,Berlin,07200410
268916096,52.54034,13.40624,Tütata - Kinderladen Prenzlauer Berg e.V.,,,,03701554
268916101,52.53055,13.33108,Kinder- und Schülerladen Olle Burg,Waldstraße 42,10551.0,Berlin,01200519
268916102,52.46984,13.33693,Kita Volltreffer,Fregestraße 13-14,12159.0,Berlin,07300618
268916108,52.42826,13.22402,EKT Zwölf Knirpse,Lissabonallee 6,14129.0,Berlin,06400736
268916109,52.46105,13.31384,Kinderladen Zwergstatt,Gritznerstraße 67,12163.0,Berlin,06100101
268916111,52.48291,13.5149,EKT - Die Kappe,Müritzstraße 20,10318.0,,11501341
268916114,52.47190,13.44414,Kleine Fische Kinderladen,Schöneweider Straße 20,12055.0,Berlin,08100416
268916115,52.49125,13.38513,EKT - Zinnober e.V.,Hagelberger Straße 52,10965.0,Berlin,02200209
268916116,52.49235,13.41483,EKT - Zehnfach und Simpel e.V.,,,,02200213
268916117,52.48563,13.43319,EKT - Zottelbär e.V.,,,,08100312
268916118,52.48714,13.39690,EKT - Zippel und Zappel e.V.,Heimstraße 15,10965.0,Berlin,02200211
268916121,52.45479,13.38353,Zwergenland e.V.,Viktoriastraße 1,12105.0,Berlin,07400825
268916122,52.45533,13.38111,Zwergenland,Werderstraße 17,12105.0,Berlin,07400825
268916130,52.47040,13.34007,Traumfänger,Sponholzstraße 26,12159.0,Berlin,07300618
268916132,52.48912,13.40934,EKT -Yildiz Kirschkern e.V.,,,,02200212
268916133,52.47700,13.32984,Waldorfkindergarten Friedenau,Sieglindestraße 1,12159.0,Berlin,07300517
268916134,52.47377,13.33554,Waldorfkindergarten Elfenreigen,Lauterstraße 26,12159.0,Berlin,07300517
268916140,52.52761,13.42498,Kita der Ev. Kirchengem. Bartholomäus,,,,02400520
268916142,52.44457,13.37938,Kita der Ev. Kirchengem. Berlin-Mariendorf,Rathausstraße 28,12105.0,Berlin,07501029
268916143,52.48924,13.35093,Evangelische Kita Apostel-Paulus,Klixstraße 2,10823.0,Berlin,07200409
268916147,52.45797,13.28635,Kita der Ev. Kirchengem. Dahlem,,,,06400844
268916154,52.53963,13.30000,Kita der Ev. Kirchengem. Charlottenburg-Nord,,,,04100102
268916155,52.57021,13.40873,Kita der Ev. Kirchengem. Alt-Pankow,Breite Straße 38,13187.0,Berlin,03400723
268916158,52.48280,13.34802,Evangelische Kita Alt-Schöneberg,Dominicusstraße 21a,10823.0,Berlin,07200409
268916163,52.58023,13.33606,Kita der Ev. Kirchengem. Alt-Wittenau,,,,12500930
268916170,52.59146,13.32579,Kita der Ev. Kirchengem. Alt-Wittenau,,,,12500927
268916177,52.58272,13.52880,Evangelische Kita Wartenberg,,,,11100101
268916180,52.52598,13.33598,Evangelische Otto-Kita,Ottostraße 16,10555.0,Berlin,01200521
268916183,52.60866,13.33585,Kita der Ev. Felsen-Kirchengem.,Titiseestraße 7,13469.0,Berlin,12601032
268916185,52.60772,13.21396,Dorfkindergarten,Alt-Heiligensee 47,13503.0,Berlin,12400617
268916192,52.45418,13.57232,Kita / St. Josefsstift,,,,09501939
268916198,52.53086,13.34609,Kita Birkelinchen,Birkenstraße 60,10559.0,Berlin,01200625
268916201,52.55274,13.41385,Evang. Kindertagesstätte Arche,Schönhauser Allee 104,10439.0,Berlin,03601141
268916203,52.47,13.42860,Kita Berliner Spatzen,,,,08100104
268916204,52.48613,13.32766,Asilo Italiano,Badensche Straße 29,10715.0,Berlin,04501150
268916218,52.43891,13.31553,Kita der Paulus-Gemeinde,Hindenburgdamm 101,12203.0,Berlin,06300633
268916219,52.47444,13.33665,Kita Philippus,Stierstraße 18,12159.0,Berlin,07300517
268916221,52.53126,13.33006,Reformations-Kita,Wiclefstraße 31,10551.0,Berlin,01200519
268916223,52.61567,13.34268,Kita der Ev. Kirchengem. Lübars,,,,12500929
268916224,52.51671,13.30305,Luisenkindergarten,Gierkeplatz 2,10585.0,Berlin,04300621
268916231,52.44907,13.34114,Kita der Ev. Kirchengem. Markus,,,,06100205
268916235,52.49476,13.41364,Evangelische Kita Melanchthon,Planufer 84,10967.0,Berlin,02200213
268916236,52.46664,13.34505,Evangelische Kindertagesstätte Nathanael,Grazer Platz 4,12157.0,Berlin,07300619
268916238,52.41826,13.41588,Evangelische Halbtagskita Neu-Buckow,Marienfelder Chaussee 66-72,12349.0,Berlin,08200831
268916240,52.49612,13.30383,Hochmeister-Kindertagesstätte,Paulsborner Straße 86,10709.0,Berlin,04500939
268916246,52.53274,13.42188,Kita Immanuel,Immanuelkirchstraße 1a,10405.0,Berlin,03701659
268916247,52.53922,13.18208,Kita der Ev. Kirchengem. Klosterfelde,Seegefelder Straße 116,13583.0,Berlin,05100211
268916249,52.54875,13.34963,Kinderhaus Kapernaum,Seestraße 35,13353.0,Berlin,01400942
268916250,52.49957,13.33375,Kita der Ev. Kirchengem. Kaiser-Wilhelm-Gedächtnis,,,,04501045
268916252,52.55929,13.34378,Evangelische Kita Kornelius,Dubliner Straße 29,13349.0,Berlin,01400941
268916254,52.57098,13.23153,Kita der Ev. Kirchengem. Konradshöhe-Tegelort,,,,12400616
268916255,52.54070,13.42055,Evangelische Kita Elias,Göhrener Straße 11,10437.0,Berlin,03601348
268916256,52.49493,13.42695,Evangelische Kita Emmaus-Ölberg,Lausitzer Straße 29-30,10999.0,Berlin,02300417
268916258,52.43545,13.34552,Kita der Ev. Kirchengem. Dreifaltigkeit,,,,06200313
268916260,52.56983,13.37590,Evangeliums-Kita,Hausotterplatz 3,13409.0,Berlin,12100102
268916261,52.51325,13.28410,Kita der Evangelischen Kirchengemeinde Epiphanien,Knobelsdorffstraße 74,14059.0,Berlin,04200311
268916262,52.52208,13.33036,Evangelische Kita Erlöser,Wikingerufer 9,10555.0,Berlin,01200522
268916263,52.51782,13.45615,Evangelische Kita Galiläa,Rigaer Straße 9,10247.0,Berlin,02500727
268916279,52.49684,13.29799,Kita der Kath. Kirchengem. St. Albertus-Magnus,Johann-Georg-Straße 8,10709.0,Berlin,04500938
268916280,52.53046,13.41006,Kita Herz Jesu,Schönhauser Allee 182,10119.0,Berlin,03701554
268916283,52.44496,13.38445,Kita der Kath. Kirchengem. Maria Frieden,Kaiserstraße 29,12105.0,,07501030
268916289,52.52790,13.44871,Kita der Kath. Kirchengem. Corpus Christi,,,,03601452
268916290,52.45869,13.32441,Rosenkranz-Kita,Kieler Straße 10,12163.0,Berlin,06100102
268916296,52.59192,13.30190,Schatzinsel,Gorkistraße 127,13509.0,Berlin,12500824
268916297,52.53543,13.40507,Evangelische Kita Zion,Griebenowstraße 16,10435.0,Berlin,01100416
268916304,52.51515,13.49159,Evangelische Kindertagesstätte,,,,11300724
268916305,52.56466,13.39619,Evangelische Kita Martin Luther,Pradelstraße 11,13187.0,Berlin,03400721
268916311,52.58781,13.36771,Evangelische Kita Wilhelmsruh,Goethestraße 1,13158.0,Berlin,03400619
268916313,52.55243,13.44966,Kita der Evangelischen Kirchengemeinde Weißensee,,,,03500935
268916318,52.54735,13.23694,Kita der Ev. Kirchengem. Weihnacht-Haselhorst,Haselhorster Damm 58,13599.0,Berlin,05300737
268916324,52.55371,13.50357,Evangelische Kita Arche Noah,Malchower Weg 44,13053.0,Berlin,11200410
268916325,52.43106,13.27532,Stephanus-Kita,Mühlenstraße 47,14167.0,Berlin,06300528
268916329,52.50032,13.40712,Kita der Ev. Kirchengem. St. Simeon,,,,02100105
268916330,52.53089,13.20509,Kita und Hort Petrus,Grunewaldstraße 7,13597.0,Berlin,05100317
268916332,52.52527,13.34928,Kita der Ev. Kirchengem. St. Johannis,,,,01200626
268916337,52.41320,13.25995,Kita der Ev. Kirchengem. Schönow-Buschgraben,,,,06300525
268916338,52.37523,13.64903,Kita der Ev. Kirchengem. Schmöckwitz,Alt-Schmöckwitz 1,12527.0,Berlin,09301228
268916340,52.51861,13.46597,Evangelische Kita Samariter,Samariterstraße 27,10247.0,Berlin,02500728
268916345,52.47442,13.41949,Kita des Ev. Kirchenkreises Neukölln,,,,08100103
268916346,52.42269,13.45053,Kita des Ev. Kirchenkreises Neukölln,,,,08200833
268916354,52.51387,13.39518,Kita des Auswärtigen Amtes,,,,01100206
268916438,52.50160,13.35487,Kita der Lukas-Gemeinde e.V.,Kurfürstenstraße 133,10785.0,,07100103
268916474,52.48763,13.32923,Svenska Victoriaförsamlingens förskola,,,,04501149
268916511,52.53834,13.19586,Kita Vogelnest,Galenstraße 27,13597.0,Berlin,05100316
268916564,52.57000,13.31486,Katholische Kindertagesstätte St. Rita,General-Woyna-Straße 54,13403.0,Berlin,12200309
268916569,52.43424,13.36268,Kita der Kath. Kirchengem.V.d. Auferstehung Christi,,,,06200316
268916572,52.49282,13.33332,Kita der Landesbank Berlin,,,,04501152
268916578,52.47332,13.45132,Kita der Kath. Kirchengem. St. Richard,Schudomastraße 15,12055.0,Berlin,08100417
268916579,52.59109,13.33020,Kita der Kath. Kirchengem. St. Nikolaus,,,,12500926
268916580,52.48264,13.34722,Kita St. Norbert,Dominicusstraße 19 a,10823.0,Berlin,07200409
268916582,52.52713,13.34970,Kita St. Laurentius,Bandelstraße 41,10559.0,Berlin,01200625
268916583,52.51767,13.29113,Kindertagesstätte Sankt Kamillus,Klausenerplatz 13,14059.0,Berlin,04300413
268916586,52.54926,13.16441,Kindertagesstätte St. Markus,,,,05100208
268916587,52.49699,13.32155,Kita St. Ludwig,Ludwigkirchplatz 10,10719.0,Berlin,04501044
268916588,52.57443,13.36037,Kita St. Marien,Klemkestraße 5,13409.0,Berlin,12100103
268916592,52.48532,13.36558,Katholische Kindertagesstätte St. Elisabeth,Kolonnenstraße 40,10829.0,Berlin,07200414
268916595,52.55091,13.44695,Kita der Kath. Kirchengem. St. Josef,,,,03500935
268916596,52.59945,13.29506,Kita der Kath. Kirchengem. St. Josef,,,,12500824
268916597,52.57586,13.28420,Kita der Katholischen Kirchengemeinde Sankt Bernhard,,,,12200413
268916598,52.44029,13.34128,Kita der Kath. Kirchengem. St. Benedikt,,,,06200312
268916599,52.55074,13.40668,Kita Sankt Augustinus,Dänenstraße 17/18,10439.0,Berlin,03601141
268916601,52.42438,13.46131,Kita St. Dominicus,Lipschitzallee 74,12353.0,Berlin,08300935
268916602,52.47740,13.43596,Kita der Kath. Kirchengem. St. Clara,Kienitzer Straße 18,12053.0,Berlin,08100207
268916611,52.52836,13.33489,Hort Arche Noah,Waldenserstraße 27,10551.0,Berlin,01200519
268916616,52.52681,13.33222,Kita Schmetterling,Turmstraße 71,10551.0,Berlin,01200521
268916618,52.58013,13.42719,Kita Regenbogenhaus,,,,03400724
268916625,52.58310,13.23631,Kita Waldmäuse e.V.. Waldabschnitt Konradshöhe/Reiherberg,Rabenstraße 41,13505.0,Berlin,12400616
268916627,52.53587,13.39908,Casa Fantasia,,,,01100416
268916628,52.50011,13.42222,Kita Wassertropfen,Oranienstraße 192,10999.0,Berlin,02300314
268916630,52.41722,13.58034,Kita Traumhaus,Regattastraße 130,12527.0,Berlin,09301126
268916632,52.43824,13.33084,Kita Kobolde,Beethovenstraße 34,12247.0,Berlin,06200312
268916638,52.45618,13.31475,Kindergarten der Baptistengemeinde Steglitz,Rothenburgstraße 13,12165.0,Berlin,06100101
268916648,52.56590,13.51945,Kita/BIK e.V.,,,,11100204
268916651,52.54783,13.36506,Kita/Akila e.V.,,,,01401043
268916653,52.53505,13.42775,Kita Bunte Burg,Christburger Straße 13,10405.0,Berlin,03701658
268916658,52.48661,13.43100,Kita Pannierstraße,Pannierstraße 6,12047.0,Berlin,08100312
268916659,52.53229,13.33474,Kita Moa,,,,01200519
268916660,52.48645,13.43395,Kita Forum Soziale Dienste e.V.,Weserstraße 26/27,12045.0,Berlin,08100312
268916663,52.59559,13.34155,Kita Mäusekiste,,,,12601236
268916664,52.60835,13.43400,Kita/Ev. Kirchenkreis Pankow,,,,03200309
268916675,52.48999,13.39374,Evangelische Kita Arche,Zossener Straße 22a,10961.0,Berlin,02200211
268916678,52.51799,13.29817,Kita des Pestalozzi-Fröbel-Hauses,,,Berlin,04300414
268916685,52.55262,13.40946,Freche Früchtchen,Paul-Robeson-Straße 12,10439.0,Berlin,03601141
268916691,52.47503,13.42452,Kita Hand in Hand - El Ele / AWO,,,,08100103
268916693,52.43792,13.33104,Kita Drei-Käse-Hoch,Beethovenstraße 34,12247.0,Berlin,06200312
268916695,52.49082,13.30434,Kita el caracol/gestaltpäd. Kindergarten e.V.,,,,04500939
268916701,52.48815,13.36497,Kita Kick/Verein Stadtteil VHS e.V.,Monumentenstraße 3,10829.0,Berlin,07200414
268916702,52.52406,13.19470,Kita Kinder-Treff,Földerichstraße 67,13595.0,Berlin,05200630
268916704,52.49545,13.43220,Kita Kastanie/AWO,,,,02300418
268916709,52.52018,13.46159,Kita Ptits Loups,Eldenaer Straße 44,10247.0,Berlin,03601453
268916714,52.43679,13.21347,Kita Kaiserstuhl,Kaiserstuhlstraße 25,14129.0,Berlin,06400737
268916723,52.55658,13.38513,Kita Putte,Prinzenallee 24,13359.0,Berlin,01300732
268916724,52.54690,13.35152,Kita Sachensucher,Antwerpener Straße 40-42,13353.0,Berlin,01400942
268916734,52.57120,13.50386,Kita/urban-consult gGmbH,Wustrower Straße 40-50,13051.0,Berlin,11100307
268916735,52.49972,13.42543,Kita/VAK-Verein zur Betreuung ausländischer und deutscher Kinder e.V.,Oranienstraße 4,10997.0,Berlin,02300315
268916738,52.41640,13.37250,Hort L.i.ma. e.V.,Prechtlstraße 21-23,12277.0,Berlin,07601237
268916755,52.49529,13.35931,Kita/Verein Stadtteil VHS e.V.,,,,07100103
268916765,52.49361,13.36400,Kita/Verein StadtteilVHS e.V.,Goebenstraße 8,10783.0,Berlin,07100206
268916766,52.49706,13.38309,Kita Freies Bildungswesen,,,,02200208
268916767,52.45257,13.53432,Kindergarten der Freien Waldorfschule Berlin-Südost,,,,09200613
268916769,52.47974,13.34767,Kindergarten Max und Moritz,Kärntener Straße 27,10827.0,Berlin,07200308
268916770,52.61654,13.31463,MINI-KIDS mit GRIPS Kita e.V.,,,,12400723
268916771,52.55491,13.34940,Elterninitiativ-Kindertagesstätte am Schillerpark,Türkenstraße 15,13349.0,Berlin,01400939
268916776,52.54667,13.39177,Hauptstadtkinder,Putbusser Straße 30,13355.0,Berlin,01300834
268916780,52.43035,13.34097,Hort (EFöB),,,,06200314
268916781,52.45601,13.37836,Schülerladen Drachenhöhle/IKT Stadtindianer e.V.,,,,07400825
268916783,52.47873,13.34637,Kinderladen Amsel,Ebersstraße 40,10827.0,Berlin,07200308
268916785,52.46610,13.51108,SchülerInnenladen Oberschöneweide e.V.,,,,09200510
268916786,52.53231,13.20216,Kinderladen Spandau e.V.,Plantage 8,13597.0,Berlin,05100317
268916787,52.54677,13.20773,Schüler- und Kinderladen Spandau e.V.,,,,05100314
268916790,52.45423,13.32920,Kinderhaus Steglitz,Plantagenstraße 1,,Berlin,06100208
268916792,52.49841,13.32247,Schülerladen Phönix,Pfalzburger Straße 9,10719.0,Berlin,04501044
268916793,52.45960,13.37868,Kita Tiponi,Friedrich-Franz-Straße 12,12103.0,Berlin,07400825
268916795,52.46500,13.37711,Kita Mojak Mini,Podewilsstraße 2,12103.0,Berlin,07400823
268916802,52.44574,13.24723,Schülerladen Zehlendorfer Feuerkäfer,Wilskistraße 78,14163.0,Berlin,06400839
268916822,52.47576,13.33808,Kita Berliner Spatzen,Hähnelstraße 15a,12159.0,Berlin,07300517
268916832,52.46718,13.50675,Kita Pusteblume!,Otto-Krüger-Zeile 6,12459.0,Berlin,09200510
268916834,52.46731,13.50718,Kita Zwergenvilla,Otto-Krüger-Zeile 4,12459.0,Berlin,09200510
268916875,52.48643,13.27615,Kita/Johannischen Sozialwerk e.V.,Bismarckallee 22,14193.0,Berlin,04400728
268916884,52.50185,13.41913,,Adalbertstraße 87,10997.0,Berlin,02300314
268916892,52.47067,13.43806,Kita Nachbi,,,,08100208
268916900,52.49574,13.41556,Neue Kindergruppe Kreuzberg e.V.,,,,02100106
268916929,52.55916,13.35002,Schillerpark-Kita,,,,01400940
268916983,52.57042,13.37321,Kita Amendestraße,Amendestraße 41,13409.0,Berlin,12100102
268917067,52.54992,13.40517,Kindergarten Gerne Gross,Dänenstraße 22,10439.0,Berlin,03601140
268917069,52.54366,13.18494,Kita Kinderarche,,,,05100210
268917075,52.54478,13.22912,Hort Goldmühle,Goldbeckweg 21,13599.0,Berlin,05300736
268917098,52.53785,13.28704,Kita Halemweg,,,,04100101
268917113,52.55323,13.38996,Kita Kiezeulen,Eulerstraße 19a,13357.0,Berlin,01300733
268917174,52.51452,13.38821,Kita Französische Straße,,,,01100206
268917175,52.49358,13.35033,Kita Frankenstraße,Frankenstraße 8/9,10781.0,Berlin,07100204
268917184,52.45156,13.57942,Kita Moppi,Friedrichshagener Straße 5L,12555.0,Berlin,09501941
268917185,52.52516,13.38706,Kindertagesstätte Pelikan,Friedrichstraße 129 f/g,10117.0,Berlin,01100308
268917189,52.54312,13.42001,Kita Helmistrolche,Lettestraße 4-5,10437.0,Berlin,03601347
268917240,52.50131,13.35622,Kindergarten Goldenes Schlüsselchen,Kurfürstenstraße 135,10785.0,Berlin,07100103
268917257,52.47137,13.44738,Urmel Kinderladen,Kanner Straße 5,12055.0,Berlin,08100417
268917283,52.53417,13.40692,Kita Oase,Kastanienallee 63 b,10119.0,Berlin,01100416
268917301,52.50167,13.31415,Kita Walter-Benjamin-Platz,Walter-Benjamin-Platz 7,10629.0,Berlin,04501041
268917413,52.49769,13.43851,Kita Oppelner Straße 21,,,,02300419
268917466,52.50993,13.46900,Kita Die kleinen Entdecker,Müggelstraße 19,10247.0,Berlin,02500832
268917478,52.49870,13.43711,Kita Lübbener Straße 6/7,Lübbener Straße 6/7,10997.0,Berlin,02300419
268917483,52.41038,13.35753,Kita Vier Jahreszeiten,Luckeweg 15,12279.0,Berlin,07601340
268917490,52.55390,13.50356,Sonnenkäfer,Malchower Weg 46,,Berlin,11200410
268917499,52.43738,13.38154,Kita Marconistraße 4,,,,07501133
268917521,52.42010,13.36841,Kita Marienfelder Allee,,,,07601236
268917580,52.53919,13.50567,"KITA ""Weiße Taube""",Schleizer Straße 62,13055.0,Berlin,11200515
268917586,52.55149,13.40555,Drieselmäuse,Driesener Straße 24,10439.0,Berlin,03601140
268917602,52.47031,13.43506,Konrad & Kids,Schierker Straße 44,12051.0,Berlin,08100208
268917623,52.53183,13.32579,Kita Sprachwelt,Rostocker Straße 32a,10553.0,Berlin,01200518
268917646,52.45471,13.44404,Kita Riesestraße 2-4,Riesestraße 2,12347.0,Berlin,08200623
268917723,52.50150,13.36081,Kita Sonnenschein,Pohlstraße 87,10785.0,Berlin,01100103
268917730,52.49447,13.41140,Kindergarten Planufer 77,Planufer 77,10967.0,Berlin,02200213
268917804,52.61007,13.33709,Kita Waldshuter Zeile,,,,12601032
268917811,52.46964,13.42639,Kita Warthestraße,Warthestraße 62A,12051.0,Berlin,08100104
268917814,52.51713,13.31142,Kita Warburgzeile,,10587.0,Berlin,04300619
268917845,52.52235,13.58429,Kita Baumelbaum,Teterower Ring 36,12619.0,Berlin,10200629
268917847,52.52236,13.58364,Montessori-Haus,Teterower Ring 34,12619.0,Berlin,10200629
268917915,52.54574,13.41955,Kinderladen Pauline Kirschkern,Stargarder Straße 19,10437.0,Berlin,03601347
268917951,52.50513,13.49698,Kita Sonnenblume,Wönnichstraße 60,10317.0,Berlin,11400929
268918029,52.50426,13.49660,"Kindertagesstätte ""Pusteblume""",,,,11400929
268918043,52.55005,13.41036,Zum klingenden Bäumchen,Dänenstraße 8,10439.0,Berlin,03601141
268918089,52.49480,13.29764,Waldorfkindergarten Tomte e.V.,Schweidnitzer Straße 3,10709.0,Berlin,04500938
268918102,52.55196,13.35700,Weddinger Kinder- und Jugendzentrum e.V.,Malplaquetstraße 24,13347.0,Berlin,01401048
268918120,52.49628,13.30640,Villa Rappelkiste,Ravensberger Straße 5B,10709.0,Berlin,04500939
269399353,52.56754,13.20669,Wichern-Kita,,,,05100101
275243576,52.53647,13.65687,,,,,
275244003,52.53886,13.64644,Kita Gänseblümchen,,,,
279620834,52.49685,13.44288,EKT Mauseblitz,Cuvrystraße 24,10997.0,Berlin,02300419
286618727,52.48231,13.34264,Kinderladen Zauberhaus,Innsbrucker Straße 42,10825.0,Berlin,07200308
287296683,52.49833,13.46238,Glückskinder Stralauer Allee,Stralauer Allee 18,10245.0,Berlin,02500835
302078156,52.56481,13.09383,Kita am Gutspark,Geschwister-Scholl-Straße 2,14612.0,Falkensee,
312938718,52.39550,13.40605,Abenteuerland,Lichtenrader Damm 190,12305.0,,07601442
331345835,52.50772,13.46052,Nella Propella,Seumestraße 31,10245.0,Berlin,02500834
365223848,52.53176,13.33200,Kita SOS-Kinderdorf,,,Berlin,01200519
373238434,52.53332,13.43277,Kinderladen Mucklas,Esmarchstraße 15,10407.0,Berlin,03701660
385651434,52.57554,13.11438,Kita am See,,,,
387839098,52.51690,13.46719,Kinderladen Buana,,,,02500728
403780768,52.50734,13.49386,CityKids Berlin,Eitelstraße 16,10317.0,,11400929
442397969,52.46622,13.43631,"Ali Baba und seine Räuber ""Krümelmonster""",Kranoldstraße 1,12051.0,Berlin,08100209
469293561,52.57139,13.41060,Kinderladen Leni Kirschkern,Eintrachtstraße 1,13187.0,Berlin,03400724
469878330,52.51560,13.30295,El Carrusel e.V.,Gierkezeile 30,10585.0,Berlin,04300621
508070028,52.54945,13.35096,Hauptstadtkinder Kita Seestern,Genter Straße 74,13353.0,Berlin,01400942
521747740,52.54122,13.42144,Kinderschlummerland,Göhrener Straße 3,10437.0,Berlin,03601348
532318871,52.45314,13.53869,Kita barfuß,,,,09200613
537161656,52.50475,13.44782,DRK-Bildungswerk Nord,,,,02400625
542778846,52.47457,13.30424,Kissi EKT,,,,04400833
559946452,52.50185,13.43003,Kita Pîya,,,,02300315
567546847,52.52578,13.45161,Kleine Fische,,,,02500726
626900900,52.48209,13.42727,Kita Früchte der Kulturen e.V.,Mainzer Straße 17,12053.0,Berlin,08100206
626900903,52.48229,13.42723,Kita Frühlicht 2,Mainzer Straße 15-16,12053.0,Berlin,08100206
638953354,52.50492,13.49001,Kita Gisela,Giselastraße 26,10317.0,Berlin,11400929
640400514,52.60273,13.34935,EKG - Am Seggeluchbecken,,,,12601134
651400316,52.44959,13.50804,Kita Karussel - Lernorte - Wissen und Bildung für Kinder GmbH,Sterndamm 41,12487.0,Berlin,09100408
652885181,52.53266,13.40182,Kindergarten Veteranenstraße 10,Veteranenstraße 10,10119.0,Berlin,01100416
667211337,52.51393,13.26551,Sara Berlin,,,,04200310
704003010,52.49248,13.32825,Aventura,,,,04501149
745730793,52.48747,13.43187,Kita Rotkäppchen,Pannierstraße 10,12047.0,Berlin,08100312
753528287,52.57224,13.40971,Verbundkita Pankow - Die Wölfe,Wolfshagener Straße 68,13187.0,Berlin,03400724
761739856,52.47626,13.44741,Kinderparadies,,,,08100415
766742182,52.49085,13.41156,Schulkinder,,,,02200212
838741927,52.54088,13.19294,,,,,05100316
944501807,52.49473,13.33541,Aventura,,,,04501152
1022985863,52.39538,13.09309,Stadt der Meister,Karl-Liebknecht-Straße 113,14482.0,Potsdam,
1025350551,52.63313,13.32041,Kita Zwergenland,Kornblumenweg 8,16548.0,Glienicke/Nordbahn,
1080552866,52.48718,13.29858,die kleinen strolchen pflegedienst,,,,04400727
1129338784,52.43649,13.55131,DASI Kindertagesstätte Knirpsenland,,,,09200717
1137565398,52.47525,13.33305,Kinderladen Hauruck,Perelsplatz 10,12159.0,Berlin,07300517
1210302030,52.56987,13.30970,Kita Kleine Kinderwelt,Klixstraße 27,13403.0,Berlin,12200310
1215799770,52.51661,13.43199,Blumenkinder,Andreasstraße 51,10243.0,Berlin,02400623
1224120948,52.48255,13.31857,Aufgepasst,,,,04501148
1244900364,52.51493,13.44647,Kita Miki,,,,02400624
1252451446,52.54258,13.36263,Kita Paradiesvögel Zebrafinken,Burgsdorfstraße 13A,13353.0,Berlin,01401047
1253875518,52.51592,13.44846,Kita Hopsemops e.V.,Karl-Marx-Allee 124,10243.0,Berlin,02400624
1256685871,52.50612,13.47793,Kita Buntstift,Pfarrstraße 91,10317.0,Berlin,11400927
1260568918,52.46895,13.49070,Kita Arbolitos,Baumschulenstraße 103,12437.0,Berlin,09100305
1263987221,52.51554,13.44478,Kita Sternthaler,Gubener Straße 1,10243.0,Berlin,02400624
1270524484,52.48377,13.28078,Kindertagesstätte St. Karl Borromäus,Delbrückstraße 33,14193.0,Berlin,04400728
1279101565,52.53905,13.20855,Kita St. Nikolai,Behnitz 3,13597.0,Berlin,05100316
1283595020,52.51142,13.47005,Kita Lieblingsplatz,,,,02500832
1320130128,52.49580,13.42656,Regenbogenfabrik Kita,Lausitzer Straße 21a,10999.0,Berlin,02300417
1344717549,52.46835,13.49322,"Kita ""Die Plänter""",Rodelbergweg 2,12437.0,Berlin,09100305
1359236244,52.53645,13.42916,Kita Zwergenbaude I,Chodowieckistraße 35,10405.0,Berlin,03701658
1380900817,52.56383,13.42090,EKT Gartenkinder e.V.,,,,03400830
1382320526,52.56762,13.42209,Kita der Kath. Kirchengem. St. Georg,,,,03400830
1383533638,52.37315,13.62994,Waldkindergarten Eichwalde e.V.,Schmöckwitzer Straße 34,15732.0,Eichwalde,
1389419281,52.52935,13.39993,be smart academy,Torstraße 134,10119.0,Berlin,01100309
1404818938,52.54913,13.21005,Kita Oscar e.V.,Neuendorfer Straße 72,13585.0,Berlin,05100314
1419614783,52.52242,13.45171,Pinepako e.V.,Straßmannstraße 28,10249.0,Berlin,02500726
1419614784,52.52265,13.45268,Grüne Wolke,Straßmannstraße 36,10249.0,Berlin,02500726
1421113656,52.52040,13.46037,Kita Elements,Eldenaer Straße 46,10247.0,Berlin,03601453
1421787446,52.63454,13.31961,"Kita ""KinderGarten""",,,,
1455045016,52.51485,13.33739,Kinderstube in Berlin,Klopstockstraße 1,10557.0,Berlin,01200629
1476695923,52.50453,13.29454,Ingrids Kindergarten,,,,04300416
1503699975,52.67240,13.60166,Kita Melodie / Kleiner Bär,,,,
1544191095,52.54888,13.40853,Kinderladen Josephine,Kopenhagener Straße 65,10437.0,Berlin,03601142
1545833203,52.48676,13.52437,Kita kleine Wichtel,"Marksburgstraße 38,40",10318.0,Berlin,11501339
1556437735,52.46715,13.71632,Hort Tausendfüssler,Prager Straße 31a,15566.0,Schöneiche bei Berlin,
1576962382,52.48841,13.42727,Rasselbande,Weserstraße 212,12047.0,Berlin,08100311
1624036979,52.53949,13.26910,Stubs und Fridolin,,,,05300839
1668063589,52.53985,13.60004,Kita Kastanienknirpse,Kastanienallee 53,12627.0,Berlin,10200420
1669810922,52.46460,13.34297,Harrys Kids Club,Peter-Vischer-Straße 12,12157.0,Berlin,07300619
1693737906,52.42101,13.48800,Kita Balou,Neuköllner Straße 312,12357.0,Berlin,08401242
1702195402,52.50174,13.36101,KiKo Hort II,Pohlstraße 74,10785.0,Berlin,01100103
1717922754,52.51397,13.49945,Herzberger Wurzelzwerge,Hagenstraße 49,10365.0,Berlin,11300725
1731277088,52.53018,13.38726,kinderinsel,Eichendorffstraße 17,10115.0,Berlin,01100415
1739346660,52.49377,13.32211,lilolei - Deutsch-Englischer Kinderladen,,,,04501044
1757580271,52.53229,13.69315,Christlicher Naturkindergarten Apfelbäumchen,,,,
1773168245,52.55461,13.44690,Kita Paul & Paula,"Roelckestraße 30,31",13086.0,Berlin,03500933
1778049228,52.48778,13.27743,,,,,04400726
1814559961,52.52187,13.40179,Kinderinsel MITTEndrin,Garnisonkirchplatz 2,10178.0,Berlin,01100310
1833519550,52.48543,13.33779,Kita an der Hochschule für Wirtschaft und Recht,Badensche Straße 50-51,10825.0,Berlin,07200308
1848905433,52.47445,13.42202,Kindertagesstätte Genezareth,Allerstraße 33-34,12049.0,Berlin,08100103
1862798922,52.46594,13.31980,EKT Fliegenpilz e.V.,,,,06100103
1865691146,52.49165,13.43341,KinderFan,,,,08100310
1895066404,52.65552,13.28389,Wurzelkinder - Waldkindergarten Frohnau,,,,12400721
1914552666,52.49623,13.32904,Finowkids e.V.,Pariser Straße 3,10719.0,Berlin,04501045
1928648257,52.53418,13.40656,Waldorfkindergarten Fliederhof,Zionskirchstraße 49,10119.0,Berlin,01100416
1929575302,52.51292,13.31249,Die Zauberworte,Zauritzweg 9,10585.0,Berlin,04300621
1935699753,52.50965,13.30095,EKT Kulturküken,Schillerstraße 64,10627.0,Berlin,04300416
1935699754,52.50949,13.29968,EKT - Pumuckel e.V. Kila II,,,Berlin,04300416
1935699755,52.50935,13.30034,Kita Pumuckel,,,,04300416
1940601968,52.50820,13.45373,Friedrichshainer Zwerge,Revaler Straße 10,10245.0,Berlin,02500834
1948112188,52.51423,13.28832,Kinderladen Windmühle,Sophie-Charlotten-Straße 84,14059.0,Berlin,04300413
1948112264,52.51504,13.28813,Heinrich-Zille-Kindergarten,,,,04300413
1959523351,52.49713,13.43211,Jungle Kita,Wiener Straße 23,10999.0,Berlin,02300418
1976439678,52.53102,13.42485,Kita Bienchen,,,Berlin,03701659
2007004767,52.42086,13.53659,Kinderzeit,,,,09300920
2021452187,52.52762,13.54335,Kleine Kosmonauten,Allee der Kosmonauten 67,12681.0,Berlin,10100312
2030963008,52.48095,13.32057,Kindergarten Aufgepasst,Blissestraße 45,10713.0,Berlin,04501151
2065301704,52.63673,13.37479,Zaubernuss,,,,
2102300970,52.54959,13.36120,Die kleinen Frösche,,,,01401048
2136471642,52.49674,13.30399,Kita ZwergNasen,Paulsborner Straße 10,10709.0,Berlin,04500938
2139861395,52.49612,13.31178,Kita el caracol/Gestaltpäd.Kindergarten e.V.,Zähringerstraße 14,10707.0,Berlin,04501043
2144424656,52.61037,13.24727,Kita Zwergenstube,Am Bärensprung 42,13503.0,Berlin,12400619
2173399329,52.51354,13.46615,Kinderladen Spieltraum,Kinzigstraße 11,10247.0,Berlin,02500831
2176082803,52.45892,13.38182,Verbundpflegestelle  Winnie-Pooh,Werderstraße 31,12103.0,Berlin,07400825
2266181719,52.57722,13.40106,Kita Lotusblüte,,,,03200206
2267204696,52.51508,13.33478,Evangelische Kita St. Ursula,Wegelystraße 12,10623.0,Berlin,04300620
2280779399,52.48599,13.39244,Evangelische Kita Blauwal,Schwiebusser Straße 6,10965.0,Berlin,02200211
2282059457,52.59608,13.28310,Kindertagesstätte am Tegeler Fließ,Waidmannsluster Damm 7E,13507.0,Berlin,12200515
2285378483,52.50429,13.41515,Katholische Kindertagesstätte St. Michael,Dresdener Straße 29,10999.0,Berlin,02300314
2285962149,52.45698,13.38223,Kindergarten Krabbelkäfer,Burgemeisterstraße 76,12103.0,Berlin,07400825
2298929155,52.54690,13.36895,LifExperience,Reinickendorfer Straße 99,13347.0,Berlin,01401043
2298929161,52.54669,13.36713,Kita Paradiesvögel,Plantagenstraße 9,,,01401043
2301610387,52.55139,13.36671,Wir werden immer größer,,,,01401049
2308423900,52.55337,13.39031,Montessori-Kinderhaus,Eulerstraße 18,13357.0,Berlin,01300733
2308524438,52.54806,13.35949,Nice-Bildung e.V.,Nazarethkirchstraße 49 A,13347.0,Berlin,01401048
2339246283,52.48195,13.32160,Arche Noah,Hildegardstraße 16,10715.0,Berlin,04501151
2352703009,52.58706,13.40229,Waldkindergarten Robin Hood,Dietzgenstraße 66,13156.0,Berlin,03200207
2375974208,52.53137,13.34974,Kita Cheburashka,,,,01200623
2415419758,52.48587,13.43631,Kita BeerenStark,Weserstraße 185,12045.0,Berlin,08100312
2423191980,52.60704,13.31843,Kita Mohnblume,Artemisstraße 4,13469.0,Berlin,12500928
2424293785,52.44431,13.58053,Kita Zauberblümchen,,,,09401534
2425546311,52.48117,13.52821,Kita Pepe Rakete,Ehrenfelsstraße 9,10318.0,Berlin,11501340
2436713759,52.58743,13.40151,Kita Kleine Mimmi,Dietzgenstraße 71,13156.0,Berlin,03200205
2452556287,52.46831,13.30423,,,,,04400832
2463102667,52.55063,13.41157,Kinderladen Bullerbü e.V.,Schivelbeiner Straße 44,10439.0,,03601141
2476315799,52.47883,13.33229,Kinderladen Wexstraße,Wexstraße 23,10715.0,Berlin,04501153
2492377936,52.53995,13.35836,Kinderladen Frischlinge,Tegeler Straße 44,13353.0,Berlin,01401046
2497483865,52.49283,13.43884,Sonnenkäferhaus,,,,02300418
2497483946,52.49322,13.43744,Spreesprotten,,,,02300418
2498835738,52.50738,13.30249,EKT - Yoyo e.V.,Kaiser-Friedrich-Straße 60,10627.0,Berlin,04300623
2508328284,52.49418,13.41099,Minifee,Dieffenbachstraße 77,10967.0,Berlin,02200213
2599978562,52.42915,13.33844,hisa Kita,,,,06200314
2623912473,52.44555,13.38205,KiTa Lillebor,Machonstraße 54,12105.0,Berlin,07501030
2626055043,52.49297,13.42783,Kinderladen Naseweis,,,,08100310
2669877515,52.50993,13.30726,Kinderladen Wusel,Schillerstraße 84,10627.0,Berlin,04300623
2676846498,52.55432,13.36567,Kita Sonnenblume/AWO,,,,01401049
2702791640,52.48982,13.31787,EKT - Gieselerstraße 25 e.V.,,,,04501147
2705668831,52.65483,13.50921,Kita Traumschloss,,16341.0,Panketal,
2733755926,52.52863,13.31896,Kita Elfenbein,Huttenstraße 21,10553.0,Berlin,01200517
2752211165,52.55606,13.38786,EKT Meilenstein,Wriezener Straße 43,13359.0,Berlin,01300732
2752211173,52.55654,13.38823,Kita Kleine Kapitäne,Wriezener Straße 39,13359.0,Berlin,01300732
2796298037,52.49133,13.44743,Karl und Karla e. V.,Karl-Kunger-Straße 59,12435.0,Berlin,09100101
2823349702,52.39550,13.39318,,Nuthestraße 18,12307.0,Berlin,07601544
2831610638,52.46137,13.32064,Zauberzwerge,Ahornstraße 20,12163.0,Berlin,06100102
2877325548,52.52188,13.19758,Krabbelgruppe der Ev. Melanchthon-Kirchengemeinde,,,,05200630
2889597699,52.59855,13.34312,Kita La Vita,Eichhorster Weg 23,13435.0,Berlin,12601134
2889852410,52.59026,13.33445,Kita Mondschein,Oranienburger Straße 63,13437.0,Berlin,12500926
2903780164,52.55347,13.44509,Kinderladen Wurzelgemüse,Roelckestraße 24,13086.0,Berlin,03500935
2907779311,52.54755,13.40300,Kita Edgar Berlin,Korsörer Straße 19,10437.0,Berlin,03601142
2928072324,52.61339,13.23995,"Kindertagesstätte ""Claudius-Arche"" der Evangelischen Matthias-Claudius-Kirchengemeinde",Schulzendorfer Straße 25,13503.0,Berlin,12400619
2935486801,52.55620,13.34342,Kita Primavera,Glasgower Straße 25,13349.0,Berlin,01400939
2938009550,52.46326,13.38202,Kita Leotie,Schönburgstraße 12,12103.0,Berlin,07400824
2938012578,52.46017,13.37691,Kita Chumani,Kaiserin-Augusta-Straße 27,12103.0,Berlin,07400824
2938063300,52.46478,13.37661,Kita Mojak,Podewilsstraße 5,12103.0,Berlin,07400823
2939073344,52.59463,13.34785,Kita Container,Schorfheidestraße 13-15,13439.0,Berlin,12601236
2939076048,52.59213,13.35726,Kinderinsel / Lîle aux enfants,Tramper Weg 4,13439.0,Berlin,12601235
2940305304,52.62340,13.31294,"Forscherkindergarten ""Rotbuche""",Berliner Straße 50,13467.0,Berlin,12400723
2952110533,52.56013,13.36082,"""Die Arche""",,,,01400940
2952709754,52.41680,13.32353,Kita Sonnenblume,,,,06200423
2953721339,52.56882,13.36785,Kita Fidibus,Amendestraße 91,13409.0,Berlin,12100102
2953843467,52.57414,13.37411,Kita Sommergarten,Sommerstraße 28,13409.0,Berlin,12100103
2962907859,52.60109,13.42967,Kita Französisch Buchholz,Schönhauser Straße 113,13127.0,Berlin,03200308
2964784072,52.60560,13.35673,Kita Krümelkiste,Senftenberger Ring 46A,13435.0,Berlin,12601134
2967300451,52.46341,13.52333,Evangelischer Kindergarten Oberschöneweide,,,,09200511
2968517234,52.47438,13.29497,Pünktchen und Anton,Cunostraße 1,14199.0,Berlin,04400832
3004624108,52.40230,13.50829,"AWO-Hort ""Elfenfels""",,,,08401245
3009887462,52.58179,13.40590,KiTa Meilenstein,Blankenburger Straße 9A,13156.0,Berlin,03200207
3022044911,52.50986,13.50253,Kita Mausezahn,Einbecker Straße 32,10317.0,Berlin,11400929
3026797138,52.40369,13.50585,Kinderladen Flinke Kids,Elly-Heuss-Knapp-Straße 21,12355.0,Berlin,08401245
3035084405,52.44769,13.25200,Onkel-Toms-Hütte e.V.,Onkel-Tom-Straße 64B,14169.0,Berlin,06400840
3039591534,52.50555,13.42252,Kinderladen Klein und Stark,Adalbertstraße 24,10179.0,Berlin,01100313
3048927550,52.51676,13.46393,El Jardín de Federico,Rigaer Straße 79,10247.0,Berlin,02500728
3048935296,52.50905,13.50390,Lucecitas,Marie-Curie-Allee 4,10315.0,Berlin,11400929
3073205133,52.49446,13.36712,EKT Bülowstraße,Bülowstraße 52,10783.0,Berlin,07100205
3079808136,52.48933,13.33138,Kant-Kindergarten,Bundesallee 187,10717.0,Berlin,04501152
3081226521,52.54218,13.37436,die kleinen Kleckse - Tagespflegestätte,Schönwalder Straße 28,,,01300836
3107015601,52.57295,13.41100,Kinderladen Spielmäuse,Wolfshagener Straße 81,13187.0,Berlin,03400724
3112772961,52.45814,13.38274,Notenzwerge,Friedrich-Wilhelm-Straße 78-79,12103.0,Berlin,07400825
3113097603,52.45922,13.58205,EKT - Die Sternenfischer e.V.,Stellingdamm 6,12555.0,Berlin,09502042
3113163959,52.48554,13.46446,Greta and Friends,Puderstraße 26,12435.0,Berlin,09100202
3113193874,52.46251,13.48161,EKT – Schraderstraße,,,,09100304
3113197215,52.46598,13.48871,Kita Kleiner Fratz Ernststraße,Ernststraße 4,12437.0,Berlin,09100304
3113197216,52.46720,13.48516,Kita Villa Klecks,Kiefholzstraße 269,12437.0,Berlin,09100304
3113362721,52.44903,13.51225,Kita Die wilden Knallerbsen,Groß-Berliner Damm 37,12487.0,Berlin,09100408
3113523925,52.44235,13.50191,Kita felix and friends,Sterndamm 109,12487.0,Berlin,09100408
3113525295,52.44545,13.50929,Kita Die wilden Knallerbsen e.V.,,,,09100408
3114688707,52.50932,13.47287,Kinderladen Friedrichsklain,Oderstraße 34,10247.0,Berlin,02500832
3140301719,52.54202,13.36106,Kita Arif und Alina,Sparrstraße 3 A,13353.0,Berlin,01401047
3161005615,52.45076,13.32181,Kita Spatzennest,Erlenstraße 20,12167.0,Berlin,06100207
3180634728,52.50484,13.31582,Kindergarten Schlumpfenland,Wielandstraße 40,10629.0,Berlin,04501041
3187715521,52.52566,13.31982,Kita Engelsnest,Kaiserin-Augusta-Allee 101,10553.0,Berlin,01200517
3219122562,52.49351,13.35116,Kiezbündnis Schülerladen - Janusz Korczak,Frankenstraße 6,10781.0,Berlin,07100204
3229138235,52.46483,13.33154,Kinderladen Krikel Krakel,Peschkestraße 8,12161.0,Berlin,06100209
3235730026,52.48917,13.45401,Kita Pretty World,Elsenstraße 25,12435.0,Berlin,09100101
3282739961,52.53739,13.40357,Rappelkiste,Wolliner Straße 9,10435.0,Berlin,01100416
3282743761,52.53691,13.40357,Kinderladen Rosenthaler Vorstadt,Wolliner Straße 60,10435.0,Berlin,01100416
3300124950,52.64099,13.48882,Montessori-Kinderhaus Berlin-Buch,Wiltbergstraße 90,,,03100101
3343102816,52.49189,13.35228,Kita des Pestalozzi-Fröbel-Hauses,Barbarossastraße 64,10781.0,Berlin,07100204
3398539875,52.52016,13.46439,Krippe Mondbär,Eldenaer Straße 36,10247.0,Berlin,03601453
3444591296,52.48095,13.36283,Brei nach Neun,Leuthener Straße 8,10829.0,Berlin,07200413
3444591297,52.48121,13.35922,Kinderladen Meckerbeine,Cheruskerstraße 17,10829.0,Berlin,07200413
3446653826,52.48369,13.36301,Kinderladen Bunte Knospe,,,,07200413
3446657747,52.49133,13.36526,Evangelische Kita Silas,,,,07100206
3446931210,52.48338,13.36209,Kita Cookis,Gustav-Müller-Platz 2,10829.0,Berlin,07200413
3450394081,52.48809,13.36426,Kunkel,,,,07200414
3452083371,52.55433,13.41016,Tegner-Strolche,,,,03601139
3475070854,52.50330,13.35661,Kita Maulwurf,Derfflingerstraße 21,10785.0,Berlin,01100103
3479948103,52.49247,13.35636,EKT Tigertatzen,Elßholzstraße 11,10781.0,Berlin,07100204
3484066981,52.45759,13.27461,Waldorf-Kindergarten Zehlendorf e.V.,,,,06400844
3488849732,52.49484,13.35002,Kinder- und Schülerladen Manno,Hohenstaufenstraße 10a,10781.0,Berlin,07100102
3563135693,52.49391,13.41941,Großpflegestelle Peti und Ulli,,,Berlin,02200213
3570843073,52.47004,13.32097,Kinderladen Kraut und Rüben,Schwalbacher Straße 8,12161.0,Berlin,07300516
3570843074,52.47003,13.32219,EKT Rappelschlößchen,Schwalbacher Straße 10,12161.0,Berlin,07300516
3578793271,52.55121,13.38917,Kindergarten Auenland,Zingster Straße 12,13357.0,Berlin,01300733
3641077083,52.33954,13.65805,Kita Zwergenstadt,Wernsdorfer Straße 145,15713.0,Königs Wusterhausen,
3666631695,52.49905,13.34161,Kita Fuggerstraße e.V.,Fuggerstraße 37,10777.0,Berlin,07100101
3666792404,52.52444,13.31373,"Kita ""bewegte Kinder e.V.""",,,,04300518
3698296432,52.48899,13.34935,Kita Purzelbaum,Eisenacher Straße 81,10823.0,Berlin,07200409
3822837670,52.46630,13.47382,Kita Hänselstraße,,,,08100521
3843550705,52.48052,13.32398,Waldorfkindergarten Rosenhof,Weimarische Straße 5,10715.0,Berlin,04501151
3844570972,52.49017,13.34614,Kinderladen Frechsdachs,Rosenheimer Straße 28,10781.0,Berlin,07100204
3844739281,52.48692,13.34253,Kinderladen Amtomokarasachmo,Salzburger Straße 7,10825.0,Berlin,07200307
3874226721,52.52085,13.43257,KreativitätsKindertagesstätte Allesforscher,Strausberger Straße 38,10243.0,Berlin,02400521
3900932445,52.53225,13.32677,Kita Elfenblume,Rostocker Straße 28,10553.0,Berlin,01200518
3900935675,52.53198,13.32677,Kita Safina I,,,,01200518
3905690358,52.46445,13.51446,Kita Windfee,Goethestraße 2,12459.0,Berlin,09200511
3906165319,52.46496,13.51379,Kita Spreekinder 2,Edisonstraße 19,12459.0,Berlin,09200511
3943335526,52.50276,13.37262,,,,,02200207
3973033677,52.56715,13.31631,Hakuna Matata,,,,12200309
3987002050,52.44866,13.31330,Kita der Kath. Kirchengem. St. Annen,,,,06300633
4014691041,52.52895,13.41332,FRÖBEL Kindergarten,Straßburger Straße 6B,10405.0,Berlin,03701556
4074274150,52.48855,13.37452,EKT - Macht nix e.V.,,,,02200209
4086166289,52.44478,13.37241,Die kleinen Sonnenblumen,Kaiserstraße 144,12105.0,Berlin,07501029
4095932191,52.55608,13.34364,Kindertagesstätte Gänseblümchen e.V.,Glasgower Straße 26,13349.0,Berlin,01400939
4116037365,52.43471,13.34800,Kinderladen am Park,,,,06200313
4119299329,52.54398,13.42185,Kita Edgar Berlin,Dunckerstraße 74,10437.0,Berlin,03601347
4135107550,52.46144,13.44602,Kita Regenbogen,Buschkrugallee 31,12359.0,Berlin,08200622
4219699165,52.51255,13.46715,Kita Salabanda Süd,Scharnweberstraße 47,10247.0,Berlin,02500831
4259918472,52.53128,13.42510,Kindergarten Berliner Kindheit,,,,03701659
4315470218,52.55009,13.34906,Kita Abenteuerland,,,,01400938
4315470225,52.54991,13.34941,Kita Kardelen,Lüderitzstraße 3,13351.0,Berlin,01400938
4321142341,52.53504,13.35801,,,,,01200623
4339053524,52.54736,13.36957,Kinderladen Zauberhaus,Reinickendorfer Straße 30,13347.0,Berlin,01401044
4350176243,52.52043,13.46024,Kita Hexenkleckshausen,Eldenaer Straße 46,10247.0,Berlin,03601453
4365425589,52.37379,13.1005,"Kita ""Spatzenhaus""",,,,
4379185792,52.44296,13.38310,Kinderladen Marienkäfer,Prühßstraße 30,12105.0,Berlin,07501030
4405396789,52.55287,13.38958,Kita Piccoli Artisti,Eulerstraße 21,13357.0,,01300733
4412304410,52.50771,13.31176,Kindertagespflege Froschwiese,Pestalozzistraße 88A,10625.0,Berlin,04300623
4415744966,52.52075,13.35693,Kinderladen Schneckenhaus,,,,01200628
4436543239,52.55290,13.37031,Kindergarten Rauda,,,,01401044
4444386578,52.54517,13.36977,Outlaw Kita am Nettelbeckplatz,Reinickendorfer Straße 110A,13347.0,Berlin,01300836
4448386325,52.56965,13.31138,Kita Stadtperlen,,,,12200310
4450678323,52.43098,13.33609,Kita Benjamin Blümchen,,,,06200314
4453587751,52.47689,13.60031,Kindergarten frei und geborgen,Hultschiner Damm 25 - 27,12623.0,Berlin,10400940
4454229200,52.52962,13.32653,Little Kiwis,Rostocker Straße 42,10553.0,Berlin,01200518
4473267846,52.52517,13.41565,Kita am Alex,Wadzeckstraße 3,10178.0,Berlin,01100310
4534097100,52.50568,13.46374,Rabenkinder,Simplonstraße 52,10245.0,Berlin,02500834
4550576193,52.57044,13.57123,Kiek mal,,,,10100102
4551507683,52.52021,13.46409,Krippe Sonnenkäfer,Eldenaer Straße 36,10247.0,Berlin,03601453
4583979875,52.58496,13.42853,Kita Die Kiezkrümel,Pankower Straße 1,13127.0,Berlin,03400725
4596211011,52.46874,13.49123,Die Traumfänger,Köpenicker Landstraße 246,12437.0,Berlin,09100305
4640590860,52.51053,13.42475,Kita Spreefeld,Wilhelmine-Gemberg-Weg 10,10179.0,Berlin,01100313
4645562407,52.56379,13.39582,Kinderladen Auenland e.V.,,,,03400721
4645562408,52.56173,13.39848,Sternschnuppe,,,,03400721
4698844715,52.46216,13.51581,Kita Zauberland,Wilhelminenhofstraße 21,12459.0,Berlin,09200511
4702468664,52.44439,13.29115,EKT Biegel e.V.,Unter den Eichen 93,12205.0,Berlin,06300629
4719017433,52.55384,13.11568,Waldorfkindergarten,,,,
4719017435,52.56531,13.10062,Kita Zum Guten Hirten,,14612.0,Falkensee,
4719017449,52.55923,13.13768,Kita Sonnenstrahl,,,,
4719017458,52.57536,13.09118,Kita Tollhaus am Wald,,,,
4752561585,52.48568,13.37196,Lok 18,Am Lokdepot 17,10965.0,Berlin,07200414
4757507849,52.48930,13.45476,Kita Pretty World,Elsenstraße 102A,12435.0,Berlin,09100101
4775397846,52.49733,13.34740,Kita Motzstraße,Motzstraße 33,10777.0,Berlin,07100102
4789962777,52.52960,13.33581,Kleine Moabiter,Oldenburger Straße 40,10551.0,Berlin,01200519
4797313799,52.43546,13.54749,Kita Nusshütte,,,,09200716
4812222801,52.56687,13.39666,Kinderladen Piwi,Wollankstraße 11,13187.0,Berlin,03400721
4831523450,52.56719,13.39798,Pankekinder e.V.,Wollankstraße 119,13187.0,Berlin,03400721
4852033592,52.46522,13.49111,Kita Kleiner Fratz e.V.,Behringstraße 33,12437.0,Berlin,09100304
4854908806,52.57222,13.31190,DRK Kita Antonia,Antonienstraße 50a,13403.0,Berlin,12200310
4854908807,52.57162,13.31301,"Kita ""Die kleinen Grünschnäbel""",Eichborndamm 39,13403.0,Berlin,12200310
4854908809,52.56821,13.32130,Vorschulgruppe Schillingstraße,Schillingstraße 15,13403.0,Berlin,12200309
4854908810,52.56849,13.32150,Kindertagesstätte Schillingstraße,Schillingstraße 16,13403.0,Berlin,12200309
4854908811,52.56854,13.32104,Kita Wortschmiede,Zobeltitzstraße 34,13403.0,Berlin,12200309
4894826467,52.62399,13.31190,EKT - Zwergenschloß e.V. Krippe,,,,12400723
4896119784,52.60974,13.32017,Kids Company II Ganztagsbetreuung,,,,12500928
4899779633,52.55377,13.38085,Kenntnisreich,,,,01401045
4904477276,52.43444,13.25933,Kita Paulus,,,,06300526
4915105981,52.46643,13.43674,"Ali Baba und seine Räuber ""Rainbow""",Bendastraße 21,12051.0,Berlin,08100209
4919670361,52.61705,13.32488,"Tagesgroßpflege ""Minigarten""",Seebadstraße 33,13467.0,Berlin,12400723
4920605620,52.50890,13.49664,,Eitelstraße 85,10317.0,Berlin,11400929
4955248527,52.46978,13.33880,Kita Wielandstraße,Wielandstraße 23,12159.0,Berlin,07300618
4957656703,52.56833,13.31046,"Kita ""Kuddel-Muddel""",,,,12200310
5003038558,52.45159,13.34440,Kita Bibbi-Bär,Immenweg 13-15,12169.0,Berlin,06100204
5012454810,52.59626,13.35301,Kita Kirchenmäuse,Wilhelmsruher Damm 159a,13439.0,Berlin,12601235
5037999568,52.56451,13.53015,Kita Wiesenhüpper,Wartiner Straße 77,13057.0,Berlin,11100203
5053819060,52.48681,13.39038,Wildblume III,Fidicinstraße 10,10965.0,Berlin,02200211
5068538507,52.61062,13.24748,Kleine Pusteblume,Am Bärensprung 36,13503.0,Berlin,12400619
5089487583,52.42377,13.48258,Kita Pretty World,Agnes-Straub-Weg 20,12353.0,Berlin,08301037
5094086536,52.41338,13.36422,Kita Marienfelder Kiezhopser,Alt-Marienfelde 54,12277.0,Berlin,07601237
5101307259,52.45665,13.32709,Kita Multitalent,Heesestraße 9,12169.0,Berlin,06100208
5141153069,52.50581,13.46123,Kita Rabbit Street,Haasestraße 9,,,02500834
5149504749,52.50707,13.49495,Kindertagespflegestelle Flohzirkus,,,,11400929
5149515671,52.50604,13.49494,Spieltraum Lichtenberg,,,,11400929
5159718853,52.55951,13.09288,Musisch-Kreativer ASB-Hort,,,,
5166361428,52.65469,13.33984,Am Schlosspark,,,,
5210416716,52.48763,13.33224,Kindertagespflege Baerliner Rasselbande,Berliner Straße 9,10715.0,Berlin,04501152
5212798828,52.48625,13.46525,Kinderladen,Am Treptower Park 37,12435.0,Berlin,09100202
5216814509,52.56791,13.36477,Großtagespflege Unser Spatzennest,Amendestraße 101,13409.0,Berlin,12100102
5239552683,52.52119,13.45421,Kita Salabanda 73,Mühsamstraße 73,10249.0,Berlin,02500726
5241636642,52.57002,13.35172,Kita Pirole,,,,12100205
5252560023,52.57010,13.35076,Kita Kinderinsel Aroser Allee,Aroser Allee 151,13407.0,Berlin,12100205
5266157901,52.57018,13.37364,,,,,12100102
5268605011,52.50167,13.43150,EKT Bessere Zukunft für Kinder,Muskauer Straße 11A,10997.0,Berlin,02300315
5296054903,52.58562,13.37200,Kita Sternenburg,Edelweißstraße 27,13158.0,Berlin,03400619
5306807794,52.52508,13.59210,dreieins Kita Kaulsdorf,Peter-Huchel-Straße 35,12619.0,Berlin,10200628
5338838694,52.55068,13.41050,el jardin de Mafalda e.V.,,,,03601141
5339117680,52.55269,13.40517,Piano e.V.,,,,03601140
5346651761,52.54685,13.40255,Kita Mauerschwalben,,,,03601142
5351286163,52.55249,13.41092,Pünktchen+Paul,,,,03601141
5351286164,52.55252,13.41054,Brüderchen und Schwesterchen,,,,03601141
5370729433,52.44864,13.34518,Kindertagesstätte JuLiKinder,Halskestraße 9,12167.0,Berlin,06100205
5386381032,52.55435,13.40972,freude,,,,03601139
5389406549,52.54695,13.40680,Die wilden Kücken,Gleimstraße 13,10437.0,Berlin,03601142
5436064207,52.58840,13.40138,Kindertagesstätte Melodiekiste,Dietzgenstraße 79,13156.0,Berlin,03200205
5440588796,52.48460,13.33548,Piccolino,Babelsberger Straße 40,10715.0,Berlin,04501153
5440588797,52.48539,13.33550,Land in Sicht,Babelsberger Straße 43,10715.0,Berlin,04501153
5451560607,52.55273,13.40477,PIDA e.V.,Paul-Robeson-Straße 30,10439.0,Berlin,03601140
5471136068,52.55320,13.42792,Anderland,,,,03400828
5486628642,52.55491,13.42235,Cheburashka,,,,03400827
5489583919,52.49739,13.44656,Munkelrübe,Taborstraße 21,10997.0,Berlin,02300419
5504502662,52.48063,13.33097,Girasole Kita,Durlacher Straße 27,10715.0,Berlin,04501153
5505144585,52.47974,13.32450,Kinderhaus Kipsi,Weimarische Straße 20,10715.0,Berlin,04501151
5508692966,52.54643,13.40976,Kindergarten Stadt und Waldkinder,,,,03601142
5515845294,52.51867,13.31576,Kindertagespflege Alegria,Galvanistraße 15,10587.0,Berlin,04300619
5574301780,52.52261,13.38085,Casa Azul Maison Bleue,,,,01100308
5587090948,52.45985,13.37705,Reh-KIDS,,,,07400825
5643671624,52.47649,13.32880,Kinderladen Sieglinde,Bundesallee 140,12161.0,Berlin,07300517
5649706668,52.63301,13.32024,Kita Kleine Strolche,Kornblumenweg 8,16548.0,Glienicke/Nordbahn,
5650233217,52.56644,13.31895,Kita Simba,,,,12200309
5693846374,52.63859,13.30340,EKT - Knusperhaus Frohnau e.V.,,,,12400721
5696294465,52.47885,13.51378,ABC Kindergarten,,,,11501341
5743824826,52.59540,13.34926,,,,,12601235
5746405292,52.38611,13.39775,EKT Mini-Kids Salvator,,,,07601544
5823415314,52.45362,13.32775,Kinderladen JaJaHe,,,,06100207
5839749530,52.39730,13.09001,hoffkids,,,,
5839749534,52.39750,13.09062,Kinderhaus Pittiplatsch,Alt Nowawes 100,14482.0,Potsdam,
5845386948,52.47988,13.51456,"Kita ""Luna Sternenstaub""",Liepnitzstraße 42,10318.0,Berlin,11501341
5909869891,52.49215,13.37643,Kinderfreizeit im Möckernkiez,,,,02200207
5933524412,52.39625,13.11806,Flitzpiepen,Rudolf-Breitscheid-Straße 11/13,14482.0,Potsdam,
5938467760,52.47135,13.33393,das krümelzimmer,Schmargendorfer Straße 34,12159.0,Berlin,07300517
5943298094,52.56232,13.40254,Kinderland Ferdinand,Brehmestraße 35,13187.0,Berlin,03400721
5952120161,52.56133,13.41113,Clownfisch,,,,03400826
5997087757,52.50351,13.29145,Coquelicot,,,,04300416
6012964894,52.53072,13.38899,Berlinchen,,,,01100415
6090437599,52.50053,13.49464,Kita Zahnlücke,,,,11400928
6116296262,52.46488,13.43898,Kita BB17,Bruno-Bauer-Straße 17,12051.0,Berlin,08100209
6123173591,52.48935,13.52564,Kita an der Hochschule für Technik und Wirtschaft Berlin,Hönower Straße 35,10318.0,Berlin,11501339
6133326608,52.51399,13.50445,Kindertagespflege Klein Krümel,,,,11300725
6161608466,52.54885,13.49527,Kita Hedwig,Hedwigstraße 11,13053.0,Berlin,11200411
6187610415,52.52427,13.45695,Kita Sternchen,Thaerstraße 30A,10249.0,Berlin,03601453
6187616333,52.52455,13.45703,Kita Hokuspokus,Walter-Friedländer-Straße 26,10249.0,Berlin,03601453
6192931617,52.52556,13.45341,Kinderladen Spieltraum,Hausburgstraße 12,10249.0,Berlin,02500726
6205600286,52.49548,13.50073,Zwergenbewegung,,,,11401135
6269962428,52.54993,13.41199,"Kinderladen ""kribbel krabbel""",Dänenstraße 4,10439.0,Berlin,03601141
6271841739,52.57236,13.56830,Kita Irgendwie Anders,Märkische Allee 414,12689.0,Berlin,10100102
6278331129,52.48308,13.35550,Kinderladen Elefanten,Ebersstraße 12a,10827.0,Berlin,07200410
6284838568,52.56374,13.41977,Junges Gemüse,Binzstraße 51,,,03400830
6325500308,52.50659,13.46786,Montessori Kinderhaus Olivo,Lenbachstraße 2,10245.0,Berlin,02500834
6354886638,52.52192,13.33409,Kinderladen Jagowspatzen,Jagowstraße 10,10555.0,Berlin,01200522
6388595096,52.45977,13.52394,Kita Traumschön,Marienstraße 19,12459.0,Berlin,09200511
6404602146,52.51342,13.31678,Kita Wunderinsel,Marie-Elisabeth-Lüders-Straße 7,10625.0,Berlin,04300622
6501792389,52.56765,13.33053,Kita Nemo,Kögelstraße 4-5,13403.0,Berlin,12100205
6503855622,52.45597,13.32638,Kindertagespflege Spatzennest,Heesestraße 5,12169.0,Berlin,06100208
6513657958,52.36603,13.12879,Kindertagesstätte Baumhaus,Sternstraße 63,14480.0,Potsdam,
6520925486,52.45278,13.32225,La Casa de los Gorriones,Schützenstraße 41a,12165.0,Berlin,06100207
6520925586,52.45380,13.32385,Cardelinas,Leydenallee 90,12167.0,Berlin,06100207
6532305045,52.55133,13.34831,Kita Engelsnest II,,,,01400938
6539967415,52.51109,13.53535,Kita Tierparkzwerge,Gensinger Straße 83,10315.0,Berlin,11401033
6575237226,52.50532,13.55806,Kita Fuchtelzwerge,Elsterwerdaer Platz 1,12683.0,Berlin,10300733
6604233055,52.54129,13.14494,,Beim Pfarrhof 40-42,13591.0,Berlin,05200419
6610463373,52.43831,13.33078,Kita Mary Poppinz,Beethovenstraße 38,12247.0,Berlin,06200312
6661240699,52.50222,13.39784,Kita Milchstraße,,,,02100103
6724108539,52.52555,13.30895,Kindertagesstätte Die Schlümpfe,,,,04300518
6732268385,52.55507,13.36689,Kita Pinocchio,Iranische Straße 6A,13347.0,Berlin,01401049
6736367708,52.57104,13.09356,Integrationskita Entdeckerland,,,,
6754311360,52.51478,13.48094,KiTa Weltentdecker,,,,11300722
6766861387,52.55368,13.36192,Kita Weiße Wolke,Groninger Straße 32,13347.0,Berlin,01401049
6766861686,52.55618,13.34764,Montessori-Kinderladen Wedding,Edinburger Straße 39,13349.0,Berlin,01400939
6769979833,52.45953,13.52830,Plönzwerge,,,,09200511
6779365815,52.47489,13.42546,Kita Sonnenkönig,,,,08100103
6789630877,52.55456,13.40581,Kita Born,Bornholmer Straße 18,10439.0,Berlin,03601139
6817527816,52.50080,13.42381,Kinderladen Wolkenburg,Mariannenstraße 48,10997.0,Berlin,02300315
6818256665,52.46674,13.43359,,Silbersteinstraße 54,12051.0,Berlin,08100209
6869974716,52.53063,13.43189,Kindergarten Käthe,Käthe-Niederkirchner-Straße 29,10407.0,Berlin,03701660
6980978159,52.48215,13.44309,Kinderladen Highway e.V.,,,,08100418
6987208791,52.50654,13.40816,Kleiner Fratz,,,,01100312
7003188998,52.62768,13.20339,Kita Die Weltentdecker,Spandauer Allee 10,16761.0,Hennigsdorf,
7004855347,52.46617,13.43609,"Ali Baba und seine Räuber ""Die kleinen Strolche""",Kranoldstraße 1A,12051.0,Berlin,08100209
7007028810,52.42946,13.33188,Kinderladen Mauersegler,Lankwitzer Straße 10,12209.0,Berlin,06200314
7014964447,52.35933,13.09351,Rappelkiste,Liefelds Grund 23-25,14478.0,Potsdam,
7040633535,52.48659,13.42702,Kita Zwergplaneten,Hobrechtstraße 8,12043.0,Berlin,08100314
7040793222,52.48484,13.43040,Kita Wichtelgarten,Donaustraße 6,12043.0,Berlin,08100314
7045234980,52.48599,13.42992,Hort Sonnenkids,,,,08100314
7069235384,52.53354,13.43635,Kita Mascha und der Bär,,,,03701660
7093344096,52.47740,13.43637,Die drei Affen,Kienitzer Straße 16,12053.0,Berlin,08100207
7093863276,52.53197,13.43655,Kita Sturmtüten,Pasteurstraße 38,10407.0,Berlin,03701660
7099445060,52.64386,13.32140,Bieselmäuse,Glienicker Chaussee 62,16567.0,Mühlenbecker Land,
7194172242,52.53526,13.43701,Kita Cheburashka,Bernhard-Lichtenberg-Straße 9,10407.0,Berlin,03601451
7222331689,52.44289,13.58225,Kleine Helden Köpenick,Müggelheimer Straße 45,12555.0,Berlin,09401534
7227012497,52.53825,13.65220,Hort Schatztruhe,Brandenburgische Straße 132 A,15366.0,Hoppegarten,
7232729807,52.41497,13.34512,Grashüpferchen,Hildburghauser Straße 73,12279.0,,07601339
7233815655,52.48486,13.38267,Die Ameisen,Dudenstraße 17,10965.0,Berlin,07400720
7238382356,52.47466,13.42462,Kita Columbus,Weisestraße 26,12049.0,Berlin,08100103
7242405888,52.56397,13.33040,Kita LuftBallon 2,,,,12100205
7274600282,52.54359,13.42149,Bazuba Kaminka,Dunckerstraße 77,10437.0,Berlin,03601347
7276177546,52.54053,13.41873,Deutsch-Chinesische Kita,Dunckerstraße 90a,10437.0,Berlin,03601347
7279591710,52.54379,13.41960,10 Vorne,Schliemannstraße 33,10437.0,Berlin,03601347
7280443787,52.54642,13.42084,Mischpoke,Lychener Straße 76,10437.0,Berlin,03601347
7288732050,52.54183,13.41706,Berliner Pandabären,Schliemannstraße 42,10437.0,Berlin,03601347
7288749672,52.54100,13.41667,Schaukelpferd,Schliemannstraße 47,10437.0,Berlin,03601347
7289480953,52.56225,13.35750,EKT - Die Mini-Entdecker e.V.,,,,12100204
7346753365,52.49700,13.29778,Kangaroo Garden,,,,04500938
7346753368,52.49718,13.29755,Wallaby,,,,04500938
7376750798,52.48897,13.40045,Kinderladen Löwenherz,Bergmannstraße 69,10961.0,Berlin,02200211
7382754575,52.43427,13.45496,Kita Erdmännchen,,,,08300934
7402461285,52.53782,13.37317,Kita Feuerfalter,Chausseestraße 84,10115.0,Berlin,01100308
7428910086,52.55733,13.34204,Kita Smile,,,,01400939
7428912785,52.55605,13.34257,Kita Müllerstraße,Müllerstraße 64,13349.0,Berlin,01400939
7467083289,52.38406,13.38847,Hort Orenda,,,,07601546
7495376740,52.55557,13.34736,Krippe Barfusstraße,Barfusstraße 14,13349.0,Berlin,01400939
7495426960,52.55541,13.34373,Kita Ofener Straße,Ofener Straße 15,13349.0,Berlin,01400939
7502945572,52.55338,13.33854,Kita PiratenKids,,,,01400937
7550986531,52.47883,13.33341,Kita Kinderkiez,Wexstraße 22,10715.0,Berlin,04501153
7563821254,52.47888,13.32464,Die Glückstupfen,,,,04501151
7573227530,52.49951,13.29244,Papillon Rouge,Katharinenstraße 20,10711.0,Berlin,04500937
7575872787,52.65654,13.14542,"Kita ""Traumzauberbaum""",Veltener Straße 23,16727.0,Oberkrämer,
7590570268,52.49341,13.41786,Schülerladen Hasenbau,,,,02200213
7609092412,52.55385,13.34476,Kita Freche Früchte,Transvaalstraße 46,13351.0,Berlin,01400938
7613183868,52.55556,13.34672,Kita Pîya,Barfusstraße 13,13349.0,Berlin,01400939
7620325885,52.54205,13.37067,"Kita Paradiesvögel ""Die Elstern""",Schönwalder Straße 17,13347.0,Berlin,01300836
7624535491,52.50316,13.40517,Kita Ritterburg,Ritterstraße 35,10969.0,Berlin,02100104
7638273424,52.48079,13.33056,Kindertagesstätte Tübinger Straße,Tübinger Straße 1,10715.0,Berlin,04501153
7683719227,52.47449,13.34083,KiLa Friedenauer Spatzen,Sponholzstraße 51-52,12159.0,Berlin,07300618
7700452314,52.48705,13.31921,Kita Kleine Küken,Brandenburgische Straße 84/85,10713.0,Berlin,04501146
7702380332,52.55424,13.37319,Vielfalter,,,,01401045
7705210637,52.46682,13.33284,Kindertagespflegestelle Bouwmann,,,,07300618
7731748065,52.56013,13.38046,Kita Die Bärenbande,,,,01300730
7747350435,52.47380,13.34300,Naturdetektive Kita Cecilien,Ceciliengärten 40,12159.0,Berlin,07300618
7747350438,52.47482,13.34287,Krabbelkiste,Rubensstraße 28,12159.0,Berlin,07300618
7767814951,52.49407,13.29409,Multi Lingua INternationaler Kindergarten,Seesener Straße 44-46,10711.0,Berlin,04500938
7776221538,52.46628,13.33337,Krippe Die Mäuschen,Holsteinische Straße 33a,12161.0,Berlin,07300618
7803708937,52.46394,13.42470,Kita MANNA Maria,Mariendorfer Weg 28,12051.0,Berlin,08100105
7827657723,52.47526,13.31995,Spreepferdchen Waldorforientierte Kita,Laubacher Straße 35,14197.0,Berlin,04400835
7827657727,52.48181,13.31323,Kleine Knöpfe,Barstraße 28,10713.0,Berlin,04501148
7829798159,52.44193,13.44625,,,,,08200727
7850084103,52.43661,13.52733,Familya Adlershof,,,,09200715
7853722739,52.51190,13.38828,Alegria,,,,01100207
7925507215,52.44999,13.75713,Entdeckerland,Ethel-und-Julius-Rosenberg-Straße 51,15569.0,Woltersdorf,
7986955243,52.65229,13.52949,Montessori-Hort Zepernick,Möserstraße 20,16341.0,Panketal,
8000778281,52.47985,13.32009,Platypus,Blissestraße 60,10713.0,Berlin,04501148
8042827119,52.48241,13.34272,Knopf & Knöpfchen,Fritz-Elsas-Straße 17,10825.0,Berlin,07200308
8063067440,52.64072,13.08876,,,,,
8066810070,52.48049,13.34744,Kindertagespflege Windelflitzer,Kärntener Straße 29,10827.0,Berlin,07200308
8066810073,52.47909,13.34785,Kita Estrellitas,Kärntener Straße 25,10827.0,Berlin,07200308
8071884199,52.50600,13.29282,Umme Ecke,,,,04300415
8118819078,52.47080,13.32796,"Kindergarten ""Zum guten Hirten""",Bundesallee 76a,12161.0,Berlin,07300516
8121763029,52.45949,13.31402,Kita Grunewaldstraße,Ermanstraße 26,12163.0,Berlin,06100101
8122194432,52.47094,13.32802,Kinder- und Schülerladen Milchzahn,Bundesallee 76,12161.0,Berlin,07300516
8143926006,52.47189,13.31858,Montessori-Kinderhaus im IBZ,Wiesbadener Straße 18,14197.0,Berlin,04400835
8176633041,52.46893,13.32993,Kita Rubin,Handjerystraße 60,12161.0,Berlin,07300516
8187032300,52.46966,13.43571,Kita Prinz Rose,Nogatstraße 45,12051.0,Berlin,08100208
8199219260,52.47004,13.32074,Schülerladen Große Pause,Schwalbacher Straße 7,12161.0,Berlin,07300516
8222417372,52.46690,13.31913,Kindergarten Happy Kids,Kreuznacher Straße 9,14197.0,Berlin,06100103
8222836700,52.46871,13.32654,Schülerladen Eisbären,Odenwaldstraße 26,12161.0,Berlin,07300516
8223127055,52.48130,13.34653,Himpelchen & Pimpelchen,Koburger Straße 4,10825.0,Berlin,07200308
8240516925,52.52048,13.31968,Kita Aurorafalter,Dovestraße 3d,10587.0,Berlin,04300620
8286763684,52.46488,13.51388,Kita Spreekinder 1,Griechische Allee 1,12459.0,Berlin,09200511
8328526642,52.49792,13.29979,mi nido,,,,04500938
8354810259,52.49418,13.50699,Dolgensee Kids,,,,11401135
8444713355,52.52405,13.45736,KitaHausburg,Thaerstraße 28B,10249.0,Berlin,03601453
8513000507,52.55410,13.35131,Konsti e.V.,,,,01400939
8633086710,52.53400,13.57294,"Kita ""Gartenkinder""",Irmfriedstraße 64,12683.0,Berlin,10300732
8707551308,52.39379,13.11072,Kindertagesstätte Tagesträume,Rudolf-Breitscheid-Straße 118,14482.0,Potsdam,
8744144593,52.45019,13.34852,Kita Tautropfen,Steglitzer Damm 69a,12169.0,Berlin,06100204
8761813239,52.44806,13.30610,Kita die kleinen Grünschnäbel III,,,,06300629
8803749963,52.64187,13.48992,Baum und Borke,,,,03100101
8839649620,52.50109,13.29692,Oskar der Baum & seine Freunde,Joachim-Friedrich-Straße 29,10711.0,Berlin,04500937
8850856429,52.42367,13.39519,Kita Grashüpferchen,Mariendorfer Damm 336,12107.0,Berlin,07501135
8873228376,52.47670,13.43941,Musikkita Kleiner Fratz,Karl-Marx-Straße 145,12043.0,Berlin,08100416
8907862843,52.58572,13.40230,Kita Zitterbacke,,,,03200205
9003375272,52.53602,13.42567,Netzwerkhort,Christburger Straße 7,10405.0,Berlin,03701658
9003418727,52.53555,13.42567,Hort im Gartenhaus,Winsstraße 49,10405.0,Berlin,03701658
9005327733,52.55925,13.38480,KiTa Kleine Wölkchen,,,,01300731
9032095847,52.52661,13.18400,Kita Mondstern,Seeburger Straße 65,,,05200630
9047895780,52.62747,13.50456,Kita CampusSterne,Lindenberger Weg 74,13125.0,Berlin,03100103
9061043048,52.55164,13.41897,Remmi Demmi,Greifenhagener Straße 29,10437.0,Berlin,03601243
9099183759,52.54148,13.42229,KiBa,Raumerstraße 19,10437.0,Berlin,03601348
9116130907,52.47758,13.42250,Kita Hauptstadtracker,Herrfurthplatz 3,12049.0,Berlin,08100102
9163223306,52.56147,13.38160,Siebenschön,,,,01300731
9198286180,52.55496,13.37741,Der kleine Muck,,,,01401045
9215915528,52.42128,13.53933,Kita Krümel-Zwerge,,,,09300920
9288296134,52.47119,13.43095,Kunti Bunti,Jonasstraße 31,12053.0,Berlin,08100208
9335591748,52.55346,13.41340,Paradiesäpfel,,,,03601141
9363637478,52.51910,13.45431,Kita Salamander,Weidenweg 53,10247.0,Berlin,02500727
9379533629,52.54290,13.37292,Pankonauten,Ravenéstraße 10,13347.0,Berlin,01300836
9410449832,52.48942,13.41476,Kinderladen Alles Banane,Graefestraße 39,10967.0,Berlin,02200212
9410449833,52.48855,13.41407,Kita Sonnenblümchen,Graefestraße 43,10967.0,Berlin,02200212
9431788883,52.5498,13.46002,Mikematze,Berliner Allee 110,13088.0,Berlin,03500936
9444695333,52.48481,13.52249,"Kita ""Dorothea""",Dorotheastraße 27,10318.0,Berlin,11501339
9461896968,52.57329,13.35964,Kita Resi,,,,12100103
9472528745,52.54755,13.36950,Kita Ringelblume,Reinickendorfer Straße 32,13347.0,Berlin,01401044
9516260468,52.54804,13.45429,Kita Zauberschlüssel,Bizetstraße 53,13088.0,Berlin,03500936
9531153624,52.45395,13.51690,Junior 1 - KiTa im Fenngarten,Fennstraße 5-6,12439.0,Berlin,09200613
9534728392,52.54644,13.45260,Kinderladen Kleine Riesen,Borodinstraße 11,13088.0,Berlin,03500936
9547400048,52.47266,13.38535,Bonifatius Buchenblatt,Tempelhofer Damm 96,12101.0,Berlin,07400721
9558352261,52.45652,13.32849,Tagesgroßpflege Ilona Rensch & Katrin Hensel,Südendstraße 58,12169.0,Berlin,06100208
9560632315,52.51255,13.31192,Die Zauberflöten,Bismarckstraße 25,10625.0,Berlin,04300621
9631262548,52.48859,13.32134,Kita Raduga,Fechnerstraße 18,10717.0,Berlin,04501147
9631262549,52.48819,13.32145,Kinderladen Donnerbagger,Fechnerstraße 13,10717.0,Berlin,04501147
9632071025,52.45787,13.32806,Tagesgroßpflege Mäusegruppe,Bergstraße 5,12169.0,Berlin,06100208
9632536267,52.47942,13.44580,freude Kindergarten,Roseggerstraße 13,12059.0,Berlin,08100418
9699881191,52.50876,13.29647,GeierBande,,,,04300416
9710898425,52.45211,13.43886,Matschmonster II,Pätzer Straße 17,12359.0,Berlin,08200726
9712104839,52.45384,13.43844,Matschmonster I,Britzer Damm 101,12347.0,Berlin,08200623
9724639228,52.49361,13.32202,lilolei,,,,04501044
9731085548,52.56044,13.38057,Freude Kindergarten Süd-Ost gGmbH,,,,01300731
9737024259,52.51097,13.28346,Kindergruppe Lassymoss,,,,04200311
9737153784,52.51550,13.30052,KITA Kaiser-Friedrich-Straße,,,,04300414
9737161862,52.51418,13.30077,,,,,04300414
9743301231,52.41777,13.36648,Naturdetektive Kita Marienfelder,Marienfelder Allee 102,12277.0,,07601236
9743470294,52.46557,13.38854,Kita Arielle 3,Alt-Tempelhof 5,12099.0,Berlin,07400927
9823308580,52.44027,13.38947,Kita Juniorplaneten,Alt-Mariendorf 25,12107.0,Berlin,07501134
9828230632,52.44021,13.39327,Kita StarKids,Reißeckstraße 23,12107.0,Berlin,07501134
9837099325,52.45437,13.32767,Kleine Zwergenparade,Breite Straße 1,12167.0,Berlin,06100207
9850989422,52.46523,13.38357,Kita Maulwurf,Alt-Tempelhof 29,12103.0,Berlin,07400824
9851302869,52.44143,13.38134,Kindertagespflege Kolibri,Rathausstraße 58,12105.0,Berlin,07501030
9854901163,52.43662,13.31586,Kindergarten Tinkerbell,,,,06300630
9854901164,52.43660,13.31530,Kinderkrippe Spatzennest,,,,06300630
9879638295,52.44785,13.38184,Kita Schlösschen,Machonstraße 30,12105.0,Berlin,07501030
9901288464,52.47492,13.31043,Evangelische Kindertagesstätte der Lindenkirchengemeinde,Binger Straße 73,14197.0,Berlin,04400834
9908553163,52.43867,13.38160,Kinderladen Mücke,Großbeerenstraße 5,12107.0,Berlin,07501133
9908579596,52.44584,13.36775,Kindertagespflege Kinderstübchen,Ringstraße 96,12105.0,Berlin,07501029
9913072259,52.44273,13.37781,Kindertagespflege - Das Spatzennest,Ringstraße 72,12105.0,Berlin,07501029
9913072260,52.45523,13.37600,Kindertagespflege - Klitzeklein,Alarichstraße 22,12105.0,Berlin,07400825
9913125675,52.46571,13.39351,Kindertagespflege,Germaniastraße 152b,12099.0,Berlin,07400927
9913153330,52.44008,13.38822,Kindertagespflege - Gänseblümchen,Alt-Mariendorf 31,12107.0,Berlin,07501134
9913169857,52.40825,13.40506,Kindertagespflege - Die Sonnenkäfer,Lichtenrader Damm 61,12305.0,Berlin,07601443
9913189519,52.41101,13.36026,Kindertagespflege Mäusebande,Marienfelder Allee 172,12279.0,Berlin,07601340
9913191317,52.41339,13.36283,Kindertagespflege - Kurz & Klein,Marienfelder Allee 146,12279.0,Berlin,07601236
9984178857,52.41498,13.40055,Mary Poppinz,Mariendorfer Damm 444,12107.0,Berlin,07601442
9994345861,52.54793,13.41438,Kinderland Regenbogen,Stargarder Straße 80,10437.0,Berlin,03601346
10003860052,52.51313,13.29166,Die kleine Wichtelbande,,,,04300414
10019998503,52.55363,13.51665,Kita Pirateninsel,Anna-Ebermann-Straße 25,13053.0,Berlin,11200410
10019998504,52.55363,13.51583,Kita Abenteuerland,Anna-Ebermann-Straße 25,13053.0,Berlin,11200410
10026221961,52.53055,13.32880,Fröbel-Kindergarten Beusselstraße,Beusselstraße 32,10553.0,Berlin,01200519
10035948634,52.53550,13.42745,Schneckenhaus,Christburger Straße 11,10405.0,Berlin,03701658
10053665558,52.55872,13.56347,,Schleusinger Straße 19,12687.0,Berlin,10100206
10059550322,52.55283,13.41949,Spaceys,Greifenhagener Straße 35,10437.0,Berlin,03601243
10121509312,52.46885,13.32724,Schülerladen Kind und Umwelt,Stubenrauchstraße 71,12161.0,Berlin,07300516
10172211139,52.55750,13.20747,Das Haus der kleinen Freunde,Streitstraße 74,13587.0,Berlin,05100105
10313544999,52.48754,13.33897,Schöneberger Kuschelbärchen,Meraner Straße 6,10825.0,Berlin,07200307
10542493134,52.52683,13.40529,Waldorfkindergarten Fliederhof Gruppe Zwergenreich,Steinstraße 28,10119.0,Berlin,01100309
10595463228,52.55214,13.42848,Kita Cheburashka,,,,03400828
10599872966,52.51919,13.29034,Kinder am Schloss,Spandauer Damm 46,,,04300412
10691323890,52.48160,13.32995,Nanos Kidsclub,,,,04501153
10769146101,52.54761,13.18269,Kita der kleinen Kreativen,,,,05100209
10855626386,52.54155,13.36006,Kita Kolibris,Sparrstraße 25,13353.0,Berlin,01401047
10923563832,52.48341,13.36302,Kita Rosas Turm,,,,07200413
10944328711,52.58660,13.36733,TreeHaus,Hauptstraße 26,13158.0,Berlin,03400619
10964154322,52.49069,13.31907,Minipünktchen,,,,04501147
11003388752,52.59401,13.27801,Montessori-Kinderhaus Zwergenstube,,,,12200515
11008992676,52.56280,13.38989,Nachtigall,Wollankstraße 39,13359.0,Berlin,01300731
11037453284,52.55383,13.41680,Montessori Mother,Wisbyer Straße 70,10439.0,Berlin,03400827
11044699459,52.65192,13.48957,Kleine Glückspilze,Hobrechtsfelder Chaussee 162-164,13125.0,Berlin,03100101
11062814361,52.54490,13.42379,Kita Kinderwirtschaft,Ahlbecker Straße 11a,10437.0,Berlin,03601348
11064521607,52.51448,13.56374,Kita Diwalizwerge,Blumberger Damm 2F,12683.0,Berlin,10300732
11069965657,52.43025,13.49403,Kita Cheburashka,Stubenrauchstraße 103,12357.0,Berlin,08401243
11106997328,52.54787,13.36652,Kleiner Fratz,,,,01401043
11119506223,52.53084,13.34773,Spielraum Perlentaucher,Perleberger Straße 47,10559.0,Berlin,01200623
11144641785,52.58409,13.22571,Kindertagespflege Falkennest,Eichelhäherstraße 19,13505.0,Berlin,12400616
11151580420,52.57581,13.39903,Paul & Paula I,Grabbeallee 44,13156.0,Berlin,03200206
11161931806,52.51196,13.44868,Bildungsgarten,Gubener Straße 46,10243.0,,02400624
11176094424,52.55029,13.35999,Die kleinen Frösche,,,,01401048
11183914941,52.50840,13.47002,Fröbel-Kindergarten,Weserstraße 43,,,02500832
11200439398,52.50397,13.43452,Waldorfkindergarten im Forum Kreuzberg,Eisenbahnstraße 21,,,02300316
11200456938,52.50406,13.43539,Naturkindergarten im Forum Kreuzberg,Köpenicker Straße 175,,,02300316
11244338406,52.54774,13.40197,Kinderladen Sausebrause,,,,03601142
11255150514,52.52156,13.43642,Kinderhafen KrikelKrake,Friedenstraße 87,10249.0,Berlin,02400521
11272171196,52.49014,13.39105,EiKiTa Girotondo,Bergmannstraße 98,10961.0,,02200211
11407518392,52.49199,13.33724,Kita Kunstmäuse,Bamberger Straße 41,10779.0,Berlin,07200307
11429214856,52.47619,13.43323,Kita Kopfstraße,Kopfstraße 61,12053.0,Berlin,08100207
11451925002,52.47668,13.44755,Kindertagespflege Manitos Creativas,Hertzbergstraße 22,12055.0,Berlin,08100415
11488305670,52.52396,13.45173,Zauberwelt,Ebelingstraße 13,,,02500726
11491408184,52.51891,13.45050,Die schlauen Mäuse,,,,02400522
11494627650,52.47275,13.33629,DunjaKids,Rheinstraße 1,12159.0,Berlin,07300517
11511492445,52.52107,13.44656,Johanniter-Kindertagesstätte Kleine Insel,,,,02400522
11514288424,52.49191,13.32132,Kita Mima,Güntzelstraße 30,10717.0,Berlin,04501147
11554854404,52.53145,13.46311,Kindergarten Rappelkiste,Herbert-Tschäpe-Straße 2,10369.0,Berlin,11300616
11572198236,52.52148,13.32353,Villa Luna,Helmholtzstraße 34-36,10587.0,Berlin,04300620
11586422890,52.50460,13.42215,TEK-Kinderladen,,,,02300314
11611553465,52.41861,13.41632,Evangelische Kita Neu-Buckow,Quarzweg 116,12349.0,Berlin,08200831
11638252151,52.46080,13.43337,Arielle 2,,,,08200624
11745882648,52.43955,13.40963,Mary Poppinz Britz,An der alten Gärtnerei 1,12109.0,Berlin,07501032
11763141752,52.44075,13.31703,Fröbel-Kindergarten Zwergenwiese,Hindenburgdamm 30,12203.0,Berlin,06300630
11763141757,52.43912,13.31579,KiMo Kita - Noctiluca,Hindenburgdamm 100,12203.0,Berlin,06300633
11771047353,52.44727,13.37691,Kindertagespflege Sternstunden,Reulestraße 17,12105.0,Berlin,07501029
11773397216,52.42814,13.45595,,,,,08300934
11777835662,52.55416,13.39178,Flohzirkus Wedding,Eulerstraße 10,13357.0,Berlin,01300733
11782366094,52.53775,13.41773,Elterninitiativ-Kindergarten Wald & Wiesen e.V.,Husemannstraße 12,10435.0,Berlin,03701555
11793822534,52.54549,13.42099,Kindergarten Aramsamsam,,,,03601347
11804942350,52.44815,13.53101,KreativitätsKindertagesstätte Treptow,Hartriegelstraße 77,12439.0,Berlin,09200614
11818425477,52.51079,13.47171,La Sonrisa,Jessnerstraße 37,10247.0,Berlin,02500832
11830338043,52.44485,13.52844,Mosaik Kita,,,,09200614
11835094526,52.50213,13.48122,Kita Stadthäuschen,Stadthausstraße 3,10317.0,Berlin,11400928
11835094527,52.50342,13.48174,Kita Kaskelkinder,Türrschmidtstraße 33,10317.0,Berlin,11400927
11835144607,52.50209,13.48893,Kita Rappelkiste,Lückstraße 65,10317.0,Berlin,11400929
11906452219,52.48960,13.37699,Neues aus Kreuzberg,Katzbachstraße 29,10965.0,Berlin,02200209
11990536914,52.56379,13.09797,Die Schlaufüchse,,,,
12014895830,52.45854,13.38224,Villa Wackelzahn,Friedrich-Wilhelm-Straße 20,12103.0,Berlin,07400825
12023216815,52.57839,13.28344,Kindertagesstätte Tegel-Süd,Namslaustraße 61,13507.0,Berlin,12200413
12043368748,52.49435,13.39716,,Mittenwalder Straße 3,,,02200210
12160360194,52.45793,13.51117,,Brückenstraße 24,12439.0,Berlin,09200613
12160360195,52.45793,13.51163,,Brückenstraße 8-9,12439.0,Berlin,09200613
12160360196,52.45727,13.51101,,Brückenstraße 4,12439.0,Berlin,09200613
12163251896,52.58234,13.41111,Little Flowers,Siegfriedstraße 11C,13156.0,Berlin,03200207
12205087959,52.49059,13.42257,Kinderladen Kreuzbären,,,,02200213
12207904207,52.50972,13.46693,Stephanus-Kindertagesstätte Holteistraße,,,,02500831
12219045720,52.54795,13.35930,Evangelische Kita Nazareth,Nazarethkirchstraße 50,13347.0,Berlin,01401048
12219048493,52.50109,13.40708,Evangelische Kita St. Simeon,Wassertorstraße 21A,10969.0,Berlin,02100105
12246290507,52.50064,13.42371,Kinderladen Affentanz,Mariannenstraße 47,10997.0,Berlin,02300315
12323851023,52.54945,13.44750,Kleiner Fratz,,,,03500935
12343652531,52.53417,13.48676,Mach-Mit-Kitas,,,,11200514
12364580010,52.44284,13.56896,Kita Eulenkinder,,,,09200819
12375687530,52.51101,13.45080,Junior 1,,,,02400624
12427161098,52.44143,13.58465,Freude,Müggelheimer Straße 22,12555.0,Berlin,09401534
12473371571,52.54146,13.41713,Kinderladen Prenzlpanther,Schliemannstraße 44,10437.0,Berlin,03601347
12486021976,52.50247,13.45594,Klein im hain,,,,02500835
12617762881,52.53700,13.40349,Kinderladen,,,,01100416
12694884933,52.42756,13.58446,Kita Achterdeck,,,,09401329
12704556039,52.51805,13.46521,Musikkita Klimperkiste,Bänschstraße 52,10247.0,Berlin,02500728
12726953092,52.47887,13.52406,,,,,11501341
12850422614,52.55437,13.41819,Kindergarten Little Munchkins,Trelleborger Straße 5,13189.0,Berlin,03400827
12883475060,52.50075,13.46937,Montessori Kinderhaus,,,,11501238
12923555501,52.46990,13.36691,Småland,Sachsendamm 47,10829.0,Berlin,07400822
12997923558,52.54372,13.41846,Kinderschlummerland Lette,Lettestraße 8,,,03601347
13011595601,52.64819,13.38250,Kita Spatzenhaus,Schillerstraße 25,,,
13022246498,52.50046,13.38328,Kita Robinienwäldchen,,,,02100101
13026297483,52.42883,13.32469,Königsberger Knirpse,,,,06200421
13033464792,52.44875,13.51239,Kita Nusshütte,Groß-Berliner Damm 39,12487.0,Berlin,09100408
13086243081,52.46765,13.42469,Kita Nägel & Köpfe,Emser Straße 85,12051.0,Berlin,08100104
