id,lat,lon,name,street,zip_code,city,planning_area_id
282430458,52.51593,13.45795,Chez P!ppo,Frankfurter Allee 17,10247.0,Berlin,02500727
282748367,52.51559,13.47212,Sweet Hands,Waldeyerstra√üe 7,10247.0,Berlin,02500729
293225672,52.53233,13.43573,Rosa Canina,Pasteurstra√üe 32,10407.0,Berlin,03701660
416076804,52.44374,13.29387,Gelatteria Vanilla,Knesebeckstra√üe 10,12205.0,Berlin,06300629
434563600,52.39279,13.09214,Jannys Eis,,,,
482737289,52.49005,13.38317,Fior di Latte,,10965.0,Berlin,02200209
482737290,52.49148,13.38626,vanille & marille Eismanufaktur,Hagelberger Stra√üe 1,10965.0,Berlin,02200209
586536404,52.38651,13.39957,Eiscaf√© Moin Moin to go,Bahnhofstra√üe 39,12305.0,Berlin,07601544
615020649,52.49926,13.44288,Aldemir Eis,Falckensteinstra√üe 7,10997.0,Berlin,02300419
664244067,52.47451,13.29390,Eis Da Dalt,Breite Stra√üe 14A,14199.0,Berlin,04400832
670658034,52.48656,13.36054,Don Gelato,,,,07200411
670658039,52.49458,13.36077,Eis-Caf√© Vannini,Potsdamer Stra√üe 170-170b,10783.0,Berlin,07100103
674432264,52.44506,13.29293,Artigiani,Unter den Eichen 95b,12205.0,Berlin,06300629
687589952,52.41727,13.49651,Da Valentino,,,,08401243
735944492,52.44500,13.57436,Eisbar Friederici,Alt-K√∂penick 33,12555.0,Berlin,09401534
739991143,52.43347,13.35964,Barlotta,,,,06200316
746853085,52.58075,13.39969,Jacksons Ice Cream,,,,03200206
747528359,52.58714,13.40201,Eiscaf√© Gelato degli Angeli,Dietzgenstra√üe 68,13156.0,Berlin,03200207
753361477,52.56994,13.41062,Eisspatz,Berliner Stra√üe 4,13187.0,Berlin,03400723
773563718,52.53742,13.42105,Tribeca,Rykestra√üe 40,10405.0,Berlin,03701555
775342946,52.45816,13.32162,Eis Da Dalt,,,,06100102
832835242,52.55195,13.36676,Eis & Back,,,,01401049
833025100,52.54176,13.42213,Eislabor,Raumerstra√üe 32,10437.0,Berlin,03601348
853810631,52.48924,13.39397,Bio Eissalon tanne B.,Marheinekeplatz 15,10961.0,Berlin,02200211
860691104,52.51147,13.29759,Moono Frozen Yogurt Berlin,Schlo√üstra√üe 28,14059.0,Berlin,04300414
864085678,52.50104,13.43105,Eissalon Kiez & Kugel,Eisenbahnstra√üe 48,,,02300315
916563260,52.49368,13.43730,Five Elephant (Ice Scream),Reichenberger Stra√üe 104,10999.0,Berlin,02300418
926359040,52.52213,13.41121,San Marco,,,,01100310
977707412,52.49442,13.41553,Eiscaf√© Isabel,B√∂ckhstra√üe 1,10967.0,Berlin,02200213
1180916040,52.61788,13.35447,Eisdiele Angelina Alt-L√ºbars,Alt-L√ºbars 36,13469.0,Berlin,12500929
1227247985,52.51734,13.30772,Faldon Eismanufaktur,Otto-Suhr-Allee 104,10585.0,Berlin,04300619
1236954083,52.60684,13.21028,Eisinsel,,,,12400617
1239737913,52.51039,13.37641,H√§agen-Dazs,,,,01100102
1252865192,52.58854,13.27811,Florida Eiscaf√©,,,,12200515
1342682103,52.49980,13.43287,La Gelateria picola,,,,02300315
1356526442,52.57174,13.31173,Eis Schober,,,,12200310
1374234250,52.51111,13.46164,EisPiraten,Gr√ºnberger Stra√üe 85,10245.0,Berlin,02500833
1418640423,52.53684,13.27097,Salentino Eis,Nonnendammallee 89,13629.0,Berlin,05300841
1420714926,52.46434,13.31418,Eisfee,Forststra√üe 17,12163.0,Berlin,06100102
1435425821,52.37131,13.13529,Fantasia del Gelato,Nuthestra√üe 1-10,14480.0,Potsdam,
1544188668,52.54741,13.41164,Scrolls Garden,Gleimstra√üe 26,10437.0,Berlin,03601142
1579564854,52.52672,13.33729,Gelateria Da Gianni,Turmstra√üe 35A,10551.0,Berlin,01200520
1595959825,52.45545,13.50337,BioEisdiele,S√ºdostallee 169,12487.0,Berlin,09100407
1643139873,52.56186,13.72341,Eisdiele,Berliner Allee 14,15345.0,Altlandsberg,
1655132781,52.43797,13.27128,Eiscafe Frech,,,,06300527
1704338330,52.36016,13.40955,Eiscafe Athene,Am Bahnhof 1,15831.0,Blankenfelde-Mahlow,
1710136143,52.58837,13.27864,La Donna,Alt-Tegel 27,13507.0,Berlin,12200515
1773561652,52.46361,13.48439,eiscaf√© MOINMOIN,Baumschulenstra√üe 74,12437.0,Berlin,09100304
1832540155,52.51681,13.26165,Eisdiele Gloria,Steubenplatz 5,14050.0,Berlin,04200308
1839787343,52.52323,13.37937,Der Eisladen,Luisenstra√üe 14,10117.0,Berlin,01100308
1846030173,52.50481,13.47765,SchokoLadenEis,Kaskelstra√üe 15,10317.0,Berlin,11400927
1850625817,52.48721,13.35351,Vanille & Marille,Belziger Stra√üe 24,10823.0,Berlin,07200409
1870419380,52.49710,13.35336,KiezEis,Winterfeldtstra√üe 46,10781.0,Berlin,07100102
1950643808,52.63185,13.28929,Dolce Vita,Welfenallee 7,13465.0,Berlin,12400720
1965271022,52.48457,13.42780,Prizreni,,,,08100206
2018810746,52.49388,13.42123,Waffle 36,Kottbusser Damm 9,10967.0,Berlin,02200213
2033283081,52.52421,13.40210,Canal I,Rosenthaler Stra√üe 40-41,10178.0,Berlin,01100309
2063612252,52.50308,13.42075,Kur√©me,Adalbertstra√üe 23,10997.0,Berlin,02300314
2136186734,52.54358,13.57134,Jannys Eis,Blumberger Damm 146,12685.0,Berlin,10100316
2140736759,52.54076,13.40599,Pingolino,Eberswalder Stra√üe 4,10437.0,Berlin,03701554
2206272353,52.41951,13.49365,Da Dalt,,,,08401243
2293986337,52.36534,13.09329,Jannys Eis,Am Moosfenn 1,14478.0,Potsdam,
2300052110,52.55006,13.36394,Spoonful Berlin,Maxstra√üe 11,13347.0,Berlin,01401049
2309384558,52.53041,13.38707,Eismieze,Schlegelstra√üe 21,10115.0,Berlin,01100415
2328402490,52.41270,13.57231,Mokka-Milch-Eiscaf√©,Bruno-Taut-Stra√üe 1,12524.0,Berlin,09301024
2335250353,52.48820,13.42747,Eismanufaktur Spoonful,Weserstra√üe 6,12047.0,Berlin,08100311
2402138986,52.42214,13.37073,Eis Caf√©,,,,07601237
2423916731,52.52658,13.40859,Cuore Di Vetro,Max-Beer-Stra√üe 33,10119.0,Berlin,01100310
2438932665,52.50822,13.45944,Spoonful,G√§rtnerstra√üe 33a,10245.0,Berlin,02500834
2445454962,52.48511,13.32010,Eiscaf√© Monheim,Blissestra√üe 12,10713.0,Berlin,04501146
2531902839,52.40994,13.40343,Coco Beach,Lichtenrader Damm 44,12305.0,Berlin,07601442
2716096788,52.51392,13.45922,S√º√üe S√ºnde,Niederbarnimstra√üe 21,10247.0,Berlin,02500830
2726147775,52.45859,13.38132,vanille & marille Eismanufaktur,Friedrich-Wilhelm-Stra√üe 22,12103.0,Berlin,07400825
2756763433,52.56444,13.39267,Brivido Dolce,Wollankstra√üe 24,13359.0,Berlin,01300731
2824823225,52.53978,13.20585,Da Dalt,,,,05100316
2852739952,52.49296,13.42119,Lido Eis,B√∂ckhstra√üe 27,10967.0,Berlin,02200213
2930771507,52.54719,13.41586,Dolce Freddo,Stargarder Stra√üe 7,10437.0,Berlin,03601346
2936798208,52.61595,13.30704,Flamingo,Fellbacher Stra√üe 28,13467.0,Berlin,12400722
2947930990,52.47721,13.42120,Mos Eisley,Herrfurthplatz 6,12049.0,Berlin,08100102
2953557790,52.56428,13.36437,Il Gelato Italiano,,,,12100101
2969819044,52.56118,13.20807,Mr. Ice Cream,,,,05100105
3018856733,52.44104,13.68800,Eislounge Sonnenseite,F√ºrstenwalder Allee 26,12589.0,Berlin,09501838
3054792654,52.39311,13.27062,Dolci Eis-Lounge,Kanada-Allee 10,14513.0,Teltow,
3055877735,52.54685,13.41771,Hokey Pokey,Stargarder Stra√üe 72,10437.0,Berlin,03601346
3150248629,52.61851,13.48694,Il Buon Gelato Marcon,Achillesstra√üe 46,13125.0,Berlin,03300411
3161789870,52.47899,13.34395,Italy Eis,Innsbrucker Platz 4,10827.0,Berlin,07200308
3163972953,52.49275,13.39829,Disco,Schleiermacherstra√üe 9,10961.0,Berlin,02200210
3265611317,52.55091,13.41250,Eiscaf√© Scutari,Schivelbeiner Stra√üe 4,10439.0,Berlin,03601141
3313677764,52.53079,13.63095,Emba Emilia,Fichtengrund 4,15366.0,Hoppegarten,
3343103839,52.49050,13.35340,Jones Ice Cream,Goltzstra√üe 3,10781.0,Berlin,07100204
3383029141,52.56005,13.41359,Jannys Eis,Elsa-Br√§ndstr√∂m-Stra√üe 1,13189.0,Berlin,03400829
3392131020,52.65602,13.44616,Conny¬¥s Eiscafe,Sch√∂nerlinder Chaussee 38,16348.0,Wandlitz,
3474035725,52.51258,13.30486,Il piccolo Castello del Gelato,,,,04300621
3475661392,52.55296,13.44954,Eisspatz,Sch√∂nstra√üe 1,13086.0,Berlin,03500933
3485840223,52.45398,13.32326,vanille & marille Eismanufaktur,Leydenallee 92,12165.0,Berlin,06100207
3525559346,52.45510,13.51474,Eiskultur-Berlin,Schnellerstra√üe 118,12439.0,Berlin,09200613
3530856517,52.50436,13.32190,Lottas Torten,,,,04501041
3570854143,52.45972,13.32315,JOHO Eisparadies,Schlo√üstra√üe 25,12163.0,Berlin,06100102
3646164022,52.39176,13.09348,Die Eisfrau,Rudolf-Breitscheid-Stra√üe 42,14482.0,Potsdam,
3670161819,52.42986,13.33224,Eis da Gianni,,12209.0,Berlin,06200422
3676000349,52.50318,13.32970,H√§agen-Dazs,Kurf√ºrstendamm 224,10719.0,Berlin,04501042
3736896887,52.49334,13.41821,LeckoMio,Graefestra√üe 80,10967.0,Berlin,02200213
3751973159,52.41493,13.58227,Eiskonditorei Anett,B√ºxensteinallee 2,12527.0,Berlin,09301126
3755411239,52.45137,13.33638,Kunterbunt,Steglitzer Damm 5,12169.0,Berlin,06100208
3755816789,52.48298,13.38151,Eisfee,,,,07400720
3755992395,52.43167,13.33823,,,,,06200314
3758497646,52.43134,13.34605,Fior di Latte,,,,06200315
3758502759,52.45842,13.38453,Meyman,,,,07400927
3758596090,52.46412,13.33094,Henrys,Sch√∂neberger Stra√üe 11,12163.0,Berlin,06100209
3772667669,52.56437,13.50617,Eiskiosk,Prerower Platz 1,13051.0,Berlin,11100307
3780851157,52.50792,13.49759,Eis Kaffee,Margaretenstra√üe 27,10317.0,Berlin,11400929
3782211408,52.48967,13.38889,Eiskimo,Bergmannstra√üe 5,10961.0,Berlin,02200211
3826013973,52.49842,13.35384,Caff√® e Gelato,Maa√üenstra√üe 4,10777.0,Berlin,07100102
3855567145,52.49756,13.36162,GioTU,Potsdamer Stra√üe 144,10783.0,Berlin,07100103
3862835072,52.50119,13.30774,Aleya,,,,04501040
3895256385,52.52431,13.40818,yoli,M√ºnzstra√üe 11b,10178.0,Berlin,01100310
3900932271,52.53786,13.41772,Annamaria,,,,03701555
3902472793,52.5289,13.39745,Rosa Canina,Ackerstra√üe 174,10115.0,Berlin,01100309
3937513962,52.53104,13.40209,S√º√üe S√ºnde,Weinbergsweg 21,10119.0,Berlin,01100416
3992174257,52.51635,13.49854,Lecker Eis,,,,11300725
4072596989,52.44519,13.57408,Mr. Ice Cream,,,,09401534
4108072816,52.50081,13.37070,Eisdiele am Gleisdreieck,Flottwellstra√üe 14,10785.0,Berlin,01100104
4125128510,52.47408,13.44266,Spoonful,Karl-Marx-Platz 17,12043.0,Berlin,08100416
4181014748,52.48083,13.52339,Eismanufaktur Prinzeneis,Wandlitzstra√üe 9,,,11501341
4219261193,52.52027,13.35592,Flamingo Eis,,,,01200628
4250016570,52.42851,13.32747,Lio Gelato,Kranoldplatz 4,12209.0,Berlin,06200422
4261575771,52.52868,13.40631,Canal II,Linienstra√üe 54,10119.0,Berlin,01100309
4266662203,52.53970,13.40617,Hokey Pokey,Oderberger Stra√üe 38,10435.0,Berlin,03701554
4283150546,52.50690,13.39843,Kavlak Eismanufaktur,Oranienstra√üe 99,,,02100103
4307136694,52.53860,13.42255,Giannis Eis,Rykestra√üe 26,10405.0,Berlin,03701555
4315470229,52.55004,13.34915,le m√©ro,,,,01400938
4316683783,52.57143,13.12305,,,,,
4317555793,52.54982,13.38865,Gelati Eiscaf√©,,,,01300733
4346903425,52.49266,13.35637,Berlin Homemade Icecream,El√üholzstra√üe 10,10781.0,Berlin,07100204
4381298285,52.47955,13.44391,Eis Delfino,,,,08100415
4396230902,52.53107,13.38677,Plansche,Eichendorffstra√üe 13,,,01100415
4439295159,52.48538,13.34757,La Dolce Vita,Belziger Stra√üe 60,10823.0,Berlin,07200409
4452492201,52.52740,13.32702,El Reda sweets,Huttenstra√üe 69,10553.0,Berlin,01200518
4515134130,52.49422,13.41844,Tribeca Ice Cream,Graefestra√üe 9,10967.0,Berlin,02200213
4665154495,52.38680,13.40469,Eisdiele,,,,07601544
4801247071,52.50668,13.46947,Green Scoop,Boxhagener Stra√üe 71,10245.0,Berlin,02500832
4834609477,52.57088,13.40793,Jannys Eis,,,,03400722
4844156523,52.57020,13.49645,Jannys Eis,Ribnitzer Stra√üe 24,13051.0,Berlin,11100308
4906036043,52.48868,13.38778,Barletta-Eis GmbH,Am Tempelhofer Berg 6,10965.0,Berlin,02200211
4929307956,52.61950,13.30494,ItalEis Faldon,Heinsestra√üe 54,13467.0,Berlin,12400722
4948137827,52.49122,13.41108,Die Eismacher,K√∂rtestra√üe 10,10967.0,Berlin,02200212
4970066224,52.50187,13.44079,Z√†gara,K√∂penicker Stra√üe 4,10997.0,Berlin,02300316
4970352421,52.49859,13.43465,Kokomo,G√∂rlitzer Stra√üe 69,10997.0,Berlin,02300419
4972445020,52.51117,13.44995,Milas Eis,Kopernikusstra√üe 35,10243.0,Berlin,02400624
4985572545,52.49547,13.42018,Eis Azzura,,,,02200213
5016747821,52.52021,13.34448,Eisteufelchen,Flensburger Stra√üe 5,10557.0,Berlin,01200629
5031751086,52.55260,13.38233,Eis-Cafe,,,,01300733
5054068399,52.49836,13.29060,Scooby Doo,Georg-Wilhelm-Stra√üe 4,10711.0,Berlin,04500937
5064111016,52.49238,13.42776,Fr√§ulein Frost,Friedelstra√üe 39,,,08100310
5107966821,52.47329,13.44863,Eisderix,B√∂hmische Stra√üe 48,12055.0,Berlin,08100416
5126384317,52.54913,13.42435,S√º√üfein,Erich-Weinert-Stra√üe 64,10439.0,Berlin,03601244
5126384318,52.54993,13.42167,Kult-Eis,Stahlheimer Stra√üe 25,,,03601243
5141152693,52.50515,13.46602,Royal Eisladen,Lenbachstra√üe 9,10245.0,Berlin,02500834
5223291543,52.54137,13.40987,Jones Ice Cream,,,,03601142
5246874155,52.49982,13.42496,Eiscaf√© Rona,,,,02300315
5400565642,52.49467,13.30199,Yalda Eiscaf√©,Cicerostra√üe 49b,10709.0,Berlin,04500939
5512010606,52.52354,13.40038,Katchi,Oranienburger Stra√üe 89,10178.0,Berlin,01100309
5554966313,52.55947,13.41268,Hokey Pokey,,,,03400826
5565800012,52.45097,13.34069,Eis&Eis,,,,06100204
5635556723,52.49464,13.41878,Eismanufaktur Spoonful,,10967.0,,02200213
5641329331,52.51736,13.30349,Eisfabrik Alan,Schustehrusstra√üe 18,10585.0,Berlin,04300621
5718697051,52.48843,13.35811,Helvam,Hauptstra√üe 11,10827.0,Berlin,07200409
5726198088,52.52108,13.40388,Waffel oder Becher,Spandauer Stra√üe 2,10178.0,Berlin,01100310
5730607699,52.40284,13.26924,La Rotonda,Zehlendorfer Stra√üe 21,14513.0,Teltow,
5759194725,52.46877,13.43595,Ilse Eins,Ilsestra√üe 1,12051.0,Berlin,08100208
5771640014,52.49485,13.43330,vanille & marille Eismanufaktur,Reichenberger Stra√üe 118,10999.0,Berlin,02300418
5774792932,52.53828,13.20715,Natur Eis,,,,05100316
5787555522,52.51064,13.45716,Delabuu Ice Cream,Krossener Stra√üe 15,,,02500833
5792477122,52.50833,13.45983,NaturEis,G√§rtnerstra√üe 2,10245.0,Berlin,02500834
5804485917,52.50933,13.61343,Daddys Eiscaf√©,H√∂nower Stra√üe 53,12623.0,Berlin,10400939
5804765638,52.57046,13.32125,Die kleine Eisstation,,,,12200308
5841685885,52.46721,13.34270,Fr√§ulein Frost,Beckerstra√üe 4,12157.0,Berlin,07300619
5844370762,52.52667,13.34392,Al Teatro,,,Berlin,01200625
5849339561,52.48926,13.39441,,,,,02200211
5886792723,52.53201,13.42336,Early Bird,Winsstra√üe 68,,,03701659
5938829122,52.47226,13.33503,Eis Boutique,Lauterstra√üe 14-15,12159.0,Berlin,07300517
5986470675,52.55995,13.09057,Jannys Eis,Bahnstra√üe 8-12,14612.0,Falkensee,
6032523106,52.50623,13.44575,La Luna,,,,02400625
6103423927,52.50521,13.44325,H√§agen-Dazs,M√ºhlenstra√üe 13-19,10243.0,,02400625
6124870726,52.47178,13.33504,Berlin Homemade Icecream,Lauterstra√üe 17-18,12159.0,Berlin,07300517
6222861256,52.52259,13.40095,Frozen Toppi,Neue Promenade 8,,,01100309
6353110784,52.50063,13.43871,Duo,Skalitzer Stra√üe 82,10997.0,Berlin,02300316
6414817068,52.51505,13.46348,Softeis,Frankfurter Allee 45,10247.0,Berlin,02500728
6415204947,52.50865,13.31993,Katchi Ice Cream Art,Grolmanstra√üe 14A,10623.0,Berlin,04300624
6483857785,52.54717,13.40904,Kult Eis,Gleimstra√üe 18,10437.0,Berlin,03601142
6489460044,52.51010,13.30584,Gelato Barik,Wilmersdorfer Stra√üe 128,10627.0,Berlin,04300623
6502216509,52.54696,13.40375,Cholila,,,,03601142
6529305707,52.52070,13.45320,Eisklecks,M√ºhsamstra√üe 64,10249.0,Berlin,02500726
6542773866,52.54353,13.49177,Eiscafe Heidi,Konrad-Wolf-Stra√üe 111,13055.0,Berlin,11200513
6564695283,52.49320,13.46528,Gelateria Italiana da Roberto,,,,09100101
6584677090,52.49823,13.35003,Vanille & Marille,Motzstra√üe 17,10777.0,Berlin,07100102
6712455233,52.54508,13.36103,Ital Eis,M√ºllerstra√üe 156D,,,01401047
6715513382,52.51194,13.39140,Rausch Eis,,,,01100207
6763564336,52.46287,13.51416,Marina macht Eis,Edisonstra√üe 10,12459.0,Berlin,09200511
6775394311,52.48669,13.35559,Eisfee,Akazienstra√üe 3a,10823.0,Berlin,07200409
6816563937,52.42632,13.33185,Eismanufaktur,,,,06200422
6818256667,52.46670,13.43327,,Silbersteinstra√üe 54,12051.0,Berlin,08100209
6989302451,52.45318,13.62472,Italienisches Eis Da Dalt,B√∂lschestra√üe 94,12587.0,Berlin,09501737
7036442808,52.47736,13.42338,NiceCream,Herrfurthstra√üe 8,12049.0,Berlin,08100102
7105577591,52.63418,13.28943,BLUSH,,,,12400721
7200716749,52.50240,13.31352,Klassens Eis,Leibnizstra√üe 48,,,04501041
7232729804,52.41510,13.34692,Eisdiele üç®,,,,07601236
7233554335,52.54347,13.44248,Il Centro,Greifswalder Stra√üe 90,10409.0,Berlin,03601449
7294910505,52.51195,13.29399,Gimme Gelato,Wundtstra√üe 15,14059.0,Berlin,04300414
7308454310,52.54292,13.41786,Rosa Canina,Raumerstra√üe 8,10437.0,Berlin,03601347
7345834490,52.54358,13.42198,Ludo,Dunckerstra√üe 18,10437.0,Berlin,03601348
7398388375,52.49287,13.50684,Fabbrica del Gelato Marco Polo,,,,11401135
7638273416,52.47889,13.32936,Eiscaf√© Bosello,Bundesplatz 14,10715.0,Berlin,04501153
7680001266,52.46884,13.33213,Eis Gourmet,Rheinstra√üe 19,12161.0,Berlin,07300516
7744836617,52.43872,13.21663,Artigiani,Matterhornstra√üe 52,14129.0,Berlin,06400838
7822822027,52.40658,13.34949,Eiscaf√© Kunterbunt,,,,07601341
7876639901,52.61664,13.31708,Pizzeria & Gelateria da Massimo,Berliner Stra√üe 22,13467.0,Berlin,12400723
7947855086,52.50533,13.29944,Moono,Windscheidstra√üe 19,10627.0,Berlin,04300416
7962054892,52.45174,13.14788,eiskrem Hausgemacht,,,,05400944
7963851851,52.48800,13.43029,Blin Blin,Weserstra√üe 206,12047.0,Berlin,08100311
8072617749,52.46770,13.34613,One Season,,,,07300619
8120989360,52.45731,13.32033,al teatro,,,,06100102
8128324269,52.49308,13.46567,Slush Eis,,,,09100101
8128324869,52.49309,13.46562,Slush Eis,,,,09100101
8462378921,52.44252,13.24110,Eis Faldon,Fischerh√ºttenstra√üe 83a,14163.0,Berlin,06400839
8463977952,52.56994,13.49579,Eisdealer im RiZ,Ribnitzer Stra√üe 24,13051.0,Berlin,11100308
8508597570,52.50789,13.33766,,,,,01100102
8586851117,52.45182,13.43858,Gelateria La Spada,,,,08200726
8664189189,52.58949,13.33460,Dolce Gelato,Alt-Wittenau 86,13437.0,Berlin,12500926
8691573558,52.48513,13.35213,Barletta-Eis,Eisenacher Stra√üe 59,10823.0,Berlin,07200409
8691573574,52.48550,13.34025,Gelateria Marino Eiscaf√©,Badensche Stra√üe 55,10825.0,Berlin,07200308
8711623668,52.41791,13.58032,Soft-Eisladen,Regattastra√üe 121,12527.0,Berlin,09301126
8778909754,52.44698,13.30685,Kunterbunt,Gardesch√ºtzenweg 66,,,06300633
8801414017,52.48074,13.43577,Ital. Eis Dadalt,,,,08100415
8847848779,52.52943,13.43479,Eismanufaktur Il Gelataio,,,,03701660
8849993891,52.47933,13.40957,Gimme Gelato,,,,08100102
8853469884,52.57412,13.35836,Geheimwaffel,,,,12100205
8869788017,52.45238,13.14021,Eiscaf√© Marta,,,,05400945
8916909335,52.49354,13.37934,Il Triangolo,M√∂ckernstra√üe 45,10963.0,Berlin,02200207
8918983517,52.42796,13.32473,Berg & Tal,,,,06200421
8933232389,52.47274,13.29889,La Bottega del Gelato,Zoppoter Stra√üe 3,14199.0,Berlin,04400832
8950919453,52.51262,13.46910,Tante Karla,,,,02500831
8972746883,52.48987,13.38686,Blumen Eiscaf√©,,,,02200211
9005350952,52.51794,13.43021,Eiscaf√© Il Viale,Karl-Marx-Allee 56,10243.0,Berlin,02400623
9045032433,52.67479,13.53708,Atlantik Eis,Sch√∂nerlinder Stra√üe 1,16321.0,Bernau bei Berlin,
9055130538,52.43119,13.30891,Fragola,,,,06300632
9074024198,52.54880,13.45407,Jannys Eis,Berliner Allee 60,13088.0,Berlin,03500936
9074855334,52.51742,13.29348,Lumia,,,,04300413
9095176125,52.51545,13.49978,Wolke 7 Eiscaf√©,R√ºdigerstra√üe 46,10365.0,Berlin,11300725
9098799580,52.64621,13.52136,P√§uschen Softeis & Kaffee,Steenerbuschstra√üe 28,16341.0,Panketal,
9124518721,52.55341,13.37856,Cafe Luise,,,,01401045
9143588313,52.42885,13.25947,Eiscaf√© Korfu,Teltower Damm 54,14167.0,Berlin,06300528
9183000760,52.54557,13.59130,Timmys Eis,,,,10200417
9215009717,52.51319,13.45251,Chipi Chipi Bomb√≥n,Warschauer Stra√üe 12,10243.0,Berlin,02400624
9271868177,52.58932,13.28091,Ital. Eis R & P,,,,12200515
9391870288,52.56524,13.40279,Alphis Eis,Heynstra√üe 33,13187.0,Berlin,03400721
9405031233,52.54954,13.46286,Hei√ü & Eis,Lindenallee 55,13088.0,Berlin,03500936
9461868215,52.56838,13.36228,Dream Eiscafe,,,,12100103
9500966683,52.46551,13.32772,ital. Eis di Russillo,,,,07300516
9505675856,52.49745,13.31999,Gelateria Mamma Laura,,,,04501044
9556212664,52.53574,13.49232,Rodi Eis,,,,11200514
9586761908,52.49123,13.41203,Chunks by KoRo,,,,02200212
9595072749,52.52969,13.38441,Gelateria Italy,Chausseestra√üe 16,,,01100415
9631262546,52.48930,13.32001,Berliner Eisb√§r,Fechnerstra√üe 30,10717.0,Berlin,04501147
9667433771,52.52183,13.58717,Eiscaf√© Alberts,Hellersdorfer Stra√üe 77,12619.0,Berlin,10200629
9685479614,52.52963,13.39878,Hokey Pokey,Torstra√üe 141,10119.0,Berlin,01100415
9767908892,52.61753,13.48982,,,,,03300411
9775829186,52.36457,13.59383,N¬¥ICE CAT,Richard-Israel-Stra√üe 4,15732.0,Schulzendorf,
9796702485,52.52372,13.67908,S√ºsse S√ºnde,Rudolf-Breitscheid-Allee 82,15366.0,Neuenhagen bei Berlin,
9797173468,52.37659,13.62760,N¬¥ICE CAT,Bahnhofstra√üe 38,15732.0,Eichwalde,
9797339416,52.54403,13.54599,Eiscaf√© Promenade,Marzahner Promenade 1,12679.0,Berlin,10100210
9809605644,52.49299,13.32946,KE GUSTO?,Trautenaustra√üe 19,10717.0,Berlin,04501149
9813284031,52.48897,13.26113,Kiosk an der Scheune,,,,04400729
9861771518,52.43240,13.25884,Gelateria Europa,Teltower Damm 24,14169.0,Berlin,06300526
9887326389,52.49213,13.58261,,,,,10400837
9888031651,52.54226,13.37500,Eis Toto,Sch√∂nwalder Stra√üe 30,13347.0,Berlin,01300836
9888934886,52.52577,13.39428,Gelato Maria Maria,,,,01100309
9904979248,52.53365,13.34672,Italienisches Eis Marcon,Stephanstra√üe 26,10559.0,Berlin,01200623
9912702096,52.54955,13.36130,Pingolino Eis,,13347.0,Berlin,01401048
9918868969,52.49536,13.42171,Gelato Naturale,Maybachufer 3,12047.0,Berlin,08100310
10029281619,52.48977,13.38325,Gelateria No 1,Kreuzbergstra√üe 71,10965.0,Berlin,02200209
10103240871,52.53166,13.60310,Jannys Eis,Schneeberger Stra√üe 9,12627.0,Berlin,10200526
10109260983,52.41665,13.57485,La Casa Coral,Ammerseestra√üe 26,12527.0,Berlin,09301126
10118912505,52.53921,13.38303,Chunks by KoRo,Ackerstra√üe 80,13355.0,Berlin,01300835
10180638417,52.53077,13.40187,Ben & Jerrys,Weinbergsweg 24,,,01100416
10616370270,52.50795,13.37426,Caff√® e Gelato,,,,01100102
10824366874,52.54694,13.74482,Eiscaf√© Eisjunge,Zillestra√üe 15,15370.0,Fredersdorf-Vogelsdorf,
10884209900,52.47883,13.42325,Felicia ice cream,,,,08100102
10908387117,52.39882,13.45186,Eiscaf√© Georgino,Alt Gro√üziethen 78,12529.0,Sch√∂nefeld,
10908717676,52.50872,13.49730,Ca-ph√™,Einbecker Stra√üe 26,10317.0,Berlin,11400929
10963865464,52.52988,13.43361,Duo,,,,03701660
11020839104,52.42734,13.47161,,,,,08301036
11045663310,52.57346,13.56292,Monte Falco,,,,11100102
11081135262,52.58833,13.27557,,,,,12200515
11107435651,52.53203,13.32829,Eis Henri,Beusselstra√üe 49,,,01200518
11130931005,52.52810,13.43361,Kiosk,,,,02400520
11140768480,52.45901,13.28308,Eiscaf√© Il Pistacchio Dahlem,,,,06400844
11145846805,52.51625,13.47221,Eiscafe Il Pistacchio,Schreinerstra√üe 33,10247.0,,02500729
11148418941,52.50769,13.34127,,,,,01100102
11148419019,52.50706,13.33927,,,,,01100102
11198242338,52.44546,13.63039,,,,,09501737
11584754761,52.61835,13.30853,,,,,12400723
11637943714,52.53547,13.41945,S√º√üfein,Rykestra√üe 50,,,03701556
11779927412,52.49313,13.42271,Duo,B√ºrknerstra√üe 13,12047.0,Berlin,08100310
11809800303,52.48240,13.36707,vanille & marille Eismanufaktur,Wilhelm-Kabus-Stra√üe 42,10829.0,Berlin,07200413
11809832579,52.53403,13.42611,vanille & marille Eismanufaktur,Marienburger Stra√üe 14,10405.0,Berlin,03701659
11846389104,52.51212,13.45897,Duo,Gabriel-Max-Stra√üe 11,,,02500833
11862211068,52.53740,13.41145,Marina macht Eis,Choriner Stra√üe 40,,,03701554
11875312000,52.45162,13.62451,Zizou,B√∂lschestra√üe 105,12587.0,Berlin,09501737
11892744742,52.54313,13.24008,Ital. Eis Faldon Haselhorst,,,,05300737
11907635566,52.55009,13.41724,Degli Angeli Gelato Ralli,,,,03601243
11962340829,52.58919,13.28138,Didi Softeis,,,,12200515
12001075751,52.44647,13.57417,Caf√©garten Altstadtcaf√© C√∂penick,Alt-K√∂penick 16,12555.0,Berlin,09401534
12002104605,52.46356,13.51774,Cocomo Eiswerkstatt GmbH,Schillerpromenade 1D,12459.0,Berlin,09200511
12005720155,52.48036,13.32585,Vasito,,,,04501151
12023298435,52.61002,13.33071,Eiscafe Bacio,,,,12500928
12071694229,52.49926,13.37302,Gimme Gelato,,,,02200207
12110108051,52.44166,13.58686,Mokka-Milch-Eiscaf√©,,,,09401431
12118950900,52.48637,13.42345,Eiscaf√© Calabrisella,,,,08100101
12127542775,52.58412,13.42498,LAnima de Nata,Grumbkowstra√üe 9,13156.0,Berlin,03400725
12146605292,52.54872,13.45132,EiS MaraMao,,,,03500935
12147397571,52.49128,13.32422,Vanille & Marille,G√ºntzelstra√üe 43,10717.0,Berlin,04501149
12181124901,52.63578,13.49396,,,,,03100103
12192728680,52.51452,13.44292,Eisfred Friedrichshain,Fredersdorfer Stra√üe 12,10243.0,Berlin,02400624
12205136993,52.49078,13.42181,nice caf√©,,,,02200213
12260322750,52.42597,13.39290,Mustang Eiscafe,,,,07501133
12315921270,52.50250,13.38516,Rona,,,,02100101
12361242318,52.49004,13.40045,Sofis,,,,02200211
12568310205,52.51996,13.41124,Softinis,,,,01100310
12645178501,52.49790,13.42987,Jones Ice Cream,Wiener Stra√üe 15,10999.0,,02300417
12738631801,52.48923,13.44099,Duo,Harzer Stra√üe 114,12435.0,,09100101
12749970820,52.38295,13.12280,Softeis,,,,
12800493615,52.41848,13.75485,Eisangler,Friedrichstra√üe 50,15537.0,Erkner,
12812006490,52.51086,13.45835,Tribeca Ice Cream,Gabriel-Max-Stra√üe 17,10245.0,Berlin,02500833
12836657887,52.55110,13.41058,FrostBeule,,,,03601141
12865991010,52.48796,13.47742,Zenner Eisdiele,,,,09100101
12873216101,52.55121,13.41062,FrostBeule - Eisdiele am Arnimplatz,Seelower Stra√üe 4,10439.0,,03601141
12962099301,52.54513,13.42288,amat√≥,Dunckerstra√üe 69,10437.0,,03601347
12983410417,52.54453,13.37673,American Ice-Cream,Gerichtstra√üe 12-13,13357.0,Berlin,01300836
13012194837,52.45437,13.32857,Eiscaf√©,,,,06100208
13038604988,52.50273,13.45484,La Cesta,,,,02500835
13046042355,52.53220,13.41209,Ice Cafe,Sch√∂nhauser Allee 174,,,03701554
13062202282,52.50809,13.37479,,,,,01100102
13081761601,52.48959,13.52869,EisLoch,Waldowallee 11,10318.0,,11501340
13092683044,52.37325,13.09624,Alex Garten,,,,
