id,lat,lon,name,street,zip_code,city,planning_area_id
30022140,52.49349,13.38768,Curry 36,Mehringdamm 36,10961.0,Berlin,02200208
84646591,52.53084,13.38296,Subway,Chausseestraße 22,10115.0,Berlin,01100415
86001790,52.51581,13.38992,Subway,Behrenstraße 47,10117.0,Berlin,01100206
89274884,52.52006,13.41147,Dunkin,Rathausstraße 5,10178.0,Berlin,01100310
89312691,52.52265,13.41272,Burger King,,,Berlin,01100310
106982123,52.50991,13.53153,McDonalds,Alt-Friedrichsfelde 61,10315.0,Berlin,11401034
149607221,52.54047,13.41221,Konnopke’s Imbiß,Schönhauser Allee 44b,10435.0,Berlin,03701554
248652663,52.53921,13.42160,Zweistrom,Kollwitzstraße 104,10435.0,Berlin,03701555
249094185,52.54085,13.41255,Risa Chicken,Danziger Straße 2,10435.0,Berlin,03701555
253891060,52.54385,13.41562,Kreuzburger,Pappelallee 19,10437.0,Berlin,03601347
260753892,52.46955,13.37114,McDonalds,Alboinstraße 4,12103.0,Berlin,07400823
262353303,52.45622,13.50913,Boss Burger,Schnellerstraße 21,12439.0,Berlin,09200613
262366174,52.51515,13.46275,SanMax,Frankfurter Allee 41,10247.0,Berlin,02500728
265462005,52.67491,13.53764,Asia Imbiss,,16321.0,Bernau bei Berlin,
268072807,52.59573,13.29093,Marians Imbiss,Waidmannsluster Damm 18,13509.0,Berlin,12500824
269475044,52.50178,13.41653,Milchladen,Dresdener Straße 20,10999.0,Berlin,02300314
276134995,52.42729,13.36558,Hans Wurscht,Preysingstraße 9,12249.0,Berlin,06200317
276795907,52.43250,13.40802,Spielelandschaft,,,,07501134
277012294,52.39117,13.09446,Babelsberger Küche,Schulstraße 16,14482.0,Potsdam,
277805929,52.48038,13.38514,Burger King,Tempelhofer Damm 28-30,12101.0,Berlin,07400720
279301771,52.52646,13.38824,Dada Falafel,Linienstraße 132,10115.0,Berlin,01100309
279408216,52.56584,13.50351,World of Pizza,Zingster Straße 14,13051.0,Berlin,11100307
282420132,52.51048,13.45621,Pizza Dach Aceto Lokanta,Simon-Dach-Straße 12,10245.0,Berlin,02500833
282739417,52.51684,13.46195,Casablanca,,,,02500728
282742878,52.51835,13.46584,Bistro Samariter,,,,02500728
282751417,52.51490,13.47370,Akcan Döner,Rigaer Straße 56,10247.0,Berlin,02500729
282751610,52.51484,13.47394,Rigas Pizza Box,Rigaer Straße 56,10247.0,Berlin,02500729
285431956,52.53753,13.20346,Burger King,Carl-Schurz-Straße 37,13597.0,Berlin,05100316
286750068,52.43396,13.19110,Burger King,,,,06400737
287295063,52.52946,13.45803,Burger King,Landsberger Allee 119,10407.0,Berlin,03601450
287297683,52.52865,13.40900,Luxa,Torstraße 56,,,01100309
288893731,52.39163,13.09107,Bistro Femo,,,,
290829129,52.42681,13.43498,Chinapfanne,,,,08200832
290829130,52.42687,13.43497,Muro Döner Kebap,,,,08200832
292728693,52.41687,13.62528,Imbiss am Müggelturm,,,,09401329
297800140,52.39141,13.09126,Asia Snack,Karl-Liebknecht-Straße 4,14482.0,Potsdam,
297807601,52.49310,13.41511,Ron Telesky Canadian Pizza,Dieffenbachstraße 62,10967.0,Berlin,02200213
298094795,52.48446,13.38528,Bistro Nazar,,,,07400720
300467433,52.41151,13.57353,Vietnam Küche,Gründerstraße 3,12526.0,Berlin,09301126
301644282,52.54319,13.69288,Raststätte Seeberg,,,,
306498075,52.39155,13.09423,Vis-a-vis,,,,
307640300,52.63762,13.20530,City Bistro,,,,
307642432,52.51729,13.37692,Wurst,,,,01100102
308858101,52.41053,13.38182,,Buckower Chaussee 100-102,12277.0,Berlin,07601341
309447197,52.39447,13.08971,Sushi Bar Asia Tran,Garnstraße 34,14482.0,Potsdam,
310377171,52.48833,13.33994,Brutzelstübchen,,,,07200307
310377173,52.48133,13.34810,Haupt Grill,Hauptstraße 110,10827.0,Berlin,07200308
310377178,52.48546,13.35541,Max und Moritz,Hauptstraße 140,10827.0,Berlin,07200410
312383490,52.50015,13.31196,Subway,Kurfürstendamm 180,10707.0,Berlin,04501043
313325387,52.50485,13.33707,KFC,Tauentzienstraße 9,10789.0,Berlin,04501042
314671375,52.52473,13.45273,Pho Co,Ebertystraße 44,10249.0,Berlin,02500726
315757117,52.52649,13.33061,Sushi Shop,Gotzkowskystraße 34,10555.0,Berlin,01200521
316565528,52.54613,13.35913,Kaplan,Müllerstraße 153,,,01401047
316657525,52.52748,13.48010,Macs Deluxe,,,,11300620
316772541,52.58882,13.28474,Laventes Grill,,,,12200515
316964004,52.39608,13.08990,Pizza Max,Alt Nowawes 63,14482.0,Potsdam,
317179408,52.54588,13.35881,Baba Sultan Köfteci,Luxemburger Straße 34,13353.0,Berlin,01401047
317179409,52.54568,13.35757,Lahmacun Kebab Haus,Luxemburger Straße 6,13353.0,Berlin,01400942
317179414,52.54663,13.35914,Orient Station,,13353.0,Berlin,01400942
317179416,52.54664,13.35920,Asia Imbiss,,13353.0,Berlin,01401048
317179429,52.54655,13.35975,Currywurst am Leo,,,,01401043
317443999,52.51605,13.44006,Spross Café Bistro,Straße der Pariser Kommune 35,10243.0,Berlin,02400623
317552398,52.43233,13.53584,Bagel Company,Rudower Chaussee 13,12489.0,Berlin,09200715
317552401,52.43263,13.53516,Subway,,,,09200715
318149465,52.52107,13.41222,McDonalds,,,,01100310
318149466,52.52119,13.41189,Currywurst Express,Dircksenstraße 2,10179.0,Berlin,01100310
320216659,52.53437,13.40518,Cult Döner,Kastanienallee 48,10119.0,,01100416
324205115,52.57112,13.50001,Dolce Vita,Ribnitzer Straße 10A,13051.0,Berlin,11100307
324792570,52.41339,13.36300,Pizza Ciao,Marienfelder Allee 146,12279.0,Berlin,07601236
324792581,52.41433,13.36430,Seven Grill,,,,07601237
329647142,52.54280,13.68998,Raststätte Seeberg,,,,
333136725,52.51979,13.38928,dean&david,Friedrichstraße 96,,,01100206
335567493,52.56445,13.39277,Aris Döner & Burger,Wollankstraße 24,13359.0,Berlin,01300731
336117213,52.50678,13.30777,Abu Alnar Grill,Kantstraße 55,10627.0,Berlin,04300623
336139117,52.53072,13.40232,Yangguofu Malatang,Weinbergsweg 5,10119.0,Berlin,01100416
336139347,52.52943,13.40119,Fergie,Rosenthaler Straße 1,10119.0,Berlin,01100309
350462678,52.50092,13.41885,Maroush,Adalbertstraße 93,10999.0,Berlin,02300314
350499772,52.50066,13.43624,McDonalds,Wrangelstraße 35,10997.0,Berlin,02300315
352924669,52.49293,13.36877,Hisar,Yorckstraße 49,10965.0,Berlin,07100206
354721203,52.52488,13.14248,Bistro Kaya,,,,05200524
362861264,52.51108,13.45844,Sanabel,Gabriel-Max-Straße 16,10245.0,Berlin,02500833
365288484,52.46853,13.43041,Tepe,,12051.0,Berlin,08100104
370400278,52.51030,13.27134,Prime Kebab,Reichsstraße 1,14052.0,Berlin,04200310
376053800,52.53293,13.39978,Riha Bistro,Veteranenstraße 27,10119.0,Berlin,01100416
380497987,52.50921,13.37709,Pret A Manger,,,,01100205
388520288,52.38987,13.65070,,,,,09401635
388579116,52.59801,13.37646,Irem Bistro,,,,03400618
390427086,52.43411,13.42156,Burger Garden,,,,08200729
390470723,52.53758,13.21912,McDonalds,Am Juliusturm 42-46,13599.0,Berlin,05300736
392404648,52.51767,13.44105,Bistro 93,Karl-Marx-Allee 93,10243.0,Berlin,02400522
407094160,52.51226,13.58854,Mac Kebab,,,,10400836
409353486,52.50579,13.56042,Dönerpoint,Weißenhöher Straße 108,12683.0,Berlin,10300733
410135925,52.49849,13.44247,Nour,Wrangelstraße 81,10997.0,Berlin,02300419
410135941,52.49827,13.43023,Pizzeria Piccola Musica,,,,02300417
410135953,52.50073,13.44208,Pizza Espresso,Schlesische Straße 1,10997.0,Berlin,02300419
410174470,52.53796,13.63437,Mc Kebap II,Mahlsdorfer Straße 63e,15366.0,Hoppegarten,
410214240,52.59242,13.26686,Park-Imbiss,,,,12200515
417009812,52.48625,13.36132,Efdal,Czeminskistraße 55,10829.0,Berlin,07200411
417128855,52.48471,13.34608,Dolce Pizza,Belziger Straße 73,10823.0,Berlin,07200409
417237678,52.49396,13.46334,Fischerei Löcknitz - Hafenräucherei Treptow,,,,09100101
426687397,52.50227,13.34252,Wittys Organic Food,Wittenbergplatz 5,10789.0,Berlin,07100101
426973261,52.46029,13.32455,Falafel Baba,,,,06100102
427670053,52.51203,13.49654,Payamlino Bistro,,,,11300725
427670064,52.51173,13.49703,Isys Dönerpoint,,,,11300725
427670068,52.51207,13.49831,Bambus Bistro,Frankfurter Allee 251,10365.0,Berlin,11300725
427670069,52.51206,13.49854,Burger City,Frankfurter Allee 255,10365.0,Berlin,11300725
427670070,52.51207,13.49846,Asia-Imbiss,,,,11300725
427901484,52.43282,13.41544,Am Modellboothafen,,,,08200729
428114310,52.48572,13.35499,Brammibal’s Donuts,Hauptstraße 26,10827.0,Berlin,07200409
428889381,52.63716,13.49232,Akcan Döner,Wiltbergstraße 34,13125.0,Berlin,03100101
429740258,52.50905,13.37711,dean&david,,,,01100205
430545834,52.46621,13.38523,Risa Chicken,Tempelhofer Damm 144,12099.0,Berlin,07400824
431245850,52.51802,13.45533,Saigon Shack,,,,02500727
432486561,52.52195,13.32624,Anni Kitchen,Helmholtzstraße 26,10587.0,Berlin,04300620
433914645,52.52955,13.29653,Dalinji,,,,04300517
434557868,52.37250,13.61537,Bistro Mavi Ay,,,,
434558344,52.37235,13.61498,Pizza-Europa Express,,15732.0,Eichwalde,
436624045,52.43153,13.53775,Dewi’s FAST FOOD KEBAPHAUS,Albert-Einstein-Straße 1-3,12489.0,Berlin,09200715
437195224,52.51943,13.41082,Hong Kong Express,,,Berlin,01100310
437546059,52.36318,13.13742,Kebap Haus Felsenstein,,,,
437611378,52.52040,13.40491,Nordsee,Spandauer Straße 4,10178.0,Berlin,01100310
441283250,52.53771,13.20220,Pho & More,,,,05100316
441514946,52.47866,13.42550,Bol Köfte,,,,08100102
441514948,52.47921,13.42582,Burger Pause,Hermannstraße 219,12049.0,,08100206
441514949,52.47925,13.42580,Sam Asia Imbiss,,,,08100206
441734599,52.48082,13.43568,My Döner,,,,08100415
442369659,52.40582,13.23451,Tele Pizza,Zehlendorfer Damm 121,14532.0,Kleinmachnow,
442388893,52.45904,13.38417,Bistro Rose 2,Tempelhofer Damm 196,12099.0,Berlin,07400825
442390304,52.45676,13.38356,Tempelhofer Bistro Grillhaus,,12099.0,Berlin,07400825
442390877,52.45618,13.38352,Libanon Snack,Tempelhofer Damm 222,12099.0,Berlin,07400825
442390882,52.45467,13.38446,Maximilian Hafenimbiss,,,,07400927
442391301,52.45255,13.38482,Imbiss Tang,,,,07501031
442392125,52.44853,13.38490,Mangal,Mariendorfer Damm 48,12109.0,Berlin,07501030
442393070,52.44709,13.38525,Basileus Pizza & Birgül Döner,Mariendorfer Damm 62,12109.0,Berlin,07501030
442394430,52.44354,13.38648,Dominos,Mariendorfer Damm 103,12109.0,Berlin,07501031
442394431,52.44343,13.38656,Kebaphaus,Mariendorfer Damm 103,12109.0,Berlin,07501031
443458065,52.51974,13.38867,Nonnas,,,,01100206
443728420,52.53807,13.20647,Isola Verde,,,,05100316
445842531,52.50450,13.33696,McDonalds,Tauentzienstraße 9-12,10789.0,Berlin,04501042
446899198,52.46891,13.44747,Curry Pelle,Mittelbuschweg 16-17,12055.0,Berlin,08100209
447974137,52.45919,13.44776,Z Burger,,,,08200623
448811286,52.48664,13.42444,Viet Gourmet,,,,08100314
448913484,52.54782,13.41306,Steinofen Pizza To-Go,,,,03601142
449198142,52.39616,13.71818,"""Mahlzeit""",,,,
449201287,52.39517,13.71814,Döner-Imbiss,,,,
449201362,52.39523,13.71796,Fleischer-Imbiss,,,,
451613198,52.53585,13.19124,Der Pizzamann,Seegefelder Straße 41,13583.0,Berlin,05100316
452106549,52.44840,13.27584,Cơm bụi,Garystraße 46,14195.0,Berlin,06400843
452635001,52.42475,13.48665,Sawaddi,Stubenrauchstraße 129,,Berlin,08401243
454167246,52.56304,13.41246,Berliner Grillhaus,Berliner Straße 30,13189.0,Berlin,03400826
454251011,52.49101,13.43528,Love Deluxe,Pannierstraße 32,12047.0,Berlin,08100312
454358577,52.53695,13.18881,Bistro Kübra,Seegefelder Straße 57,13583.0,Berlin,05100316
454358584,52.53707,13.18855,,,,,05100316
454633657,52.46101,13.47991,Atilas Kebap Haus 2,Sonnenallee 412,12437.0,Berlin,09100304
456421031,52.44239,13.45712,Goldhähnchen,,12351.0,Berlin,08401138
458741715,52.46008,13.41971,Big Food,,,,07400928
458741716,52.45512,13.40947,Bei Ivo,,,,07400927
459093473,52.52622,13.45169,Piano Piano,,,,02500726
459671854,52.58101,13.40349,Med Bistro,,,,03200206
459676366,52.58365,13.40275,B&B Focaccia,Kuckhoffstraße 1,,,03200206
460199528,52.46796,13.46673,Kölle Pizza,,,,08100521
461899526,52.36754,13.56121,McDonalds,,,,
461943573,52.47370,13.45035,Schudomaer Grill,Schudomastraße 9,12055.0,Berlin,08100417
464764424,52.46562,13.42609,Akram Arabic Diner,Silbersteinstraße 115,12051.0,Berlin,08100105
469165337,52.43348,13.41943,Britzer Höhe,,,,08200729
472372228,52.46194,13.44520,Gül Bistro,Buschkrugallee 24,12359.0,Berlin,08200622
473066908,52.42205,13.29927,,,,,06300631
474954965,52.49817,13.42904,Chaparro,Wiener Straße 14a,10999.0,Berlin,02300417
477403949,52.46941,13.44139,Haci Baba,Karl-Marx-Straße 228,12055.0,Berlin,08100208
477410513,52.46957,13.44215,Pizza Pasta,,,,08100417
477454200,52.46792,13.44284,Lahn-Grill,,,,08100209
477558654,52.51073,13.45635,Döner Dach Aceto Lokanta,,,,02500833
479552606,52.51222,13.49222,Grillhaus,,,,11300724
485936333,52.54956,13.41333,Alain Snack,Schönhauser Allee 116a,10439.0,Berlin,03601142
492022196,52.61819,13.33641,Kiosk Freibad Lübars,,,,12500929
493681695,52.51788,13.54196,Currywurst,,,,10100311
501074606,52.55139,13.38381,Fendi,,,,01300733
506197878,52.54397,13.42441,Falafel Aladdin,Stargarder Straße 50,10437.0,Berlin,03601348
506265964,52.52611,13.68292,Nemrut Imbiss,,,,
508640816,52.58914,13.28151,Bergmann Pizza,,,,12200515
509477411,52.51273,13.4957,Bistro,,,,11300725
513958818,52.47210,13.44100,Bistro Phoviet 120,Karl-Marx-Straße 200,12055.0,Berlin,08100208
515660626,52.49056,13.45759,San Mendoza,,,,09100101
519223365,52.50540,13.51479,Bistro Legende,Alfred-Kowalke-Straße 1,10315.0,Berlin,11401137
519914006,52.58395,13.28688,McDonalds,Am Borsigturm 2,13507.0,Berlin,12200515
520575822,52.45070,13.33961,Krasselts Imbiss,Steglitzer Damm 22,12169.0,Berlin,06100205
521498877,52.48194,13.32059,Blisse Imbiss,Blissestraße 37,10713.0,Berlin,04501151
521551504,52.53661,13.27500,Asian Snack,,,,05300841
521990108,52.50505,13.47666,Final Bistro,Pfarrstraße 116,,,11400927
528641088,52.42116,13.53901,Imbiss - Bernd Schulz,,,,09300920
530715904,52.54219,13.35763,Subzees,Sprengelstraße 42,13353.0,Berlin,01401047
538057674,52.45812,13.57833,Asiagourmet,Bahnhofstraße 33-38,12555.0,Berlin,09501939
538057886,52.45846,13.57650,Bistro Bonjour,Bahnhofstraße 33-38,12555.0,,09501939
538058019,52.45807,13.57646,Thang Long,Bahnhofstraße 33-38,12555.0,,09501939
538058226,52.45820,13.57813,Center-Grill,,,,09501939
538058854,52.45813,13.57809,Nordsee,,,,09501939
538127564,52.36074,13.40977,City Grill,Am Bahnhof 6 A,15831.0,Blankenfelde-Mahlow,
538889357,52.52314,13.37936,Sabzi,Luisenstraße 15,10117.0,Berlin,01100308
539491861,52.46573,13.48752,Pizzeria Dilara,Baumschulenstraße 18,12437.0,Berlin,09100304
539757566,52.54658,13.40581,The Bird,Am Falkplatz 5,10437.0,Berlin,03601142
540812448,52.43405,13.35951,Vuong Asia Bistro,,,,06200316
541076047,52.54086,13.41494,Papa Nô,Danziger Straße 11,10435.0,Berlin,03601347
541076899,52.54060,13.41667,Cem Grill,Schliemannstraße 1,10437.0,Berlin,03601347
541077707,52.54014,13.41956,Nymami,Danziger Straße 43,10435.0,Berlin,03601348
541077983,52.54043,13.41766,Red Dragon,Danziger Straße 29,10435.0,Berlin,03601347
546290481,52.53079,13.33092,Darbar,Wiclefstraße 42,10551.0,Berlin,01200519
549737016,52.51421,13.47438,Nordsee,Frankfurter Allee 111,10247.0,Berlin,02500729
549760116,52.54402,13.49835,DaLis,Große-Leege-Straße 97/98,13055.0,Berlin,11200513
549932966,52.46280,13.51141,Pizza & Pasta,,,,09200510
551333488,52.54449,13.49290,Asia FastFood,,,,11200512
551333687,52.54430,13.49251,Konrad´s Kebab House,Konrad-Wolf-Straße 22,13055.0,Berlin,11200512
551334510,52.54316,13.49125,Kobani Bistro,Konrad-Wolf-Straße 109,,,11200513
557918947,52.53308,13.32873,Beussel Grill,,,,01200517
559630083,52.54866,13.50364,Fantasia Pizza Döner,Hauptstraße 9A,,,11200411
560145209,52.54696,13.41740,1001 Falafel,Stargarder Straße 73,10437.0,Berlin,03601346
564160843,52.67077,13.28225,Palast Imbis,,,,
566398011,52.51110,13.43545,Bistro International,Erich-Steinfurth-Straße 7,10243.0,Berlin,02400623
567167721,52.54578,13.41472,Pizza Star,Greifenhagener Straße 62,10437.0,Berlin,03601346
570225669,52.46488,13.51414,Mega Bistro,Griechische Allee 1,12459.0,Berlin,09200511
573384943,52.51235,13.47277,China & Thai Bistro Kokos,,,,02500832
573384944,52.51368,13.47257,Center Grill,,,,02500832
576282005,52.54795,13.50352,Asia Bistro Storchenhof,,,,11200411
576282007,52.54795,13.50376,Zum Adebar,,13055.0,Berlin,11200411
577338551,52.65576,13.53833,Leos Imbiss und Getränkeservice,,,,
577346825,52.65517,13.54040,Star Döner,,,,
578429141,52.51830,13.41582,McDonalds,Grunerstraße 20,10179.0,Berlin,01100311
582854281,52.42221,13.37114,Jörgs Curry Container,Hranitzkystraße 15,12277.0,Berlin,07601237
586372971,52.38682,13.39556,Am Mittelmeer,Prinzessinnenstraße 2,12307.0,Berlin,07601546
588557948,52.54842,13.45308,Oppen’s Diner & Fleischerei,Mahlerstraße 3,13088.0,Berlin,03500936
592353523,52.52326,13.48093,Alanya Bistro,,,,11300620
600109639,52.55354,13.52011,CurryEck63,,,,11200410
602315661,52.52046,13.41288,Asiagourmet,,,,01100310
602315662,52.52061,13.41270,KFC,Dircksenstraße 117,10178.0,Berlin,01100310
602315665,52.52050,13.41282,Döner Curry,,,,01100310
603034328,52.51052,13.45129,Oase,Warschauer Straße 25,10243.0,Berlin,02400624
603742941,52.53687,13.27169,Grillimbiss,,,,05300841
608516548,52.47048,13.47960,Asia Snack,,,,09100304
608658018,52.58472,13.31196,Imbiss,Holzhauser Straße 140 e,13509.0,Berlin,12500825
610197807,52.38678,13.40337,Curry-Wolf,Bahnhofstraße 15,12305.0,Berlin,07601544
610198319,52.41304,13.40163,Heikes Holzkohlengrill,Lichtenrader Damm 12,,,07601442
610489620,52.50513,13.30737,China Pfanne,,,,04300623
613536373,52.52190,13.32599,CoffeeCake&Food,Helmholtzstraße 27,10587.0,Berlin,04300620
613536377,52.52211,13.32721,The little Bangkok in Berlin,Helmholtzstraße 22,10587.0,Berlin,04300620
614490869,52.57013,13.31292,Imbiss König,Eichborndamm 22,13403.0,Berlin,12200309
615020654,52.50001,13.44346,Curry 7,,,,02300419
615607317,52.48229,13.43191,McDonalds,,,,08100206
615952483,52.41719,13.31458,LQ Sushibar-Asiawok,,,,06200419
616244451,52.54944,13.38705,Curry-Baude,Badstraße 1-5,13357.0,Berlin,01300733
616921896,52.52786,13.32847,Aras,,,,01200518
617630720,52.52656,13.33533,La Döner Vita,,,,01200521
617630780,52.52763,13.32846,Döner 21,,,,01200518
617987239,52.53215,13.34251,Birken-Eck,,,,01200520
618609701,52.50551,13.33051,Biers Mini 7,Kantstraße 7,10623.0,Berlin,04300622
618613702,52.50108,13.31879,Biers Kudamm 195,,10707.0,Berlin,04501041
620704410,52.48295,13.43802,Pizza Pallazzo,,,,08100312
620704417,52.48361,13.43660,Al-Pascha,Sonnenallee 77,,,08100312
620850020,52.44558,13.44531,Sumak,,,,08200727
623350251,52.48741,13.35500,Schüsseldienst,Akazienstraße 7,10823.0,Berlin,07200409
624646233,52.52744,13.33015,Green 56,Turmstraße 56,10551.0,Berlin,01200519
627037219,52.55000,13.38694,Döner Center,Behmstraße 3,,,01300733
627415721,52.55109,13.38426,Yesil Fırın,,,,01300733
630430814,52.46903,13.38126,Kantine Ringbahnstraße,Ringbahnstraße 96,12103.0,Berlin,07400824
632298538,52.49867,13.43122,Rissani,Spreewaldplatz 4-6,10999.0,Berlin,02300417
634882639,52.40914,13.57244,Bistro Varna,,,,09301024
634882660,52.40449,13.56011,Paradies Grill,Paradiesstraße 212,12526.0,Berlin,09301024
635820528,52.46235,13.32628,Burgermeister,Schloßstraße 117,12163.0,Berlin,06100103
637034927,52.45141,13.28250,Oh my Bap,,,,06400844
639631252,52.50603,13.49610,AVCI Café & Bistro,,,,11400929
639631282,52.50887,13.49738,AVCI Bistro,,,,11400929
643073980,52.52811,13.53919,Dominos,Helene-Weigel-Platz 5,12681.0,Berlin,10100312
643227698,52.42975,13.45478,Burgermeister,,,,08300934
643509394,52.54963,13.38762,Dunkin,Badstraße 4,13357.0,Berlin,01300733
645677474,52.52671,13.33748,Smackburger,,,,01200520
646593037,52.54961,13.38773,Burger Vision,Badstraße 4,13357.0,Berlin,01300733
648207420,52.50981,13.49833,Lavendel Viet,,,,11400929
650056055,52.47890,13.48101,Asia Imbiss,Dammweg 56,12435.0,Berlin,09100203
652049349,52.42464,13.43594,Dominos,,,,08200730
652049353,52.42337,13.43635,Master of Döner,Alt-Buckow 11,12349.0,Berlin,08200832
652785190,52.52782,13.53774,Miran Bistro,,,,10100312
652880708,52.52849,13.40240,Food Brother,Rosenthaler Straße 67,10119.0,Berlin,01100309
655118060,52.53938,13.60795,Call a Pizza,Quedlinburger Straße 16,12627.0,Berlin,10200421
658612629,52.4589,13.32307,Zur Bratpfanne,,12163.0,Berlin,06100102
659034066,52.42282,13.37075,Marienfelder Bistro,,,,07601236
660130778,52.44702,13.28319,Mensa Shokudō,Vant-Hoff-Straße 6,14195.0,Berlin,06400843
661126952,52.51029,13.30577,Yuppis,Wilmersdorfer Straße 129,10627.0,Berlin,04300623
662086926,52.41499,13.40123,Barlys,,,,08200831
663298045,52.48058,13.31219,Sila Grillhaus,,,,04501148
663611904,52.47946,13.28561,Mariannes Imbiss,,,,04400830
664028702,52.37697,13.09366,Bei Addi,,,,
664165956,52.43925,13.50756,Segelfliegerklause,,,,09100409
664244057,52.47500,13.29246,Adana Imbiss,Breite Straße 20,14199.0,Berlin,04400832
665267032,52.53690,13.27563,Manous Schlemmerbude,,,,05300841
665503410,52.42798,13.74497,Gaststätte Ziech,,15537.0,Erkner,
665535090,52.50398,13.33642,Zaddys,Tauentzienstraße 13-13a,10789.0,Berlin,04501042
666348236,52.41267,13.57205,Cua-Tung,,,,09301024
667211384,52.51594,13.26064,Westend Grill,,,,04200310
667445242,52.43017,13.25938,Efes,,,,06300526
667859614,52.52047,13.40375,Subway,Spandauer Straße 3,10178.0,,01100310
668071755,52.55253,13.38037,Atis Gemüse Kebap,Badstraße 49a,13357.0,Berlin,01401044
668899449,52.50414,13.51224,Memory,,,,11401136
669716292,52.52621,13.49718,,,,,11300721
671481369,52.52260,13.46563,Musti Bistro,,,,03601453
671487867,52.52262,13.46546,Viet Thai Bistro,,,,03601453
672897977,52.51624,13.47887,Bistro Kristall M&M,,,,11300722
673639048,52.50505,13.30738,Tasty Döner 63,,,,04501040
674019819,52.54317,13.39261,Tatlises Grill,Brunnenstraße 78,,,01300834
674086087,52.54821,13.20121,Maga-Imbiss,,,,05100314
674086095,52.54896,13.20044,Abbas Bek,,,,05100312
674108692,52.53354,13.19829,McDonalds,,,,05200629
675212899,52.60739,13.12128,Siggis Imbiss,,,,
678306038,52.47512,13.29073,Viet-Thai Box,Warnemünder Straße 1,14199.0,Berlin,04400832
678524200,52.35850,13.09867,City Grillstation,Arthur-Scheunert-Allee 1a,14558.0,Nuthetal,
678901090,52.45788,13.29255,Asia-Snack Dahlem,Königin-Luise-Straße 38,14195.0,Berlin,06400843
679121519,52.50973,13.46017,Yoyo Foodworld,Gärtnerstraße 27,10245.0,Berlin,02500833
679671274,52.60662,13.21206,Linden Baude,,,,12400617
687026166,52.51386,13.47550,Fresh Go,,,,02500729
687026182,52.51391,13.47551,Subway,Frankfurter Allee 113,10365.0,Berlin,02500729
689563396,52.48399,13.35271,Chibo,Hauptstraße 128,10827.0,Berlin,07200410
689563415,52.49063,13.36081,Sufi,,,,07200411
693289397,52.41330,13.35393,Kebap Club,,,,07601340
693892023,52.50422,13.30763,Viets,,10629.0,Berlin,04501040
693892030,52.50409,13.30767,Leckere Mahlzeit,,10629.0,Berlin,04501040
695831683,52.48844,13.30106,König Döner,Hohenzollerndamm 48,10713.0,Berlin,04500939
697297187,52.54150,13.43874,ISY Dönerpoint,Greifswalder Straße 166,10409.0,Berlin,03601245
698789138,52.50476,13.47790,Viktoria Bistro,,,,11400927
699533699,52.40352,13.50729,Asia Imbiss,,12355.0,Berlin,08401245
699538773,52.41658,13.49727,China Town Thai,,,,08401243
699851943,52.49109,13.32579,Honey Chicken,Güntzelstraße 46,10717.0,Berlin,04501149
700103410,52.49900,13.33570,City Imbiss,Lietzenburger Straße 29,10789.0,Berlin,04501045
700981349,52.40379,13.50574,Pizza Jack,Elly-Heuss-Knapp-Straße 21,12355.0,Berlin,08401245
701071949,52.41800,13.49551,Burgerzimmer 3,Alt-Rudow 57,12357.0,Berlin,08401243
702364072,52.40390,13.50670,Döner & Asia,,,,08401245
703607127,52.55179,13.38098,Ya Hala,,,,01300836
705023614,52.54431,13.36890,Berlin Midye,,,,01300836
705573153,52.61840,13.48674,Thai Asia,,,,03300411
705926405,52.51925,13.45302,Tio Grillhaus,Petersburger Straße 77,10249.0,Berlin,02500726
707356120,52.55061,13.37839,Nimet Sofrasi,Pankstraße 62A,,,01401044
707365140,52.54788,13.37473,Adams Burger,Pankstraße 26,13357.0,Berlin,01300836
707409465,52.54466,13.36717,Simit 24,Gerichtstraße 52,13347.0,Berlin,01300836
711697577,52.55156,13.38262,Hunkar Sofrasi,Badstraße 57,13357.0,Berlin,01300836
715203759,52.48867,13.32246,Dominos,Uhlandstraße 87,10717.0,Berlin,04501147
715911684,52.51000,13.31468,Sing-Le,Leibnizstraße 20,10625.0,Berlin,04300624
718143686,52.51569,13.25273,Imbiss Olympische Brücke,Olympische Straße 31,14052.0,Berlin,04200205
719313894,52.55269,13.37918,Imren,,,,01401044
723170413,52.51021,13.45966,Burgeramt,Krossener Straße 22,10245.0,Berlin,02500833
724014449,52.54170,13.37021,Wedding Grillhaus,Reinickendorfer Straße 9,13347.0,Berlin,01300836
724014451,52.55190,13.38114,Akko,Pankstraße 52,13357.0,Berlin,01300836
724151408,52.52457,13.36886,Burger King,Europaplatz 1,10557.0,Berlin,01200628
725621496,52.47298,13.31410,Streetfood by la vucciria,Rüdesheimer Straße 8,14197.0,Berlin,04400834
725621505,52.47256,13.31466,Pizza E Pasta,Rüdesheimer Straße 9,14197.0,Berlin,04400835
726643465,52.52806,13.53775,China Imbiss,,12681.0,Berlin,10100312
727814440,52.54671,13.40576,Song Nguu,Am Falkplatz 5,10437.0,Berlin,03601142
727852079,52.49459,13.35426,Berlin Burrito Company,Pallasstraße 21,10781.0,Berlin,07100204
729587085,52.55203,13.38156,Baba Sultan,,,,01300836
729587087,52.55163,13.38246,Minze Falafel,,,,01300836
732413394,52.49035,13.31491,Fattoush,,,,04501147
734707653,52.39306,13.09261,Babelsberger Küche,Karl-Liebknecht-Straße 11,14482.0,Potsdam,
735530414,52.57493,13.31432,Imbiß Stube,,,,12200310
735944534,52.44467,13.56797,Istanbul Grill,,,,09200819
736814197,52.38283,13.24403,Chopsticks,Ruhlsdorfer Straße 95,14532.0,Stahnsdorf,
737202792,52.52690,13.47890,Bistro Max & Moritz,,,,11300617
740152658,52.55581,13.20729,Havel Bistro,Streitstraße 80,13587.0,Berlin,05100105
742015724,52.42488,13.46218,By Murat & Okis,,,,08300935
746628481,52.67456,13.57306,,Zepernicker Chaussee 9,16321.0,Bernau bei Berlin,
746853036,52.58060,13.40120,Yaman Kebab,,,,03200206
746853056,52.58061,13.40132,Golden Asia,,,,03200206
747512476,52.58803,13.40152,Palast,Dietzgenstraße 77,13156.0,Berlin,03200205
752903320,52.47344,13.45302,Pizza Mimo,Braunschweiger Straße 12,12055.0,Berlin,08100417
753328970,52.56860,13.41148,Berliner Currywurst,,,,03400723
759996683,52.67110,13.55348,Imbiss,,,,
760605073,52.47994,13.41794,Mmaah,Columbiadamm 160,10965.0,Berlin,08100102
761371630,52.44507,13.57400,Final Bistro,,,,09401534
762607347,52.54146,13.35005,Kubi,Torfstraße 18,,,01401046
764521083,52.63511,13.20936,Fisch-Eck,Hafenstraße 2,16761.0,Hennigsdorf,
765928593,52.48020,13.35246,Döneria,Dominicusstraße 55,10827.0,Berlin,07200410
766742191,52.49008,13.40868,Roll Inc.,Körtestraße 30,10967.0,Berlin,02200212
766875147,52.43751,13.54728,Adlers Grill,Dörpfeldstraße 31,12489.0,Berlin,09200716
766875186,52.43509,13.54231,Adler Burger,Abtstraße 1,12489.0,Berlin,09200716
769328327,52.57400,13.35882,Erdbeere,,,,12100103
769849996,52.56650,13.36323,Irmak Grillhaus,,,,12100102
770089184,52.50986,13.45822,No Hablo Español,Gabriel-Max-Straße 3,10245.0,Berlin,02500833
771332561,52.50139,13.34213,ViVo,Wittenbergplatz 1,10789.0,Berlin,07100101
771332581,52.50380,13.34406,Reva,Bayreuther Straße 3,10787.0,Berlin,07100101
773305668,52.41165,13.57313,Grünau Döner & Pizza,Richterstraße 10,12526.0,Berlin,09301025
775342927,52.45856,13.32202,Cebo’s Gemüsedöner,,,,06100102
778710939,52.54059,13.41159,Atix,Kastanienallee 2,10435.0,Berlin,03701554
778710954,52.53982,13.41130,KUps Gemüse Kebap,Kastanienallee 102,10435.0,Berlin,03701554
778710973,52.53890,13.40979,Habba Habba,Kastanienallee 15,10435.0,Berlin,03701554
779158280,52.48201,13.34902,Fresh Bistro,Hauptstraße 113-115,10827.0,Berlin,07200410
783442831,52.54092,13.41384,PIZZA ePASTA,,,,03601347
783442834,52.54082,13.41287,Ali Baba,,,,03701555
783442844,52.54105,13.41307,Burgeramt,Danziger Straße 1,10435.0,Berlin,03601347
783442850,52.54103,13.41321,Bistro Doy Doy,Danziger Straße 3,10435.0,Berlin,03601347
791236046,52.51331,13.45335,Co Ha,,,,02500833
792494423,52.57303,13.35902,Residenz,,,,12100205
793020072,52.53731,13.39643,Brunnen Dönerhaus,Brunnenstraße 144,10115.0,Berlin,01100415
793735854,52.54033,13.40265,Prinzen Falafel,,,,03601142
794059331,52.54591,13.55449,Myster Döner,Marzahner Promenade 45,12679.0,Berlin,10100210
798557599,52.45568,13.32219,Metro Döner,,,,06100102
801096150,52.40132,13.26049,Teltower Grillhaus,,,,
802697304,52.48640,13.35633,Noodlebar,Hauptstraße 21,10827.0,Berlin,07200409
802697318,52.44717,13.31499,Telepizza,Hindenburgdamm 78,12203.0,Berlin,06300633
811216907,52.54055,13.43868,McDonalds,Greifswalder Straße 80,10405.0,Berlin,03601449
811250424,52.58518,13.36685,Majesty Grill,Hauptstraße 9,13158.0,Berlin,03400619
813918027,52.44315,13.29680,Kristall Imbiss,Drakestraße 33a,12205.0,Berlin,06300633
819316490,52.49665,13.35379,Habibi,Goltzstraße 24,10781.0,Berlin,07100102
821587321,52.48169,13.30383,Snackpoint Sommerbad Wilmersdorf,,,,04400830
823311535,52.44696,13.22985,imbiss,,,,06400838
823345467,52.39180,13.09462,Imbiss Sanssouci,Rudolf-Breitscheid-Straße 47/48,14482.0,Potsdam,
824826703,52.56698,13.41078,Sultan Grill,Florastraße 51,13187.0,Berlin,03400723
825221198,52.47363,13.30202,Wittys,Wiesbadener Straße 53,14197.0,Berlin,04400833
828086987,52.56715,13.41170,Bistro Avci,Florastraße 52,13187.0,Berlin,03400826
831370024,52.50682,13.30710,Falafel,Kantstraße 56a,10627.0,Berlin,04300623
832835231,52.55236,13.36653,First Grillhaus,Reinickendorfer Straße 70,13347.0,Berlin,01401049
832835248,52.55147,13.36773,Kebaphaus,,,,01401044
832835266,52.55191,13.36678,Polat Hähnchengrill,,,,01401049
832835288,52.55031,13.36845,Call a Pizza,Reinickendorfer Straße 48,13347.0,Berlin,01401044
832840928,52.49142,13.39478,Orginal Chicken Gemüse Kebap,,,,02200210
833955538,52.45440,13.39593,Imbiss bei Ines,Volkmarstraße 14,12099.0,Berlin,07400927
837695978,52.43309,13.53564,Fleischimbiss Gut Hesterberg,Rudower Chaussee 12,12489.0,Berlin,09200715
837695994,52.43320,13.53540,Döner,,,,09200715
837696891,52.44459,13.51751,Grillbus,Groß-Berliner Damm 75,12487.0,Berlin,09100409
838429712,52.50601,13.46615,Call a Pizza,Sonntagstraße 11,,,02500834
838429769,52.50502,13.46739,LOrient,,,,02500834
838429798,52.50471,13.46776,Burgers Berlin,Sonntagstraße 2,10245.0,Berlin,02500834
838440474,52.50380,13.46900,Wurstland,,,,02500835
839083366,52.48991,13.36014,three buddies,Hauptstraße 159,10827.0,Berlin,07200411
841530560,52.56553,13.40612,Sahara Imbiss,Florastraße 67b,,Berlin,03400721
847906246,52.46753,13.51300,Bistro Edison,Edisonstraße 36B,12459.0,Berlin,09200510
848508705,52.49927,13.41936,Misir Carsisi,Skalitzer Straße 134,10999.0,Berlin,02300314
848875729,52.49953,13.41735,7days Finest Fresh Food,Reichenberger Straße 175,10999.0,Berlin,02300314
849521578,52.44111,13.58671,Pablo Döner Bistro,,,,09401431
850619776,52.42047,13.36935,Pizza Max,,,,07601237
851492635,52.43411,13.41458,Imbiss,,,,08200729
854528522,52.47868,13.42200,Croccante Pizza napoletana,,,Berlin,08100102
858273179,52.46041,13.32337,Döner King,,,,06100102
862031027,52.51500,13.31515,Currystation-36,,,,04300619
863962683,52.50641,13.47013,Crunchy,Boxhagener Straße 68,10245.0,Berlin,02500832
863962760,52.50672,13.46873,Vöner,Boxhagener Straße 56,10245.0,Berlin,02500834
863962803,52.50571,13.46958,Machete,Neue Bahnhofstraße 29,10245.0,Berlin,02500834
863962822,52.50579,13.47018,Thron Burger,Neue Bahnhofstraße 7A,10245.0,Berlin,02500834
863962824,52.50639,13.47021,Best of Grill,Boxhagener Straße 68,10245.0,Berlin,02500832
863962932,52.50659,13.46907,Happy Asia,Boxhagener Straße 57,10245.0,Berlin,02500834
864945529,52.46514,13.39474,Birecik Döner Kebab,,,,07400927
865949811,52.49956,13.41757,Cem’s Diner Burgerhouse,Reichenberger Straße 174,10999.0,Berlin,02300314
866007372,52.49975,13.41788,Huy Hoang,Adalbertstraße 98,10999.0,Berlin,02300314
866013501,52.50290,13.41375,Mimatoha,Oranienstraße 47,10969.0,Berlin,02100104
866021764,52.49943,13.41667,Izmir Köftecisi Konak Grill,Reichenberger Straße 10,10999.0,Berlin,02100105
867855171,52.50009,13.41859,Lezzet Grill,,10999.0,,02300314
871561387,52.50146,13.41902,falafelwerk,Oranienstraße 30,10999.0,Berlin,02300314
871641846,52.49997,13.41791,Taka Fischgrill Stube,,,,02300314
871641848,52.49954,13.41726,Orient Eck,,,,02300314
872141192,52.49990,13.42315,1001 Falafel,Oranienstraße 194,10999.0,Berlin,02300315
872204136,52.49891,13.42166,Tekbir Döner,,,,02300417
874272578,52.49994,13.41803,Çiğköftem,,,,02300314
874317214,52.50190,13.41738,pizzys,Oranienstraße 38,,,02300314
874355744,52.50312,13.41301,Burgerkette,,,,02100104
876479034,52.51185,13.45548,Nil,Grünberger Straße 52,10245.0,Berlin,02500833
876479035,52.51183,13.45560,Goldies Smashburger,Grünberger Straße 52,10245.0,Berlin,02500833
876492487,52.51193,13.45645,principessa,Grünberger Straße 55,10245.0,Berlin,02500833
876497311,52.51174,13.45614,Babek 2,,10245.0,Berlin,02500833
880651949,52.53621,13.27153,M&D Grillhaus,Reisstraße 20,13629.0,Berlin,05300841
883518610,52.49127,13.41618,Pizzeria Sicilia,Graefestraße 27,10967.0,Berlin,02200213
886109077,52.49851,13.42806,Imren,Wiener Straße 11,10999.0,Berlin,02300417
886152063,52.49868,13.42754,Miranda,Wiener Straße 8,10999.0,Berlin,02300417
895721096,52.52629,13.33837,Curry Eck,,,,01200521
897444078,52.48845,13.42863,Sahara Imbiss,Reuterstraße 56,12047.0,Berlin,08100311
899286045,52.57360,13.35142,Femo Döner Burger,,,,12100205
910465447,52.49825,13.31775,Rico Falafel,Pariser Straße 39,10707.0,Berlin,04501043
913248497,52.51459,13.49811,Selin,Siegfriedstraße 203A,10365.0,Berlin,11300725
914792633,52.49901,13.33555,Sushi Yana,Lietzenburger Straße 29,10789.0,Berlin,04501045
918358493,52.51630,13.29370,DöPi 19,,,,04300413
922523983,52.42008,13.16185,Peter bringts by Peter Pane,Königstraße 12,14109.0,Berlin,06400735
924592371,52.37350,13.46657,Imbiss 68,,,,
925385008,52.41084,13.30853,Kiosk,,,,06200420
930017112,52.49967,13.44496,Sammich Klub,Schlesische Straße 36,10997.0,Berlin,02300419
939667416,52.54159,13.34909,Adi Yaman Grill:02,Föhrer Straße 11,,,01401046
939667418,52.54157,13.34899,Pi.Pa.Sa,Föhrer Straße 10,13353.0,Berlin,01401046
939667423,52.54155,13.34883,Butts Spicy Kitchen,Föhrer Straße 10,13353.0,Berlin,01401046
939667450,52.54162,13.34921,Spice,Föhrer Straße 11,13353.0,Berlin,01401046
945649945,52.43329,13.18972,Easy Rider,,14129.0,Berlin,06400737
946947081,52.34379,13.43530,Call a Pizza,,,,
947967998,52.48934,13.40840,Habibi,Körtestraße 35,10967.0,Berlin,02200212
950599858,52.51066,13.40231,Spätzle-Club,Seydelstraße 2,10117.0,Berlin,01100207
951583795,52.44037,13.60122,Trattoria Pizzeare,Müggelschlößchenweg 44,12559.0,Berlin,09401433
954838581,52.39186,13.09558,Karli Döner,Rudolf-Breitscheid-Straße 52,14482.0,Potsdam,
959238588,52.48876,13.40822,Döner Burger Haus,Hasenheide 61,10967.0,Berlin,08100101
959287072,52.52448,13.40316,Kebab Kitchen,Rosenthaler Straße 46,10178.0,Berlin,01100309
960239446,52.44361,13.31591,Döner Box,Hindenburgdamm 42,12203.0,Berlin,06300630
960892957,52.51474,13.47426,Curry Piraten,,,,02500729
963681283,52.48626,13.39424,Akimi Sushi & More,Friesenstraße 13,,,02200211
963681290,52.48837,13.39466,Call a Pizza,Arndtstraße 6,10965.0,Berlin,02200211
967109628,52.49674,13.35378,Schöneburger,Goltzstraße 24,10781.0,Berlin,07100102
971003155,52.48454,13.30158,Eisbärchen,,,,04400830
972319913,52.51105,13.41675,Döner Box,Köpenicker Straße 76,10179.0,Berlin,01100313
975312181,52.52267,13.40115,Mustafa Demirs Gemüsekebab,Neue Promenade 7,,,01100309
982716529,52.51360,13.47371,Thai-Snack,,,,02500832
987950846,52.54945,13.41468,Subway,Schönhauser Allee 78,10439.0,Berlin,03601243
990222340,52.48645,13.43085,Berlin Burger International,Pannierstraße 5,12047.0,Berlin,08100312
990855440,52.43597,13.34674,MC Curry,,,,06200313
992805876,52.43027,13.33383,Knorke,,,,06200314
992805900,52.43706,13.34484,Kings Döner,,,,06200313
992806032,52.43686,13.34495,Asia Imbiss,,,,06200313
992806038,52.43540,13.34392,Döneria,,12247.0,Berlin,06200313
994718562,52.50070,13.44216,Bagdad,,,,02300419
997194070,52.49049,13.42294,Imren Grill,Boppstraße 10,10967.0,Berlin,02200213
999294630,52.49094,13.36113,Burger Vision,Hauptstraße 163,10827.0,Berlin,07100206
999444297,52.52126,13.54792,Luisen-Stübchen,Luise-Zietz-Straße 82,12683.0,Berlin,10300731
1001470684,52.48813,13.35437,Habibi,Akazienstraße 9,10823.0,Berlin,07200409
1002586825,52.42771,13.32524,My Asia Küche,,,,06200421
1003097095,52.54007,13.41687,Falafel Daye,,,,03701555
1006711247,52.43542,13.31264,Döner Karwendel,,,,06300633
1016454158,52.51187,13.29689,XL Döner Sophie,Schloßstraße 27b,14059.0,Berlin,04300414
1018906439,52.49743,13.43120,NEM,,,,02300417
1026430998,52.55959,13.24149,Kiosk im Saatwinkel,,,,12200412
1029802248,52.43137,13.25931,Curry Station,Teltower Damm 35,14169.0,Berlin,06300526
1030066965,52.53462,13.49611,Burger King,Landsberger Allee 277,13055.0,Berlin,11200514
1030067036,52.53455,13.49592,Mehas Food Berlin,Landsberger Allee 277,13055.0,Berlin,11200514
1030067044,52.53497,13.49678,Long Food,Landsberger Allee 277,13055.0,Berlin,11200514
1032978524,52.53500,13.49704,Allee-Bistro,,,,11200514
1038558506,52.46979,13.10153,Asia-Schnell-Imbiss,,,,
1042253335,52.43705,13.26198,Borkowskis Curry & Chicken,,14169.0,,06400841
1043622404,52.41759,13.43793,Haydar Baba,,,,08200832
1048083141,52.57165,13.37971,Bistro Femo,Herbststraße 2,13409.0,Berlin,12100102
1051176851,52.41079,13.26194,Döner Eck MC,,,,06300525
1070828273,52.46339,13.32667,Schloss Döner,,,,06100103
1075296027,52.43572,13.25789,Liberty Pizza,Potsdamer Straße 3,14163.0,Berlin,06400839
1077596637,52.51308,13.45723,Dominos,Boxhagener Straße 109,10245.0,Berlin,02500830
1077664928,52.48208,13.43384,Imren,,,,08100314
1077664930,52.48263,13.43457,Bei Onkel,Fuldastraße 4,,,08100314
1077664943,52.48272,13.43423,Fulda Bistro,,,,08100314
1078727226,52.46167,13.32492,Pia Kebab,,,,06100103
1078763327,52.52380,13.34949,Monopol,Kirchstraße 23,10557.0,Berlin,01200626
1084349573,52.49818,13.40673,Hähnchenhaus,Gitschiner Straße 32,10969.0,Berlin,02100106
1086688230,52.39925,13.23841,Bistro im AVT Teltow,Oderstraße 57,14513.0,Teltow,
1093969650,52.50989,13.45586,doen doen Kebap,Kopernikusstraße 17,10245.0,Berlin,02500834
1094023488,52.50993,13.45554,Adam,Kopernikusstraße 16,10245.0,Berlin,02500834
1098859626,52.51288,13.61202,Vietnam Today,,,,10400938
1098859635,52.51383,13.61234,Thai Sushi,Hönower Straße 100,12623.0,Berlin,10400938
1104703139,52.37134,13.13394,Nordsee,Nuthestraße 1-10,14480.0,Potsdam,
1107961208,52.43568,13.26115,Civan’s Imbiss,Clayallee 352,14169.0,Berlin,06400841
1110370899,52.51049,13.39641,Döner Point,,,,01100207
1110999034,52.54157,13.42111,Maison Viet,Göhrener Straße 6,10437.0,Berlin,03601348
1112075595,52.55141,13.41363,Ilayda,,,,03601141
1112981300,52.52748,13.32958,Best Döner Kebap Berlin,Turmstraße 59,10551.0,Berlin,01200519
1115379855,52.52096,13.58831,Bistro Dream,,,,10200629
1115395091,52.52095,13.58761,MACs Kebap,Hellersdorfer Straße 77,12619.0,Berlin,10200629
1117791820,52.53869,13.42354,Nachtigall Imbiss,,,,03701555
1118909731,52.34920,13.10391,Pinar Bistro,Zum Springbruch 1a,14558.0,Nuthetal,
1133787143,52.52450,13.19759,Gyros Express,,,,05200631
1135819843,52.54863,13.20163,Spandau Sushi,Lynarstraße 20,13585.0,Berlin,05100314
1137579741,52.51772,13.30017,Perserwich,,,,04300414
1143684850,52.47686,13.43926,Döner 63,Karl-Marx-Straße 143,,,08100416
1147348112,52.53673,13.20369,Marktstube,Marktstraße 2,13597.0,Berlin,05100316
1152574702,52.52868,13.31868,Telepizza,Huttenstraße 22,10553.0,Berlin,01200517
1157486353,52.47832,13.43009,Burger Vision,Rollbergstraße 59,12053.0,Berlin,08100206
1158165853,52.52914,13.40154,Cô Cô bánh mì deli,Rosenthaler Straße 2,10119.0,Berlin,01100309
1163128999,52.58865,13.28855,Topals Döner Station,,,,12200515
1163282233,52.51306,13.29731,Manhattan Burger,Schloßstraße 39,14059.0,Berlin,04300414
1168923109,52.48944,13.39364,Orient Esspress,Zossener Straße 26,10961.0,Berlin,02200211
1170625374,52.46337,13.33880,Mevlana,Bismarckstraße 3,12157.0,Berlin,06100209
1171149516,52.49010,13.36120,Köyüm Imbiss,,,,07100206
1172030506,52.60720,13.42103,Furat Grillhaus,,,,03200310
1181625794,52.50351,13.44711,Urban Falafel,,10243.0,,02400625
1181625839,52.50384,13.44737,Bistro Istanbul,,,,02400625
1181625847,52.50286,13.44723,Scheers Schnitzel,Warschauer Platz 18,10245.0,Berlin,02500835
1190043009,52.45562,13.32211,Thai-China Wok,,,,06100102
1194597953,52.51812,13.30530,China Thai Imbiss,,,,04300619
1194782105,52.51203,13.29748,Lily Burger,,,,04300414
1195413138,52.40873,13.35617,Dominos,Zernickstraße 1,12279.0,Berlin,07601340
1196611970,52.42890,13.42086,Kiosk Heidehof,,,,08200729
1197396719,52.53379,13.19824,KFC,,,,05200629
1200964313,52.51040,13.28205,,Königin-Elisabeth-Straße 2,14059.0,Berlin,04200311
1200964352,52.51038,13.28407,Kaiser Bistro,Kaiserdamm 22,14057.0,Berlin,04200311
1205048327,52.49793,13.40504,,,,,02100106
1206287820,52.45590,13.35179,,,,,06100204
1212599367,52.54910,13.35391,Pizza La Rosa,,,,01400942
1212599380,52.49171,13.42321,Gel Gör,Kottbusser Damm 80,10967.0,Berlin,08100310
1216682472,52.54286,13.41458,Home Kitchen,,,,03601347
1228195011,52.51236,13.30488,Steinofen Pizza,Wilmersdorfer Straße 33,10585.0,Berlin,04300621
1228200532,52.51244,13.30486,Falafel,Wilmersdorfer Straße 32,10585.0,Berlin,04300621
1229176983,52.46673,13.43155,Balliy,,,,08100105
1230534875,52.49082,13.31317,Safran Grill,,,,04501043
1232192569,52.54718,13.35821,Burgermeister,Müllerstraße 28,13353.0,Berlin,01401048
1236581634,52.54977,13.35274,Ya Karim,,,,01400942
1247639900,52.49017,13.43390,Nusrit Kebap Gemüse Döner,Pannierstraße 40,12047.0,Berlin,08100310
1247659955,52.52838,13.46937,Asia Imbiss,Franz-Jacob-Straße 16-18,10369.0,Berlin,11300617
1247768921,52.45674,13.51007,Mundis.Döner,Brückenstraße 31,12439.0,Berlin,09200613
1248415763,52.55633,13.42946,Adar Kebap & Pizza,,13086.0,,03500934
1249080177,52.45360,13.50947,Final Bistro,,,,09100407
1255571641,52.53269,13.42945,Meraba Neuland Bistro,Greifswalder Straße 31,10405.0,Berlin,03701660
1255576136,52.53274,13.42951,Curry32,Greifswalder Straße 32,10405.0,Berlin,03701660
1258380854,52.51282,13.45111,Ha Noi Pho,Grünberger Straße 19,10243.0,Berlin,02400624
1258637537,52.52295,13.43431,Burgerhain,,,,02400521
1259381367,52.50089,13.49377,Bistro by Ossi,Lückstraße 46,10317.0,Berlin,11400929
1259381376,52.50081,13.49410,Pizzeria Toscana,Lückstraße 45,10317.0,Berlin,11400929
1259381390,52.50129,13.49333,New Asia,Weitlingstraße 117,10317.0,Berlin,11400929
1261931313,52.51563,13.43989,Bistro Istanbul,Straße der Pariser Kommune 31,10243.0,Berlin,02400623
1263253902,52.50530,13.32848,Saveur de Bánh Mì,Fasanenstraße 81,10623.0,Berlin,04300622
1264887588,52.49526,13.41970,Goldies Smashburger,Graefestraße 93,10967.0,,02200213
1279778584,52.58997,13.28510,Asia Wok,,,,12200515
1279778621,52.59023,13.28779,Orient Kitchen,,,,12200515
1279778649,52.59001,13.28574,Asia Box,,,,12200515
1279778670,52.58994,13.28768,Orient Kebap,,,,12200515
1279778708,52.58978,13.28777,Duc & Anh,,,,12200515
1281791180,52.57073,13.12336,Seepavillon,,,,
1282080437,52.50960,13.30601,Atom-Saftbar,Wilmersdorfer Straße 126,10627.0,Berlin,04300623
1282111606,52.50650,13.30207,Ali Döner,,,,04300416
1282889485,52.48699,13.42429,Enfes,,,,08100314
1296266006,52.49873,13.36271,Fadi,Potsdamer Straße 117/119,10783.0,Berlin,07100205
1296266105,52.49951,13.36335,Pizza Point,Kurfürstenstraße 152,10785.0,Berlin,07100205
1298565287,52.52318,13.45325,Noodle Box,,,,02500726
1300143981,52.49836,13.39205,Asia Snack,,,,02100102
1300684845,52.44276,13.24112,Dreamz,,,,06400839
1305276039,52.48644,13.42873,Risa Chicken,Sonnenallee 26,12047.0,Berlin,08100314
1306177280,52.48698,13.42710,Alzaeem,Sonnenallee 16,12047.0,Berlin,08100314
1306551393,52.50814,13.39935,Yousef,Axel-Springer-Straße 43,10969.0,Berlin,02100103
1306551399,52.50804,13.39442,Soup Kultur,Markgrafenstraße 22,10117.0,Berlin,01100207
1307115286,52.46850,13.43182,Emmi Oğlu,,,,08100208
1311121926,52.50665,13.31000,Mao Master,Kantstraße 50,10625.0,Berlin,04300623
1311121973,52.50118,13.29799,Vietnam Imbiss,,10711.0,Berlin,04500936
1314411426,52.47104,13.38507,Lodos Bistro,,,,07400720
1314875883,52.54201,13.39781,Pizza De Lux,,,,01300834
1321473171,52.49626,13.41948,Prisma Pavillon,Kohlfurter Straße 43,10999.0,Berlin,02100106
1323444936,52.53840,13.57511,Imbiss am Rosengarten,,,,10100316
1323737289,52.41074,13.66508,Safko Cafe Bistro No. 1,Gosener Damm 1,12559.0,Berlin,09401635
1331757339,52.44730,13.57625,Pizza Piccolo,Freiheit 2,,,09401534
1333810531,52.51748,13.30727,Lale,,,,04300619
1336668646,52.53742,13.20449,CityChicken,,,,05100316
1336702246,52.53694,13.20369,Lotus Asia-imbiss,,,,05100316
1336954931,52.53591,13.43430,Pizza Stop Burger,Danziger Straße 125,10407.0,Berlin,03601451
1339007395,52.50641,13.31445,By Ali,Kantstraße 38,10625.0,Berlin,04300624
1346939907,52.50985,13.42142,Wurstpate,Köpenicker Straße 58,10179.0,Berlin,01100313
1348720483,52.50176,13.43180,Pho 44,Eisenbahnstraße 44,10997.0,Berlin,02300315
1349331492,52.46621,13.38596,Balli Burger,Tempelhofer Damm 143,12099.0,Berlin,07400927
1349696698,52.52058,13.38841,Prime Kebap,,,,01100206
1357806626,52.43140,13.25940,Sumak,Teltower Damm 37,14169.0,Berlin,06300526
1362703565,52.46122,13.51998,Efes Imbiss,Wilhelminenhofstraße 38,12459.0,Berlin,09200511
1363511598,52.48871,13.40838,Thai-China Spezialitäten,,,,08100101
1365702007,52.54256,13.23910,Ital.-Snack,,,,05300737
1365702030,52.54299,13.24064,Asia Food,,,,05300737
1366539093,52.54317,13.24012,Flavio Faldon,Gartenfelder Straße 94,13599.0,Berlin,05300737
1366551995,52.54452,13.23812,Bistro alte Post,,,,05300737
1370129750,52.53893,13.25057,Subway,,,,05300840
1370691455,52.55340,13.34631,Yesil Firin,,,,01400938
1372267480,52.47952,13.44397,Mae Charoen,Sonnenallee 134,12059.0,Berlin,08100415
1372898384,52.51577,13.46790,Haroun,Rigaer Straße 42a,10247.0,Berlin,02500728
1379551622,52.50577,13.56153,by Sultans,,,,10300733
1385363625,52.55828,13.38632,American Burger,Prinzenallee 37,13359.0,Berlin,01300732
1385778406,52.55898,13.38587,Berfin Döner Kebap,,,,01300731
1385781556,52.54586,13.39045,Urban Kebab,Brunnenstraße 96,13355.0,Berlin,01300834
1387916692,52.51398,13.47553,Subway,Frankfurter Allee 113,10365.0,Berlin,02500729
1387922011,52.53327,13.15737,Cafe Palas,,,,05200420
1388365976,52.61441,13.46965,Karow Döner,,,,03300412
1389043782,52.52835,13.42538,Pink Pizza,Am Friedrichshain 33,10407.0,Berlin,03701660
1389048018,52.49974,13.43886,Tunas Gemüse Kebap,Wrangelstraße 42,10997.0,Berlin,02300419
1391580019,52.45747,13.32041,Thai-Nippon Sushi,Schloßstraße 33-36,12163.0,Berlin,06100102
1392330579,52.48810,13.34044,Döner Time,Bayerischer Platz 9,10779.0,Berlin,07200307
1402083398,52.53990,13.23173,Rodi,,,,05300736
1404437464,52.54706,13.20153,Kümes - Chicken,,,,05100315
1405821703,52.54751,13.20121,Toleranz Grillhaus,Schönwalder Straße 91,13585.0,Berlin,05100315
1406077001,52.54061,13.41252,Burgermeister,Schönhauser Allee 45,10435.0,Berlin,03701554
1412521419,52.55769,13.09177,Carpe Döner,,,,
1416202596,52.48143,13.43977,Şehzade,Erkstraße 13,12043.0,Berlin,08100415
1419134527,52.53692,13.26814,Köfte City,,,,05300841
1421243415,52.39757,13.53370,Fero´s Pizzeria,Schwalbenweg 7,12529.0,Schönefeld,
1422009815,52.50926,13.50440,OPA Bistro,,,,11400929
1424999185,52.49702,13.43242,La Bono,Wiener Straße 24,10999.0,Berlin,02300418
1428002429,52.52841,13.12930,Imbiss,,,,05200524
1432154268,52.44642,13.37198,Arslan Döner,Gersdorfstraße 42,12105.0,Berlin,07501029
1435425803,52.37135,13.13448,Prime Kebap,Stern-Center 1-10,14480.0,Potsdam,
1435425843,52.37138,13.13444,McDonalds,Stern-Center 1-10,14480.0,Potsdam,
1435426070,52.37141,13.13440,Subway,Stern-Center 1-10,14480.0,Potsdam,
1435426081,52.37144,13.13435,Ciao Bella,Stern-Center 1-10,14480.0,Potsdam,
1445299205,52.51447,13.55447,Asia & Sushi Bar,Oberfeldstraße 4,12683.0,Berlin,10300731
1447902615,52.52443,13.39240,Pizza Peppino,,,,01100309
1449538232,52.52424,13.38162,DT Kantine,Schumannstraße 13A,10117.0,Berlin,01100308
1450298576,52.55028,13.46242,Tao Dan,Lindenallee 58,13088.0,Berlin,03500936
1453876086,52.50717,13.51241,Tiger Asia-Euro Bistro,,,,11400931
1453995662,52.50524,13.39310,Charlotte I,Charlottenstraße 1,10969.0,Berlin,02100102
1459951029,52.55290,13.40565,Adak,,,,03601140
1464848001,52.46080,13.27410,Waldbaude am Grunewaldsee,Clayallee 91,14195.0,Berlin,06400842
1469403177,52.50818,13.45105,Smash Burger,Warschauer Straße 47,10243.0,Berlin,02500834
1471137918,52.53120,13.38200,Bistro Grillhaus,Chausseestraße 110,,,01100308
1471202665,52.55311,13.36203,Imbiss-Punjab;Punjab Spätkauf,Groninger Straße 28,13347.0,Berlin,01401049
1477769715,52.50787,13.51257,Bistro-Café Arena,,,,11400931
1478057350,52.66535,13.37858,Antalya Imbiss,Hauptstraße 25,16567.0,Mühlenbecker Land,
1482547508,52.46667,13.48865,NC Kebap,Baumschulenstraße 12,12437.0,Berlin,09100304
1485772728,52.48663,13.32603,Bistro Femo,,,,04501149
1485772735,52.48667,13.32363,Henne Frieda - Gemüse Döner,Berliner Straße 30-31,10715.0,,04501149
1489978774,52.53962,13.42409,Kebab Haus,Prenzlauer Allee 195,10405.0,Berlin,03601348
1490656635,52.56648,13.47400,grillbar,,,,03300517
1492173299,52.40110,13.26990,World of Pizza,,,,
1493309769,52.59440,13.43258,Buchholz City Kebap Haus,,,,03200309
1493309775,52.60715,13.43315,Familien Bistro,,,,03200310
1496523864,52.50342,13.33753,Schlemmer Pylon,,,,04501042
1504191021,52.46143,13.43513,Curry Paule,Britzer Damm 17,12347.0,Berlin,08200622
1504415250,52.53098,13.30086,Asia Good Choice,,,,04300518
1505820959,52.44326,13.43458,Burger King,Buckower Damm 11,12349.0,Berlin,08200727
1505820993,52.44346,13.43420,Loops Curry & Burger,Buckower Damm 7-9,,,08200727
1509249834,52.52554,13.30544,Medi-Tat,Mierendorffplatz 16,10589.0,Berlin,04300518
1519970093,52.48871,13.34320,My Grill,Grunewaldstraße 62-63,10825.0,Berlin,07200307
1520204193,52.43226,13.46044,Gyros Express,,,,08300934
1524958187,52.49192,13.52545,Imbissstand Asiate MC Mahir,,10318.0,Berlin,11501339
1525332786,52.49316,13.35380,Der Hot Dog Laden,Goltzstraße 15,10781.0,Berlin,07100204
1527932088,52.48423,13.42940,Toasted,Karl-Marx-Straße 33,12043.0,Berlin,08100314
1528702505,52.45888,13.52588,Altintop,Wilhelminenhofstraße 51,12459.0,Berlin,09200511
1535593194,52.43514,13.54105,Ibos Kebup,,,,09200715
1535709266,52.51172,13.61199,Mahlsdorfer Grillhaus,,,,10400939
1542195937,52.56985,13.49588,Macs Bistro,Ribnitzer Straße 24,13051.0,Berlin,11100308
1542549045,52.52191,13.41163,Snackexpress,,,,01100310
1543127135,52.57931,13.30142,KIMIKO SUSHI,,,,12200412
1557276154,52.47633,13.69986,Call a Pizza,,,,
1559841923,52.47261,13.68616,Schöneiche Kebab,,,,
1578857501,52.47876,13.42547,Rollberge Pizzeria,Hermannstraße 46,12049.0,,08100102
1578857505,52.47965,13.42520,Harran Kebaphaus,,,,08100102
1578857513,52.48096,13.42534,Ali Efendi Gemüse Kebab,,,,08100206
1578857516,52.47860,13.42607,Kaplan,Hermannstraße 214-216,12049.0,Berlin,08100206
1581563473,52.48631,13.43018,Star,,,,08100311
1583884357,52.49974,13.41780,Tadim,,,,02300314
1588354830,52.53465,13.55121,Pizza Max,Allee der Kosmonauten 151,12685.0,Berlin,10100314
1597894101,52.49086,13.42143,imren,,,,02200213
1601806288,52.48924,13.39331,Grande Gyros,Bergmannstraße 88,10961.0,Berlin,02200211
1601806398,52.49130,13.39408,Sesam,,,,02200211
1602162090,52.52798,13.41003,Kiez Falafel,Rosa-Luxemburg-Straße 49,10178.0,Berlin,01100310
1603571265,52.54022,13.40581,Juicery Berlin,Oderberger Straße 28,10435.0,Berlin,03701554
1614148727,52.50340,13.37965,Italia 90,Schöneberger Straße 8,10963.0,Berlin,02100101
1639373812,52.58715,13.33439,Bistro am Nordgraben,Am Nordgraben 14,13437.0,Berlin,12500930
1640616148,52.59505,13.33281,Wittenauer Grillhaus,,,,12500926
1641113914,52.45627,13.51138,Mundis Chicken,Spreestraße 1,12439.0,Berlin,09200613
1642126638,52.53699,13.42245,Food home,Prenzlauer Allee 207,10405.0,Berlin,03701555
1648232618,52.48398,13.42907,Chicken Haus Burger,,,,08100206
1649134392,52.52329,13.40390,Esra Falafel,Dircksenstraße 51,10178.0,Berlin,01100309
1651902720,52.49862,13.38290,Döner 49,,,,02200208
1653339086,52.51726,13.40800,Tigertörtchen Berlin Cupcakes,,,,01100310
1658785283,52.49370,13.31039,City Imbiss,,,,04501043
1659325646,52.54760,13.35748,Risa Chicken,Müllerstraße 30,13353.0,Berlin,01401048
1659884036,52.54835,13.36002,Nazar Grillhaus,Nazarethkirchstraße 48,,,01401048
1663350362,52.51035,13.45203,Bistro Café 64,Warschauer Straße 64,10243.0,Berlin,02500834
1663350366,52.51053,13.45211,Café Avci,Warschauer Straße 64,10243.0,Berlin,02500834
1665158255,52.51863,13.38892,Dussmann Deli,,,,01100206
1666024123,52.54434,13.37862,Akcan Döner,,,,01300836
1667160190,52.46320,13.48383,Kurt Kebap,,,,09100304
1681243906,52.46739,13.34196,Sairan,,12157.0,Berlin,07300619
1687718440,52.51063,13.49857,Centies,,,,11300826
1689342534,52.56967,13.56731,Mauritius Grill,Havemannstraße 6A,12689.0,Berlin,10100103
1689345948,52.56992,13.56649,Lailas Burgerhaus & Cocktailbar,Havemannstraße 4A,12689.0,Berlin,10100103
1692582542,52.45714,13.57835,Döner Box Köpenick,,,,09501939
1692582557,52.45715,13.57782,Zur Currywurst,,,,09501939
1693456691,52.42128,13.50322,PAM Pizza and More Lieferservice,Köpenicker Straße 130,12355.0,Berlin,08401243
1699353571,52.54152,13.34994,Hala Teigwaren,,,,01401046
1699353573,52.54169,13.34954,My Döner,Föhrer Straße 13,,,01401046
1701488027,52.47737,13.42352,Nkln Zoo,Herrfurthstraße 7,12049.0,Berlin,08100102
1706140456,52.49298,13.46070,Asia Cucina,,,,09100101
1710025846,52.50473,13.49554,Domino’s,Weitlingstraße 71,10317.0,Berlin,11400929
1714250762,52.48489,13.43409,City Chicken,,,,08100312
1714847991,52.61922,13.30483,Heinse Kebap,,13467.0,,12400722
1719799745,52.42655,13.39396,Goltz Kebap,Mariendorfer Damm 29a,12107.0,Berlin,07501133
1721061536,52.43055,13.19514,Call a Pizza,,,,06400737
1724401409,52.53381,13.43672,Max & Moritz,Bötzowstraße 51,10407.0,Berlin,03701660
1725056493,52.47344,13.48870,Giovanni,Neue Krugallee 148,12437.0,Berlin,09100305
1725272310,52.54918,13.41406,Burger King,Schönhauser Allee 75,10439.0,Berlin,03601346
1731192795,52.52403,13.33029,Mahlzeit,Alt-Moabit 51,10555.0,Berlin,01200521
1733865022,52.53338,13.42039,Linh-Thai-Snack,Prenzlauer Allee 225,10405.0,,03701556
1736160650,52.43227,13.31091,Dominos,Hindenburgdamm 3,12203.0,Berlin,06300630
1737241352,52.57142,13.56810,King Kebap-Haus,,,,10100102
1743741219,52.50626,13.28334,TEOS Kebap,,,,04300415
1746680497,52.50349,13.34619,Telepizza,Keithstraße 18-20,10787.0,Berlin,07100101
1751753371,52.51026,13.45936,Burgeramt,,,,02500833
1753810056,52.52096,13.32215,Anatolische Küche,,10587.0,Berlin,04300620
1754690705,52.50954,13.37368,Dunkin,Potsdamer Straße 2,10785.0,Berlin,01100102
1757578454,52.52540,13.68180,Thuy´s Asia Imbiss,,,,
1764332711,52.53177,13.34256,Doy Doy,Birkenstraße 49,10551.0,Berlin,01200520
1765786432,52.58471,13.28601,Subway,Am Borsigturm 2,13507.0,Berlin,12200515
1766708461,52.55440,13.42398,Freddy Fresh,Neumannstraße 3c,13189.0,Berlin,03400828
1769040670,52.53770,13.40853,Forn Simsim,Kastanienallee 24,10435.0,Berlin,03701554
1771309892,52.52364,13.37981,Dominos,Schumannstraße 19,10117.0,Berlin,01100308
1771511978,52.49866,13.40658,Prinzeneck,,,,02100105
1773068685,52.53009,13.40076,Rosen Burger,Brunnenstraße 196,10119.0,Berlin,01100415
1773167215,52.55389,13.44569,Dominos,Pistoriusstraße 41,13086.0,Berlin,03500933
1779212037,52.49964,13.50734,Bistro Tuana,,,,11401136
1779216466,52.46708,13.43131,Nur Gemüse Döner,,,,08100105
1779977627,52.52449,13.35120,Otti Grill,,,,01200626
1789804843,52.48360,13.44020,Beef Fabrik,Weserstraße 52,12045.0,Berlin,08100312
1791398677,52.45425,13.57792,Dominos,Puchanstraße 22,12555.0,Berlin,09501939
1792828519,52.53579,13.47332,Emo Bistro,,,,11300616
1794264397,52.36249,13.18974,,,,,
1800831075,52.49692,13.35436,Döner & Köfte,,10781.0,Berlin,07100102
1804191018,52.53857,13.39642,Subway,Brunnenstraße 53,13355.0,Berlin,01300834
1804564000,52.50609,13.39398,Diner67,Markgrafenstraße 67,10969.0,Berlin,02100102
1812573160,52.52255,13.40070,La Focaccia,Neue Promenade 9,10178.0,Berlin,01100309
1814087029,52.50461,13.39066,Eck Imbiss,,,,02100102
1816004561,52.52228,13.40835,Berlin Currys,Karl-Liebknecht-Straße 13,10178.0,Berlin,01100310
1819093417,52.55387,13.19860,Auto-Imbiss,,,,05100312
1819309505,52.51037,13.27121,Prime Chicken,,14052.0,Berlin,04200310
1819471633,52.52497,13.40683,Mishba,Münzstraße 24,10178.0,Berlin,01100310
1827049049,52.50317,13.31292,OverSlize,Mommsenstraße 60,10629.0,Berlin,04501040
1831473808,52.49823,13.43034,Café Quitte,,10999.0,,02300417
1831473809,52.49829,13.43015,Wiener 63,Wiener Straße 63,10999.0,Berlin,02300417
1831823651,52.50610,13.33327,Dürümcü Baba,,,,04501042
1835093039,52.44536,13.29340,Baba,,,,06300629
1835196334,52.45374,13.31583,Tasty Döner 63,,,,06100101
1842628496,52.57833,13.24421,Strandbad Tegelsee,,,,12400619
1852561674,52.49683,13.29239,Panda Meister,Westfälische Straße 46,10711.0,Berlin,04500938
1855550910,52.43848,13.54903,Asia Imbiss,Dörpfeldstraße 50,12489.0,Berlin,09200717
1860405863,52.52357,13.39896,dean&david,Oranienburger Straße 82,10178.0,Berlin,01100309
1866365541,52.52542,13.34135,Metrom Bistro,Alt-Moabit 86,10555.0,Berlin,01200522
1866365556,52.52532,13.34216,China Pfanne - Xin Hui City,Alt-Moabit 86b,10555.0,Berlin,01200522
1869640506,52.57446,13.50871,,,,,11100206
1872071854,52.37038,13.52701,Burger King,Elly-Beinhorn-Ring 2 a,12529.0,Schönefeld,
1874069647,52.51224,13.38404,Call a Pizza,Anton-Wilhelm-Amo-Straße 67,10117.0,Berlin,01100205
1877438853,52.57305,13.50449,Drachen Bistro,Egon-Erwin-Kisch-Straße 30,13059.0,Berlin,11100206
1882549125,52.50233,13.33095,Salomon Bagels,Joachimsthaler Straße 14,10719.0,Berlin,04501042
1884324710,52.40587,13.23460,Macs Döner,Zehlendorfer Damm 121,14532.0,Kleinmachnow,
1894741521,52.53535,13.42323,MarienBurgerie,Marienburger Straße 47,10405.0,Berlin,03701658
1900586051,52.51247,13.48906,Asia Foot Anh Minh,,,,11300724
1901127945,52.36639,13.10104,Call a Pizza,Drewitzer Straße 39,14478.0,Potsdam,
1905963687,52.49766,13.32460,Kebup,,,,04501045
1905963710,52.49589,13.32426,Ohsake,,,,04501045
1905985101,52.51030,13.45468,Zap,Kopernikusstraße 22,10245.0,Berlin,02500833
1905986828,52.51043,13.45670,Furat,Simon-Dach-Straße 37,10245.0,Berlin,02500833
1906524917,52.46617,13.44865,Hauptstadt-Curry,,,,08100521
1907577297,52.48555,13.43126,,,12045.0,Berlin,08100314
1907577305,52.48536,13.43180,El-Daia Snack,,12045.0,Berlin,08100314
1908183924,52.50112,13.44245,Burgermeister,Oberbaumstraße 8,10997.0,Berlin,02300316
1912164191,52.48045,13.42470,Libanon Falafel,Flughafenstraße 66,12049.0,Berlin,08100102
1912649783,52.43351,13.53472,Asia Imbiss,,,,09200715
1914403857,52.49528,13.32776,Call a Pizza,Hohenzollerndamm 7,10717.0,Berlin,04501045
1915397137,52.51657,13.30842,Mustis Gemüse Döner,,10585.0,Berlin,04300621
1925850423,52.50536,13.44936,KEBmeUP,,,,02500835
1940602101,52.50846,13.45235,Heavens,Revaler Straße 8,10245.0,Berlin,02500834
1944887345,52.37703,13.12925,King Sigi Döner,,,,
1944887347,52.37753,13.12960,World of Pizza,,,,
1948103190,52.51828,13.28706,Öz Kebap,Sophie-Charlotten-Straße 104,14059.0,Berlin,04300413
1952910833,52.52040,13.40384,Kümes Chickenhouse,,,,01100310
1955745206,52.47749,13.42454,Sahara Imbiss,Herrfurthstraße 5,12049.0,Berlin,08100102
1960008621,52.52554,13.30747,Öz Kebaphaus,Kaiserin-Augusta-Allee 84,10589.0,Berlin,04300518
1962378934,52.51673,13.38019,Dunkin,Unter den Linden 78,10117.0,Berlin,01100206
1962661756,52.49677,13.43120,Nachtigall,Ohlauer Straße 10,10999.0,Berlin,02300417
1964705737,52.64042,13.24351,Agip Service Station,,,,
1964964494,52.46691,13.34396,GUT_SEL GRILL,,,,07300619
1965270888,52.48520,13.42726,Pizza Prima,,,,08100314
1969716098,52.39628,13.23708,Curry-Imbiss,,,,
1972340658,52.51318,13.48219,Castello Bistro,,,,11300722
1978515941,52.48513,13.38503,Zazas Pizza,,,,02200209
1982924047,52.51686,13.47954,Pizza Bistro,,,,11300722
1983576259,52.53319,13.41315,Ziervogels Kult-Curry,Schönhauser Allee 20,10435.0,Berlin,03701556
1988054523,52.55522,13.34404,Angecoli Grillhaus,Müllerstraße 60,13349.0,Berlin,01400939
1989484826,52.55637,13.37363,Harika Döner,Osloer Straße 84,13359.0,Berlin,01401045
1995023445,52.37197,13.52634,Lufthansa Imbiss,,,,
1998720225,52.53977,13.41122,Burger Fabrik,Kastanienallee 102,10435.0,Berlin,03701554
2013009692,52.49501,13.42110,Bal Köfteci,,,,08100310
2020059473,52.52276,13.40841,Ali Baba Bistro,,,,01100310
2029248693,52.42802,13.46806,Lipschitzgrill,,,,08300934
2029254010,52.42979,13.47813,My Life,Neuköllner Straße 205,12357.0,Berlin,08401241
2029768655,52.50678,13.30790,Superhahn,,,,04300623
2031964340,52.48124,13.34729,Arian Pizzeria,Hauptstraße 54,10827.0,Berlin,07200308
2048758831,52.39630,13.24109,Thai-Nippon-Sushi-Bar,,,,
2054449369,52.51518,13.58296,Ayy Kebap,,,,10200629
2057504112,52.52025,13.38807,Biers S Friedrichstraße,Friedrichstraße 142,10117.0,Berlin,01100206
2073820376,52.52301,13.41193,döner Inn,,,,01100310
2073820426,52.52313,13.41199,Coffeeshop Inn,,,,01100310
2088402742,52.50198,13.34314,Nollen Asia Imbiss,,,,07100101
2091658201,52.52734,13.32753,Al-Sultan Grill,Huttenstraße 70,10553.0,Berlin,01200518
2091658202,52.52738,13.32717,El-Reda,Huttenstraße 69-70,10553.0,Berlin,01200518
2093536186,52.38688,13.40032,Döner XL,Bahnhofstraße 23,12305.0,Berlin,07601544
2098246712,52.45083,13.33852,Kebap House,,12169.0,Berlin,06100205
2104832785,52.56466,13.50476,Linden Grillhaus,Prerower Platz 12,13051.0,Berlin,11100307
2110729365,52.46479,13.32773,La pizza di Russillo,Walther-Schreiber-Platz 1,12161.0,Berlin,07300516
2134271557,52.42091,13.75351,Antalya Grill,,,,
2135472383,52.54233,13.59206,Mc Döner,Alte Hellersdorfer Straße 102,12629.0,Berlin,10200418
2137976346,52.42359,13.75240,Kebab Salon,,,,
2138380286,52.52558,13.52048,Mein Döner,,,,10100311
2141487870,52.49162,13.37804,Madona,,,,02200209
2143425571,52.49042,13.40158,Hummus & Baba Ghanoush,Gneisenaustraße 69,10961.0,Berlin,02200210
2146656152,52.56655,13.39624,Yoko Sushi,Wollankstraße 13,13187.0,Berlin,03400721
2156980990,52.47784,13.19655,,,,,04200207
2159077410,52.39181,13.09472,Lindenburger,Rudolf-Breitscheid-Straße 47/48,14482.0,Potsdam,
2165687307,52.47734,13.42325,Pazzi X Pizza,Herrfurthstraße 8,12049.0,Berlin,08100102
2169668828,52.35855,13.68031,Thieles Bräuelbude,Kiefernweg 1,15713.0,Königs Wusterhausen,
2173412443,52.50918,13.45151,Burger Vision,Warschauer Straße 57,10243.0,Berlin,02500834
2177563746,52.42466,13.75723,Pizza Planet,Rudolf-Breitscheid-Straße 11,15537.0,Erkner,
2181178563,52.50693,13.39220,La Gino,Rudi-Dutschke-Straße 28,10969.0,,02100102
2181178800,52.50689,13.39526,pepe,,,,02100102
2182534894,52.52099,13.41174,F!sh&Ch!ps,,,,01100310
2182534895,52.52094,13.41183,Pergamon,,,,01100310
2198204070,52.52732,13.32770,City Chicken 1,Huttenstraße 71,10553.0,Berlin,01200518
2212970826,52.47032,13.42948,Star Gemüsekebap,Warthestraße 1,12051.0,Berlin,08100104
2215069778,52.47046,13.42938,Star Pizza,,,,08100104
2218590013,52.47486,13.32811,Asia Lee,Bundesallee 71,12161.0,Berlin,07300515
2231321435,52.52451,13.36813,Grillstand HBF,,,,01200628
2234844504,52.41660,13.49725,King Chicken,,,,08401243
2259025210,52.55188,13.38287,Akko,Badstraße 21,13357.0,Berlin,01300733
2260323123,52.53424,13.43787,Thai Son,Danziger Straße 153,10407.0,Berlin,03601451
2266143086,52.48624,13.32153,Max & Moritz,Berliner Straße 132,10715.0,Berlin,04501150
2266143112,52.48624,13.32139,Sushi & Bowl,Berliner Straße 132,10715.0,Berlin,04501150
2266143240,52.48684,13.32225,Uhland Bistro,Uhlandstraße 94,,,04501147
2273485059,52.57434,13.50961,Bistro Jade,Rostocker Straße 15,13059.0,Berlin,11100206
2274239245,52.56866,13.51583,FalkenBistro,,,,11100205
2277225437,52.65946,13.53301,Döner 20,Schönower Straße 105,16341.0,Panketal,
2281112714,52.52152,13.32385,Viet Station,Helmholtzstraße 33,10587.0,Berlin,04300620
2286636361,52.55005,13.38607,Eurogida Grill,Badstraße 9,13357.0,Berlin,01300733
2288127747,52.52403,13.35197,Smile,Alt-Moabit 112,10559.0,Berlin,01200626
2294133088,52.52429,13.34991,Call a Pizza,Alt-Moabit 108,10559.0,Berlin,01200626
2295684074,52.51866,13.45407,Kiezküche,,,,02500727
2300342118,52.51122,13.43510,Asanka bei Joe,,10243.0,Berlin,02400623
2301610476,52.55022,13.36485,Inegöl Köftecisi,,,,01401049
2301610477,52.55174,13.36686,Kral Döner,,,,01401049
2301610480,52.55183,13.36682,Burgerstraße,,,,01401049
2302013306,52.51154,13.43434,Der Neue Genuss,,10243.0,Berlin,02400623
2308524457,52.54729,13.35799,Albaik,,,,01401048
2309314685,52.44858,13.38490,Hühner-Grill,,12109.0,Berlin,07501030
2313631480,52.53265,13.32608,Wok Man,,,,01200517
2321389955,52.51132,13.43491,Ossi Chicken Kebab,,10243.0,Berlin,02400623
2322311244,52.51136,13.43478,Asia Imbiss,,10243.0,Berlin,02400623
2322990527,52.51981,13.61680,Domino’s,,12623.0,Berlin,10400938
2325904327,52.49949,13.30171,Hühnerwald,Lehniner Platz 2,10709.0,Berlin,04500937
2335071994,52.51216,13.45360,Salsabil,Grünberger Straße 38,10245.0,Berlin,02500833
2335103333,52.49504,13.42046,International Döner,,,,02200213
2335257205,52.51162,13.45844,Hot Dog Soup,Grünberger Straße 69,10245.0,Berlin,02500833
2336898159,52.50557,13.32342,Simela Pizza,Kantstraße 146,10623.0,Berlin,04300624
2338524282,52.46140,13.54840,Café Zauberbaum,,,,09200512
2339246308,52.48191,13.32014,Chicken & Burger Home,Blissestraße 38,10713.0,Berlin,04501148
2344299870,52.47422,13.37754,Pizza Jack,,,,07400720
2352273139,52.56528,13.40563,Al Letany Insel,Florastraße 34a,13187.0,Berlin,03400721
2356047930,52.66576,13.49116,,,,,
2367016289,52.39244,13.09193,SuBBa,,,,
2367511035,52.39601,13.10669,Dilwala,Goethestraße 49,14482.0,Potsdam,
2418702361,52.54186,13.48870,Sushi For You,Konrad-Wolf-Straße 100,13055.0,Berlin,11200513
2420056943,52.50658,13.29455,M&A Kebap,,14057.0,Berlin,04300416
2422049347,52.58362,13.30074,Asia-GP,,,,12500825
2424339299,52.44250,13.58175,Call a Pizza,,,,09401534
2425261126,52.53424,13.55134,Sushi For You,Allee der Kosmonauten 151c,12685.0,Berlin,10100314
2429162153,52.56910,13.32945,Trattoria Porta Via,,,,12200309
2439759130,52.51007,13.27295,VietFood – Asia Street Food,,,,04200310
2444783807,52.54855,13.50567,Eleganz Bistro,,,,11200411
2444783812,52.54403,13.49276,Call a Pizza,,,,11200513
2445454965,52.48437,13.31992,Pho 2T,,,,04501146
2445456643,52.48684,13.32027,Istanbul Grill,Brandenburgische Straße 1,10713.0,Berlin,04501147
2446742873,52.54589,13.16815,,,,,05100208
2451561461,52.46838,13.30397,Cafeteria,,,,04400832
2456197520,52.41710,13.72500,Imbiss Sturzbecher,,,,09501838
2462167030,52.45548,13.38465,Subway,,,,07400927
2465493517,52.49964,13.49663,Street Food King,,,,11400928
2465494570,52.49963,13.49717,Sushi,,,,11400928
2466173936,52.50620,13.29967,WindBurger,Windscheidstraße 26,10627.0,Berlin,04300416
2467510808,52.54185,13.41258,El Rief,Schönhauser Allee 46a,10437.0,Berlin,03601346
2470183077,52.52630,13.33821,Humbaba,Turmstraße 85,10551.0,Berlin,01200521
2470183078,52.52639,13.33733,Grillhähnchen,,,,01200521
2471080117,52.49342,13.37051,König Food,,,,02200207
2471369274,52.53697,13.60765,Grill-Station,,,,10200524
2471370899,52.53843,13.60380,Corner Snack,,,,10200421
2471833973,52.47037,13.42995,Melita,,,,08100208
2476268049,52.47884,13.32948,Asia Annam,Wexstraße 31,10715.0,Berlin,04501153
2479053633,52.50152,13.32149,Caponcello,,,,04501041
2482984706,52.54469,13.36070,Asia Food,Triftstraße 3,13353.0,Berlin,01401047
2482984707,52.54442,13.35984,Falafel Al Amin,Triftstraße 6,13353.0,,01401047
2484347011,52.48602,13.43098,Sultan Zwei,,,,08100312
2484584670,52.48779,13.42598,Gemüse Döner Kebab,,,,08100311
2485478390,52.52977,13.40066,City Chicken,Torstraße 125,10119.0,Berlin,01100415
2495554585,52.48916,13.39242,Piccola Romantica,,,,02200211
2496651185,52.49253,13.38795,Burgermeister,Mehringdamm 39,10961.0,Berlin,02200211
2496651203,52.49068,13.38714,Al-Arz,Mehringdamm 63,10961.0,Berlin,02200211
2496751906,52.48955,13.39163,Sahara Imbiss,Bergmannstraße 94,10961.0,Berlin,02200211
2496828426,52.48932,13.39331,Balli by Bergmann,,,,02200211
2498835759,52.50693,13.30315,City Pizza,Kantstraße 66a,10627.0,Berlin,04300623
2498835760,52.50692,13.30465,Hand in Hand,,,,04300623
2503678437,52.48045,13.42091,Almanara Imbiss,,,,08100101
2505407351,52.52694,13.33120,Baba Sultan Köfteci,,,,01200521
2505407352,52.52621,13.33514,Song Tra 79,Ottostraße 19,10555.0,Berlin,01200521
2512668677,52.52353,13.40017,Esra,Oranienburger Straße 87,10178.0,Berlin,01100309
2517342788,52.53614,13.41950,Salsabil,,,,03701556
2517569523,52.58076,13.40199,Hatoki,,,,03200206
2532898366,52.50577,13.30560,Fadis,Stuttgarter Platz 3,10627.0,Berlin,04300623
2532898414,52.50655,13.30624,McDonalds,Kantstraße 111a,10627.0,Berlin,04300623
2532898487,52.50659,13.30487,Munchies,Kantstraße 107,10627.0,Berlin,04300623
2532898507,52.50766,13.30615,Dunkin,Wilmersdorfer Straße 57,10627.0,Berlin,04300623
2534135242,52.50690,13.62083,Curry Schmiede,,,,10400939
2538629394,52.54195,13.44060,Asia Box,,,,03601449
2541787236,52.46001,13.38441,YE-MC,Tempelhofer Damm 188,12099.0,Berlin,07400824
2558589471,52.52398,13.41668,Wandel,Bernhard-Weiß-Straße 6,10178.0,Berlin,01100310
2566216062,52.45741,13.57861,City Grill,,12555.0,Berlin,09501939
2569978773,52.45850,13.57828,Eat me,,,,09501939
2581174616,52.46979,13.42975,Altayeb Grillhaus,Hermannstraße 98,12051.0,Berlin,08100104
2608218206,52.49591,13.39683,Pizza nuno,Blücherstraße 66a,10961.0,Berlin,02200210
2613801952,52.56092,13.42888,McDonalds,Prenzlauer Promenade 45,13089.0,Berlin,03300516
2616118718,52.44456,13.58580,Pizza Planet,Wendenschloßstraße 41,12559.0,Berlin,09401431
2618488931,52.44306,13.50334,Macs Bistro,,,,09100408
2627351292,52.48087,13.35003,Döner Zade,Dominicusstraße 42,10827.0,Berlin,07200308
2638723694,52.50400,13.36150,Bistro am Magdeburger Platz,,,,01100103
2641521425,52.50004,13.42418,Da Dante,Oranienstraße 10,10997.0,Berlin,02300315
2641521429,52.49946,13.42808,Falafel in Berlin,,,,02300315
2642056469,52.42315,13.47554,Lara Döner,,,,08301037
2645490952,52.46946,13.43761,Tropical Imbiss,Emser Straße 15,12051.0,Berlin,08100208
2647303479,52.52625,13.45126,5 Big 5 - Buger & More,Ebertystraße 6,10249.0,Berlin,02500726
2659342715,52.42911,13.45655,Thai-Nippon-Bar,,,,08300934
2674384504,52.44784,13.38560,Chicken House,,,,07501031
2687685191,52.52984,13.40080,Rosenthaler Grill und Schlemmerbuffet,Torstraße 125,10119.0,Berlin,01100415
2694816788,52.48024,13.42289,Sushi Mana,Weisestraße 2,12049.0,Berlin,08100102
2706852525,52.50641,13.47527,Schlemmerbuffet,Schreiberhauer Straße 10,10317.0,Berlin,11400927
2707786973,52.36461,13.09359,Asia Food,,,,
2708288551,52.36527,13.09334,Kings Snack,Am Moosfenn 1,14478.0,Potsdam,
2713659411,52.51252,13.30528,Bat Viet,Wilmersdorfer Straße 142,10585.0,Berlin,04300621
2728928660,52.63096,13.73107,Snow Döner,Berliner Allee 21,16356.0,Werneuchen,
2736043853,52.53970,13.37113,Della Pizza,Müllerstraße 3a,13353.0,Berlin,01300836
2737042889,52.53050,13.31614,Mr Singh Pizzas,Sickingenstraße 56,10553.0,Berlin,01200517
2738302938,52.38955,13.09222,Yoko Sushi,Großbeerenstraße 16,14482.0,Potsdam,
2756088407,52.43596,13.43463,Yumi Yumi,,,,08200729
2757841791,52.51740,13.75070,Çeto Döner,,15370.0,Fredersdorf-Vogelsdorf,
2757852888,52.50346,13.74696,,,,,
2760939934,52.51246,13.58888,Asia Imbiss,,,,10400835
2763478482,52.52861,13.47077,deli am Markt,Anton-Saefkow-Platz 8,10369.0,Berlin,11300617
2766653892,52.51294,13.57441,Wuhle-Café-Box,,12683.0,Berlin,10200629
2769035729,52.47933,13.42578,Pizza Pause,Hermannstraße 220,12049.0,,08100206
2788669422,52.42680,13.63004,Bistro Rübezahl,Müggelheimer Damm 143,12559.0,Berlin,09401329
2796742918,52.52531,13.40363,Viet Village,,,,01100309
2796753232,52.52371,13.40071,Curry 61,Oranienburger Straße 6,10178.0,Berlin,01100309
2801187844,52.49780,13.31976,SushiParis,,,,04501044
2803268049,52.49881,13.31503,"Sushi, TO GO & more",,,,04501043
2803320966,52.49888,13.42664,Cafe Maschari,,,,02300417
2824980358,52.51439,13.46563,YeBo Restaurant Grill,Frankfurter Allee 58,10247.0,Berlin,02500831
2825774573,52.57617,13.29529,Döner Eck,,,,12200412
2831137574,52.52686,13.40771,Shiso Burger,Alte Schönhauser Straße 13,10119.0,Berlin,01100309
2836987701,52.45664,13.62515,Bölsche Imbiss,Bölschestraße 72,12587.0,Berlin,09501737
2836988901,52.45644,13.62511,Thüringer Ritter Rostbratwurst,Bölschestraße 72,12587.0,Berlin,09501737
2840615699,52.50035,13.41884,Nefis Gemüse Kebap,Adalbertstraße 6,10999.0,Berlin,02300314
2841527495,52.46525,13.38535,Pizza,,,,07400824
2853629560,52.44330,13.56903,Schlossburger,Grünauer Straße 12,12557.0,Berlin,09200819
2856196172,52.49990,13.44071,The Mood Burger,Oppelner Straße 4-5,10997.0,Berlin,02300419
2866292467,52.54909,13.17809,Prime Kebap,Westerwaldstraße 1A,13589.0,Berlin,05100209
2866294410,52.56086,13.17168,Bötzow-Baude,Radelandstraße 131,13589.0,Berlin,05100206
2870301201,52.51200,13.43486,Tolle Knolle Imbiss,,,,02400623
2879829145,52.55352,13.20764,Snacky 64,Neuendorfer Straße 64,13585.0,Berlin,05100313
2886226713,52.48624,13.44684,Grillhaus,Harzer Straße 95,12059.0,Berlin,08100419
2886854344,52.56840,13.42833,Burger King,Prenzlauer Promenade 69,13089.0,Berlin,03300516
2896332940,52.51281,13.24394,Wurstmax,,14053.0,Berlin,04200205
2906208894,52.42372,13.39641,MMC Pizza & Pasta,,12107.0,Berlin,07501134
2914006130,52.39516,13.28156,Dönertreff,,14513.0,Teltow,
2926167810,52.48639,13.42468,Dunkin,Karl-Marx-Straße 1,12043.0,Berlin,08100314
2926167819,52.48565,13.42631,steelshark Sushi Bar,,,,08100314
2927036223,52.55172,13.45356,Bäckspace Pizza,Pistoriusstraße 16,13086.0,Berlin,03500933
2935337186,52.47206,13.33554,63 Gemüse Kebab,,,,07300517
2935390902,52.48481,13.43770,Sindbad Speisen&Café,Weserstraße 42,12045.0,Berlin,08100312
2935543802,52.49944,13.41851,Burgermeister,Skalitzer Straße 136,10999.0,Berlin,02100105
2952704353,52.39276,13.28933,Efe Grill,,,,
2953557791,52.56412,13.36445,Italienische Snacks,Residenzstraße 109,13409.0,Berlin,12100101
2953781333,52.56542,13.36313,Döner by Cinar,,,,12100204
2958311086,52.50457,13.46840,Bros Döner Kepab,Neue Bahnhofstraße 36,,,02500834
2971089687,52.48997,13.45566,take a way,Elsenstraße 108,12435.0,Berlin,09100101
2974834528,52.56022,13.12896,MEGA BISTRO,,,,
2979195164,52.50510,13.56139,Vuong Asia Bistro,,,,10300734
3013553354,52.50066,13.28399,Ditsch,,,,04300415
3013553355,52.50095,13.28408,Imbiss,,,,04300415
3017758067,52.55107,13.35045,Imren Grill,Müllerstraße 134,13349.0,Berlin,01400938
3029571479,52.55854,13.09047,Pizza Panda,,,,
3030997423,52.46411,13.40044,Stern Pizza,Germaniastraße 134,12099.0,Berlin,07400927
3034472768,52.52279,13.46274,Subway,Zur Rinderauktionshalle 1,10247.0,Berlin,03601453
3036728566,52.36528,13.31435,Tuan Duc,Berliner Straße 107a,14979.0,Großbeeren,
3036860655,52.49137,13.41397,Lias Kitchen,Urbanstraße 32,10967.0,Berlin,02200212
3039050402,52.54828,13.45182,Anton Grill,Berliner Allee 40,13088.0,Berlin,03500936
3041229339,52.52264,13.43466,Döner - Frieden Kebaphaus,,,,02400521
3042466050,52.50384,13.32990,dean&david,Kurfürstendamm 21,10719.0,Berlin,04501042
3045334454,52.52078,13.40423,Cloud Eatery Food Hall,Spandauer Straße 2,10178.0,Berlin,01100310
3045364462,52.54529,13.55125,Asia Snack,Marzahner Promenade 31E,12679.0,Berlin,10100210
3045761941,52.57435,13.50936,Alanya Bistro,Rostocker Straße 15,13059.0,Berlin,11100206
3046444264,52.48274,13.43427,Kumpir,Fuldastraße 58,12043.0,Berlin,08100314
3056477844,52.50681,13.33243,McDonalds,Hardenbergplatz 13,10623.0,Berlin,04501042
3058034840,52.48153,13.43201,Chicken Leckere Mahlzeit,Flughafenstraße 13,12053.0,Berlin,08100206
3060544100,52.54065,13.41386,Happy Asia,,,,03701555
3064933251,52.41652,13.39965,Call a Pizza,Mariendorfer Damm 430,12107.0,Berlin,07601442
3072367942,52.49419,13.33796,pizza bulls,Hohenstaufenstraße 40,10779.0,Berlin,07200307
3074533459,52.47112,13.38508,Burger am Feld,Tempelhofer Damm 106,12099.0,Berlin,07400720
3077886381,52.55307,13.37951,Meshegur Inegöl Köfteci,Badstraße 34,13357.0,Berlin,01401045
3077900875,52.55198,13.38165,Alte Forno,Badstraße 53,13357.0,Berlin,01300836
3080511414,52.55509,13.09548,Fritten-Schmiede,,,,
3081661339,52.48817,13.33765,Com Dai Dung,Grunewaldstraße 54,10825.0,Berlin,07200307
3086737577,52.39171,13.09246,Domino’s,Rudolf-Breitscheid-Straße 33,14482.0,Potsdam,
3092387748,52.61822,13.30664,Istanbul Grill,,,,12400723
3095237229,52.53373,13.40513,Berlin Burrito Company,Kastanienallee 59,10119.0,Berlin,01100416
3097509454,52.51004,13.37983,McDonalds,Leipziger Platz 12,10117.0,Berlin,01100205
3098125630,52.52988,13.40442,Mozzarella & Pomodoro,Torstraße 97,10119.0,Berlin,01100416
3098126379,52.52991,13.40212,Soup ’n Roll,Torstraße 117,10119.0,Berlin,01100309
3102540984,52.49284,13.38657,Yorks Kebap,Yorckstraße 89A,10965.0,Berlin,02200208
3105340829,52.52688,13.30671,Sushi For You,Lise-Meitner-Straße 2,10589.0,Berlin,04300518
3107198500,52.53740,13.28599,Halem Grill,Halemweg 21,13627.0,Berlin,04100101
3112849839,52.63467,13.49586,Akcan Döner,Walter-Friedrich-Straße 4A,13125.0,Berlin,03100103
3124057511,52.53582,13.19958,Kaplan,,,,05100316
3136665156,52.44914,13.27748,Uni-Imbiss,,,,06400843
3136935128,52.49320,13.38443,Hotways,Yorckstraße 82,10965.0,Berlin,02200209
3140301721,52.54334,13.36399,Beybaba Döner,Müllerstraße 163A,13353.0,Berlin,01401047
3150248663,52.61737,13.48997,Antalya,,,,03300411
3150248675,52.61838,13.48761,Antalya II,,,,03300411
3153793061,52.45583,13.40138,Grünes Wasser,,12099.0,Berlin,07400927
3155471007,52.50818,13.39058,Mr Imbiss BURGER,,,,01100207
3157838595,52.46749,13.34241,Call a Pizza,Cranachstraße 54,12157.0,Berlin,07300619
3167656606,52.48667,13.42487,McDonalds,Hermannplatz 2-3,10967.0,Berlin,08100314
3178171052,52.47162,13.33572,THE MOOD BURGER,Rheinstraße 66,12159.0,Berlin,07300618
3180634748,52.50508,13.31710,Pizza Como,Schlüterstraße 24a,10625.0,Berlin,04300624
3184678568,52.41565,13.40654,Curry Dennis,,,,08200831
3187755700,52.41373,13.28684,Patricks Grüne Bude,Am Stichkanal 28a,14167.0,Berlin,06300631
3209505566,52.49942,13.44075,Toros,Oppelner Straße 40,10997.0,Berlin,02300419
3215756470,52.49660,13.43373,Mmaah,Wiener Straße 31,10999.0,Berlin,02300418
3215758712,52.49506,13.43255,Şiribom Grillhaus,,,,02300418
3219121361,52.49431,13.35366,Burgers Berlin,Goltzstraße 33,10781.0,Berlin,07100204
3229157413,52.46498,13.32883,Zaim Falafel,Rheinstraße 40,12161.0,Berlin,06100103
3229881310,52.54577,13.35860,Nefis,,,,01401047
3235752194,52.47725,13.43539,Holi Cow,Kienitzer Straße 22,12053.0,Berlin,08100207
3238408129,52.47140,13.44111,König Döner,Karl-Marx-Straße 210,12055.0,Berlin,08100208
3265404871,52.40618,13.52422,Kebap Hayat,,,,09300920
3265404924,52.42070,13.53905,Helin Grillhaus,,,,09300920
3269945961,52.52564,13.30211,Aiva Schawarma Falafel Grill,Tauroggener Straße 13,10589.0,Berlin,04300517
3270560161,52.47026,13.33429,The Kitchen,Rheinstraße 61,12159.0,Berlin,07300618
3270765762,52.49789,13.34799,Zsa Zsa Burger,Motzstraße 28,10777.0,Berlin,07100102
3270898061,52.54249,13.41263,Burgerie,Schönhauser Allee 50,10437.0,Berlin,03601346
3275373406,52.49389,13.38876,FalaFel,Mehringdamm 25,10961.0,Berlin,02200210
3278025407,52.59525,13.33539,Cevdet Usta Grillhaus,,,,12500926
3283798898,52.57737,13.31439,Imbiss Nordtanke,Antonienstraße 34n,13509.0,Berlin,12200310
3314954414,52.55873,13.13444,Ayaz Grillhaus,Spandauer Straße 160,14612.0,Falkensee,
3325877871,52.41311,13.56427,Dominos,Am Falkenberg 108,12524.0,Berlin,09300921
3326694111,52.49981,13.30691,T. Viet,,,,04500936
3331333817,52.60771,13.32493,Döner Meile,,,,12601032
3343102777,52.49196,13.35100,Barbarossa Grill,Barbarossastraße 61,10781.0,Berlin,07100204
3343659160,52.49834,13.36194,Alzad,Potsdamer Straße 138,10783.0,Berlin,07100103
3344180814,52.53274,13.41348,LPG Kantine,Kollwitzstraße 17,10405.0,,03701556
3345110733,52.43275,13.53536,Asia Sushi Bar,Rudower Chaussee 13,12489.0,Berlin,09200715
3346902286,52.49882,13.40715,Prinzen Burger,,,,02100105
3354419274,52.50340,13.33439,Falafel Salam,Rankestraße 3,10789.0,Berlin,04501042
3354430614,52.50385,13.33554,Curry Wolf,Rankestraße 36,10789.0,Berlin,04501042
3358066813,52.52563,13.31787,City Bistro,Kaiserin-Augusta-Allee 97 B,10553.0,Berlin,01200517
3362345352,52.56579,13.32157,Dominos,,,,12200309
3363584372,52.56863,13.41147,Schiller Burger,Berliner Straße 11,13187.0,Berlin,03400723
3364423247,52.52931,13.59235,Bester Döner,,,,10200628
3365521369,52.54381,13.74632,"Imbiss ""zur 25""",,,,
3372213943,52.58984,13.28325,Asia Imbiss,,,,12200515
3380827887,52.49478,13.39601,Il Viandante,Zossener Straße 55-58,10961.0,Berlin,02200210
3388516449,52.48128,13.34901,Köfteci,Dominicusstraße 36,10827.0,Berlin,07200308
3391131180,52.48678,13.32377,Bobsek Burger,Berliner Straße 30-31,10715.0,Berlin,04501149
3391944412,52.49742,13.29080,The Mood Burger,Kurfürstendamm 115,10711.0,Berlin,04500937
3394249684,52.41315,13.57205,City Döner,,,,09301024
3409017217,52.53569,13.20040,Döner Kebab,,,,05100316
3411231692,52.46974,13.36707,IKEA Restaurant,Sachsendamm 47,10829.0,Berlin,07400822
3427336779,52.42050,13.49227,Mamas Küche,Alt-Rudow 19,12357.0,Berlin,08401243
3430685611,52.49379,13.38467,Rollt Döner,Yorckstraße 12,,,02200208
3440616220,52.55111,13.40513,Phuoc,Schivelbeiner Straße 26,,,03601140
3442702061,52.61452,13.47033,Döner,,,,03300412
3443269235,52.43307,13.24273,Subway,Potsdamer Straße 11,14163.0,Berlin,06300526
3444450293,52.52972,13.40024,Tor Kebab,Torstraße 129,10119.0,Berlin,01100415
3446523824,52.56702,13.51916,Kebab King,Warnitzer Straße 12,13057.0,Berlin,11100204
3474035723,52.51321,13.30477,Pizza Napoli,,,,04300621
3480272977,52.49690,13.35512,Baharat Falafel,Winterfeldtstraße 37,10781.0,Berlin,07100103
3481852919,52.48672,13.35511,Catbird,Akazienstraße 28,10823.0,Berlin,07200409
3499253024,52.49523,13.42035,Ketels,,,,02200213
3499253063,52.49527,13.42032,Aigo Korean Food,,,,02200213
3502496144,52.56864,13.51799,Lichtenberger Lieferservice,Falkenberger Chaussee 101,13059.0,Berlin,11100205
3508343426,52.49453,13.35373,Caramia Focacceria Gelateria,Goltzstraße 32,10781.0,Berlin,07100204
3511118180,52.54955,13.34946,Phönicia,Seestraße 100,13353.0,Berlin,01400938
3518773588,52.53456,13.41576,Prenzl Kebap,Kollwitzstraße 47,10405.0,Berlin,03701556
3531946228,52.42492,13.23499,Museumsküche,,,,06400736
3535732390,52.47403,13.42611,LaBettoLab,Okerstraße 43,12049.0,Berlin,08100103
3542201095,52.49513,13.43243,Pancho Villa Cantina,Reichenberger Straße 120,10999.0,Berlin,02300418
3553669941,52.49021,13.38946,El Chilenito,Bergmannstraße 102,10961.0,Berlin,02200211
3561949186,52.44161,13.56901,Gülcans Bistrogrill,,,,09200819
3570845455,52.46002,13.32346,Nordsee,,,,06100102
3571089393,52.46888,13.33220,Barlys,Rheinstraße 19,12161.0,Berlin,07300516
3573519569,52.45942,13.32343,its Mo,Schloßstraße 100,12163.0,Berlin,06100102
3574623993,52.59483,13.33173,Dominos,Eichborndamm 292,13437.0,Berlin,12500926
3587795266,52.52336,13.64607,Feinkost Claus,,,,10400938
3589417893,52.46918,13.33247,Balli Burger,Schmiljanstraße 17,12161.0,Berlin,07300517
3592806594,52.50150,13.44152,Gudé,Köpenicker Straße 1,10997.0,Berlin,02300316
3595355814,52.44237,13.56931,Pizza Max,,,,09200819
3600619653,52.43361,13.26003,Cucciolo,Teltower Damm 13,14169.0,Berlin,06300526
3607091178,52.52074,13.40555,dean&david,Karl-Liebknecht-Straße 7,10178.0,Berlin,01100310
3607091179,52.52355,13.39884,dean&david,Monbijouplatz 5,10178.0,Berlin,01100309
3610662555,52.42865,13.32879,Macs Kebap,,,,06200422
3611096826,52.49534,13.42983,Villa di Wow,Ohlauer Straße 30,10999.0,Berlin,02300417
3613295011,52.55352,13.43541,Mira Bistro,Langhansstraße 61,13086.0,Berlin,03500934
3615221021,52.51772,13.43229,Kalis Deutsche Küche,Karl-Marx-Allee 68,10243.0,Berlin,02400623
3615491771,52.52743,13.33063,Baran Döner Station,Waldstraße 1,10551.0,Berlin,01200519
3615491772,52.52698,13.33040,Halis Kebap,Gotzkowskystraße 1,10555.0,Berlin,01200521
3632408169,52.48934,13.35966,Imren,Hauptstraße 156,10827.0,Berlin,07200411
3632641115,52.48684,13.35828,Samake Sushi,Crellestraße 2,10827.0,Berlin,07200411
3632641121,52.48653,13.35763,Efsane,,,,07200410
3632641124,52.48697,13.35778,Garda Pizza,,,,07200411
3632641431,52.48800,13.35839,Naya Jouly,Hauptstraße 150,10827.0,Berlin,07200411
3633921029,52.43600,13.34488,Döner Box,,,,06200313
3640923846,52.54899,13.45336,Pizzeria Capri,Berliner Allee 55,13088.0,Berlin,03500935
3641307271,52.55218,13.12236,MEGA,,,,
3644289894,52.45529,13.57650,Kebaphaus,Bahnhofstraße 49,12555.0,Berlin,09501939
3646253993,52.49728,13.49887,Labra,Salzmannstraße 28,10319.0,Berlin,11401135
3646253994,52.49719,13.49883,Salzmann Bistro,Salzmannstraße 28,10319.0,Berlin,11401135
3650391091,52.45224,13.43144,Ketchup 35,Gradestraße 35,12347.0,Berlin,08200624
3652772725,52.53238,13.39755,Tommis Burger Joint,Invalidenstraße 160,10115.0,Berlin,01100415
3655216256,52.34381,13.43508,Glasower Döner Kebap,,,,
3658581497,52.59564,13.37520,Torino,Hauptstraße 103,13158.0,Berlin,03400618
3666796896,52.52947,13.47129,PizzaLovers,Anton-Saefkow-Platz 12,10369.0,Berlin,11300617
3668303150,52.47355,13.45584,Kebab Haus,Saalestraße 40,12059.0,Berlin,08100417
3670161822,52.42925,13.32971,Asia Imbiss,,,,06200422
3672491276,52.50497,13.46941,Kosmetikstudio,Neue Bahnhofstraße 3,,,02500834
3675739231,52.50152,13.33484,Asia-Land,Augsburger Straße 29,10789.0,Berlin,04501042
3676001081,52.50314,13.33073,Five Guys,Joachimsthaler Straße 10,10719.0,Berlin,04501042
3676805351,52.59585,13.33544,Food Box,,,,12500927
3677318158,52.55601,13.20732,Sushi,,,,05100105
3677459026,52.56201,13.20878,La Sila,Streitstraße 30,13587.0,Berlin,05100103
3686292358,52.46587,13.48631,Sahara Imbiss,Kiefholzstraße 183,12437.0,Berlin,09100304
3688058625,52.61823,13.33477,,,,,12500929
3703501676,52.50685,13.47067,Gemüse Kebab,Neue Bahnhofstraße 25,10245.0,Berlin,02500832
3707767489,52.46981,13.46192,By Curry,,,,08100520
3715380087,52.57593,13.41312,Snackpoint,,,,03400724
3715461825,52.63628,13.19944,Döner,,,,
3717573370,52.63689,13.20257,Bistro Sky Oase,Havelpassage 7,16761.0,Hennigsdorf,
3717596764,52.64070,13.20706,Brüder Burger,Berliner Straße 58a,16761.0,Hennigsdorf,
3717645911,52.62875,13.20225,Pizza Planet,Edisonstraße 17,16761.0,Hennigsdorf,
3727774829,52.44573,13.38643,Imbiss,,,,07501031
3730491777,52.47494,13.42402,Burro Unchained,Allerstraße 11,12049.0,Berlin,08100103
3734960539,52.52831,13.39207,Yarok,Torstraße 195,10115.0,,01100415
3737222085,52.51405,13.45442,Zaitoun,Boxhagener Straße 121,10245.0,Berlin,02500830
3738119417,52.42235,13.75156,Van Tat,,,,
3740577345,52.48710,13.43098,Bang Boom Burger,,,,08100311
3742323290,52.50774,13.49745,Pizza Max,Margaretenstraße 4,10317.0,Berlin,11400929
3750152225,52.50358,13.44717,Bro Burger,,,,02400625
3751809295,52.50056,13.42291,Angry Chicken,Oranienstraße 16,10999.0,Berlin,02300314
3755709522,52.60700,13.31915,Nord Bistro,Waidmannsluster Damm 175,13469.0,Berlin,12500928
3758546891,52.40346,13.21977,Rathaus Imbiss,,,,
3758749628,52.54328,13.36519,Falafel Dream 2010,Müllerstraße 14a,13353.0,Berlin,01300836
3758934259,52.54686,13.35014,Java House,,,,01400942
3760553690,52.54671,13.34934,Safran,Brüsseler Straße 17,13353.0,Berlin,01400942
3772659944,52.56451,13.50559,Pizzeria La Rosa,Prerower Platz 1,13051.0,Berlin,11100307
3772659954,52.56437,13.50672,Saray Grill,Prerower Platz 1,13051.0,Berlin,11100307
3772667658,52.56435,13.50479,Burger King,Prerower Platz 1,13051.0,Berlin,11100307
3772667668,52.56472,13.50568,Nordsee,,,,11100307
3772689495,52.54918,13.59823,McDonalds,Landsberger Chaussee 17,,,
3772689496,52.54919,13.59894,Wurstteufel (Heiße Theke),,,,
3772689497,52.54916,13.59916,Thang Long China-Bistro,Landsberger Chaussee 17,,,
3772706434,52.41531,13.49530,Pizzeria Monello,,,,08401244
3772713841,52.40233,13.52574,Asos Grill,Ortolfstraße 206A,12524.0,Berlin,09300922
3774630007,52.48671,13.43109,Three Dudes Next Door,Pannierstraße 6,12047.0,Berlin,08100312
3780185338,52.54941,13.35427,Döner Game,Müllerstraße 37,13353.0,Berlin,01401048
3780969415,52.49796,13.34920,Toms Wurst,Motzstraße 19,10777.0,Berlin,07100102
3789215205,52.46259,13.51384,Döner Bistro,,12459.0,Berlin,09200510
3790742857,52.37141,13.13430,Asiagourmet,Stern-Center 1-10,14480.0,Potsdam,
3792654757,52.46245,13.51456,Bistro Weide,Wilhelminenhofstraße 16a,12459.0,Berlin,09200511
3803711353,52.50376,13.40990,Foodbag,,10969.0,,02100104
3810384964,52.51709,13.42036,Mervan bistro,Schillingstraße 1A,10179.0,Berlin,01100311
3826013959,52.49868,13.35381,Pizza Zone,Maaßenstraße 2,10777.0,Berlin,07100102
3826013965,52.49877,13.35379,Burgerzone,Maaßenstraße 2,10777.0,Berlin,07100102
3826013971,52.49890,13.35361,Curry Nolle,Nollendorfplatz 7,10777.0,Berlin,07100102
3826013972,52.49901,13.35233,Freshn Fast,Motzstraße 1,10777.0,Berlin,07100102
3826014009,52.49873,13.35380,KebUp House,Maaßenstraße 2,10777.0,Berlin,07100102
3826014014,52.49837,13.35385,Luciano Pizza,Maaßenstraße 6,10777.0,Berlin,07100102
3826452463,52.49737,13.34640,Pizza Luna,Martin-Luther-Straße 21,10777.0,Berlin,07100102
3830168143,52.50058,13.36431,Vuí Vẻ,Pohlstraße 61,10785.0,Berlin,01100104
3831991073,52.52638,13.33741,Pizza con Amore,Turmstraße 82,10551.0,Berlin,01200521
3837620177,52.50048,13.36310,Burger King,Potsdamer Straße 114,10785.0,Berlin,01100103
3837620189,52.50056,13.36316,Bam Bi Bowls,Potsdamer Straße 112,10785.0,Berlin,01100103
3837620653,52.50008,13.36274,Kaplan,,,,01100103
3837620655,52.50024,13.36288,Kimlong,Potsdamer Straße 118,10785.0,Berlin,01100103
3841171913,52.52645,13.34515,Turm Bistro,,,,01200625
3841171917,52.52630,13.33516,Imren,,,,01200521
3842489107,52.51238,13.49014,Dominos,Frankfurter Allee 199,10365.0,Berlin,11300724
3853848980,52.48494,13.34538,Quán Chè,Martin-Luther-Straße 103,10825.0,Berlin,07200409
3854065170,52.45294,13.43823,Britzer Bistro,,,,08200624
3854437095,52.49600,13.35967,Tori-Katsu,Winterfeldtstraße 7,10781.0,Berlin,07100103
3855567141,52.49723,13.36147,Köfteci,Potsdamer Straße 146,10783.0,Berlin,07100103
3855567795,52.49761,13.36164,Istanbul Grill,Potsdamer Straße 142,10783.0,Berlin,07100103
3855574934,52.49773,13.36125,Yaprak Döner,,,,07100103
3859397149,52.49904,13.35463,Balli,Nollendorfplatz 8-9,10777.0,Berlin,07100103
3861085176,52.54647,13.35858,Ya-hala Chicken & Grillhaus,Müllerstraße 152,13353.0,Berlin,01400942
3862837573,52.50101,13.30769,Shora,,,,04501040
3865738058,52.52697,13.33756,Kirşehir’li Gözlemeci,Bremer Straße 75,10551.0,Berlin,01200520
3880926283,52.47109,13.42959,Merakli Köfteci,Hermannstraße 174,12051.0,Berlin,08100208
3883064614,52.52781,13.34155,Oh my Bap,Wilhelmshavener Straße 3,10551.0,Berlin,01200520
3883245680,52.46140,13.51920,Mr. Tung & Friends,Wilhelminenhofstraße 35,12459.0,Berlin,09200511
3883260176,52.46127,13.51977,Kilimanjaro,Wilhelminenhofstraße 37,12459.0,Berlin,09200511
3895256384,52.52378,13.40926,Dolores,Rosa-Luxemburg-Straße 7,10178.0,Berlin,01100310
3898026207,52.50899,13.31455,Hum Baba,Leibnizstraße 25,10625.0,Berlin,04300624
3901366091,52.54038,13.40538,O Der Burger,Oderberger Straße 30,10435.0,Berlin,03701554
3902729059,52.52948,13.40098,Cult Curry Mitte,Torstraße 122,10119.0,Berlin,01100309
3905701252,52.46339,13.51364,Schnitzery,Edisonstraße 58,12459.0,Berlin,09200510
3906190918,52.46337,13.51408,Jimmys Pizza & Burger,Edisonstraße 13,12459.0,Berlin,09200511
3906194252,52.46322,13.51373,StaatsBurger,Edisonstraße 59,12459.0,Berlin,09200510
3906822483,52.51068,13.45136,Antalya Bistro,,10243.0,Berlin,02400624
3906859740,52.51382,13.45358,Rubens Arepas,Warschauer Straße 81,10243.0,Berlin,02500833
3906894577,52.51223,13.45207,Best Grill,Warschauer Straße 16,10243.0,Berlin,02400624
3906985188,52.51004,13.45109,Mustafa Demirs Gemüsekebap,Warschauer Straße 27A,10243.0,Berlin,02400624
3906999600,52.50953,13.45085,Mustafa Demirs Retro Döner,Warschauer Straße 30,10243.0,Berlin,02400624
3918738154,52.45299,13.33820,Zaka Sushi,Bismarckstraße 32,12169.0,Berlin,06100208
3922916024,52.50613,13.31977,Zaim Falafel,Kantstraße 25,10623.0,Berlin,04300624
3923545983,52.49988,13.30503,Pho 79,Kurfürstendamm 73,10709.0,Berlin,04500936
3928349157,52.65368,13.19764,Bistro Nord,Hradeker Straße 11 a,16761.0,Hennigsdorf,
3937513352,52.53002,13.40125,Frittenwerk,Brunnenstraße 1-2,10119.0,Berlin,01100416
3937513963,52.53043,13.40087,Asian 2207,Brunnenstraße 4,10119.0,Berlin,01100416
3944883604,52.48595,13.33717,Pizza Al Taglio,Badensche Straße 9,10825.0,Berlin,07200307
3957039948,52.45786,13.29104,Reallygoodlife,Königin-Luise-Straße 44,14195.0,Berlin,06400843
3964501407,52.54468,13.42698,Saray Grill,Prenzlauer Allee 178,,,03601244
3968672798,52.51606,13.48151,Reisschale,Normannenstraße 5a,10367.0,Berlin,11300722
3990176690,52.50667,13.48287,Tajj Of India,Buchberger Straße 40,10365.0,Berlin,11300826
3991803246,52.52630,13.30386,Pizza e Pasta,Mierendorffplatz 13,10589.0,Berlin,04300517
3992172156,52.51174,13.49732,Uno,Frankfurter Allee 244,,,11300725
4010310446,52.53034,13.62082,Epis Döner,Leisinger Straße 20,12627.0,Berlin,10200525
4030311572,52.50108,13.41961,Noodlen Box,,,,02300314
4030311582,52.50104,13.41978,Kiezburger,,,,02300314
4034138657,52.50036,13.42227,Kreuzburger,,10999.0,Berlin,02300314
4034138661,52.50053,13.42238,Chickpeas,Oranienstraße 11,,,02300314
4034138663,52.50061,13.42212,Oregano,Oranienstraße 19a,,,02300314
4043589549,52.46777,13.41966,Eisbahn-Bistro,,,,08100104
4044002280,52.45938,13.57976,Mix-Box,Mahlsdorfer Straße 110,12555.0,Berlin,09502043
4046084610,52.53715,13.36954,,,,,01300836
4054631163,52.45713,13.38424,Columbus,,,,07400927
4059985124,52.50747,13.28053,Avci Döner Chinabox Coffee Shop,Messedamm 8,14057.0,Berlin,04200311
4061948090,52.55965,13.37980,Pizza Flitzer,Koloniestraße 32,13359.0,Berlin,01300730
4061948102,52.55989,13.37942,Volta Grillhaus. Köfte & Tantuni Fisch,Koloniestraße 121,13359.0,Berlin,01300730
4061948103,52.55997,13.37946,Café Şarmata,Koloniestraße 121,13359.0,Berlin,01300730
4066800227,52.47390,13.42761,Liebe Döner,,,,08100103
4070598667,52.52457,13.36923,GOSCH Sylt,,,,01200628
4070598678,52.52464,13.36883,Rice On!,,,,01200628
4074274151,52.49165,13.37854,Kapadokya,,,,02200209
4081432921,52.43556,13.54191,Currywurst Nr.1,Dörpfeldstraße 1,12489.0,Berlin,09200716
4087727489,52.44574,13.38516,Falafel & Kebab Kultur,,,,07501030
4089517216,52.41060,13.26608,Pizza Bulls,,,,06300528
4097737693,52.45299,13.14181,Asia Imbiss Kladow,Sakrower Landstraße 8,14089.0,Berlin,05400943
4097785283,52.45542,13.14406,Kladow Kebap,,,,05400944
4097803234,52.54195,13.20554,Grillstation Conti,,,,05100314
4100572576,52.54414,13.39182,Reis Mama,Brunnenstraße 85,13355.0,Berlin,01300834
4109211892,52.53317,13.60286,Wurstspezialitäten und Imbiss,Stollberger Straße 67,12627.0,Berlin,10200526
4109240990,52.53146,13.60418,Pizza Max,Stollberger Straße 43,12627.0,Berlin,10200526
4109253389,52.53203,13.60377,Mauritius Grill,Stollberger Straße 51,12627.0,Berlin,10200526
4109493994,52.54713,13.41689,Stargarder Burger,Stargarder Straße 75,10437.0,Berlin,03601346
4109583392,52.56420,13.39231,Paris Döner,Wollankstraße 26,13359.0,Berlin,01300731
4116107894,52.51386,13.45360,Gemüse Kebap & friends,Warschauer Straße 81A,,,02500833
4119399171,52.59576,13.33329,Döner Time,,,,12500927
4134264591,52.43053,13.49410,Curry-Paule,Stubenrauchstraße 103,12357.0,Berlin,08401243
4136417085,52.55549,13.38429,Bahar Imbiss,,,,01300733
4140723064,52.55030,13.38473,Smack Burger,Badstraße 66,,,01300836
4143345633,52.54902,13.45609,Merry Guten Appetit,Herbert-Baum-Straße 3,13088.0,Berlin,03500936
4145078611,52.52127,13.44688,My Kebap Haus,Straßmannstraße 2,10249.0,Berlin,02400522
4151642691,52.51519,13.47334,Brgrs Brgrs,Pettenkoferstraße 2B,10247.0,Berlin,02500729
4155022029,52.63073,13.32309,Pizzeria Alonzo,Märkische Allee 76,16548.0,Glienicke/Nordbahn,
4155950168,52.54142,13.39325,China Bistro,Brunnenstraße 117,,,01300835
4155950169,52.54136,13.39329,Volta Imbiss,Brunnenstraße 117,13355.0,Berlin,01300835
4157774308,52.48384,13.44759,Mmaah,Kiehlufer 75,12059.0,Berlin,08100419
4169977752,52.51134,13.45846,Berlin Burrito Company,,,,02500833
4171310010,52.50798,13.30897,Burgers Berlin,,,,04300623
4171310013,52.50677,13.30801,Mmaah,Kantstraße 55,10627.0,Berlin,04300623
4172949589,52.51757,13.46106,Bye Bye Cavaliere,Proskauer Straße 28,10247.0,Berlin,02500727
4172953390,52.51749,13.46101,Mekong Küche,Proskauer Straße 28,,,02500727
4173488701,52.44407,13.50591,Asia Snack,,,,09100408
4185576128,52.50496,13.40724,Akcaabat,Oranienstraße 72,10969.0,Berlin,02100104
4188056689,52.50715,13.38595,Typisch Berlin,Wilhelmstraße 42,10963.0,Berlin,02100102
4188056691,52.50763,13.38577,Curry at the Wall,Zimmerstraße 100,10117.0,Berlin,01100205
4188093971,52.51366,13.38142,Curry and Burger,,,,01100205
4188093973,52.56554,13.40666,Eat Point,,,,03400723
4189933698,52.50572,13.32079,The Butcher,Kantstraße 144,10623.0,Berlin,04300624
4193676997,52.55319,13.37871,Çiğ-Lok,Badstraße 37A,13357.0,Berlin,01401045
4200634085,52.46960,13.44138,Haci Baba (Cömlek),,,,08100208
4207913348,52.49275,13.44446,Burger Junkys,Lohmühlenstraße 58,12435.0,Berlin,09100101
4211986089,52.63727,13.20512,Subway,Postplatz 4c,16761.0,Hennigsdorf,
4219443555,52.49776,13.35260,Mmaah,Nollendorfstraße 32,10777.0,Berlin,07100102
4222113790,52.58770,13.32613,Indischer Imbiss,,,,12500926
4222276049,52.53331,13.40965,freie internationale tankstelle,,,,03701554
4230050391,52.51151,13.43477,Lakomka,,,,02400623
4250113293,52.51756,13.30675,Ngon Ngon,,,,04300619
4261243654,52.48452,13.43305,Snack Baalbaki,Weichselstraße 62,12043.0,Berlin,08100314
4261244006,52.48214,13.43868,Sushi 93,Sonnenallee 98,,,08100314
4286138993,52.47833,13.43910,Vegd,Richardstraße 109,,,08100415
4300258889,52.51425,13.46474,Zero Stress Pizza,Colbestraße 3,10247.0,Berlin,02500831
4302090187,52.51051,13.49836,Cuccis,,,,11300826
4304042189,52.48642,13.35585,Ilios,Akazienstraße 2,10823.0,Berlin,07200409
4304413094,52.45727,13.57787,Ventelino,,,,09501939
4304416001,52.45634,13.57727,Asia Thai Snack,,,,09501939
4304633636,52.54484,13.36115,Pizzeria Dun Dun,Triftstraße 1,13353.0,Berlin,01401047
4314574212,52.54708,13.40839,Pattaya Imbiss,,,,03601142
4315470232,52.54997,13.34927,Pizza Max,Lüderitzstraße 3,13351.0,Berlin,01400938
4316354954,52.54200,13.20268,Pizza Max,Achenbachstraße 11,13585.0,Berlin,05100315
4318276195,52.35317,13.30764,Efe-Grill,Dorfaue 9,14979.0,Großbeeren,
4319807856,52.53637,13.27053,Kösgeroglu,Nonnendammallee 86,13629.0,Berlin,05300841
4319811427,52.53643,13.26858,Hühnerwald,Nonnendammallee 84,13629.0,Berlin,05300841
4322856344,52.59115,13.37655,Dominos,Kastanienallee 58A,13158.0,Berlin,03400618
4324773172,52.55126,13.35007,Yildiz Gözleme,Müllerstraße 133A,13349.0,Berlin,01400938
4324785796,52.43814,13.38314,Call to Eat,Friedenstraße 7,12107.0,,07501133
4335689620,52.56765,13.10072,Istanbul Döner,,,,
4339053522,52.55883,13.36555,Dominos,Markstraße 23,13409.0,Berlin,12100101
4339135790,52.42311,13.37101,Sushi 4 you,,,,07601236
4341306547,52.49523,13.29836,Pizza Max,Westfälische Straße 66,10709.0,Berlin,04500938
4345718272,52.39605,13.24039,Ali Baba,Potsdamer Straße 6,14513.0,Teltow,
4345718273,52.39610,13.24035,CurryLand,,,,
4351511610,52.54560,13.35836,Pizza De Lux,Luxemburger Straße 32,13353.0,Berlin,01401047
4352954852,52.48818,13.33773,Mr. Gyros,Grunewaldstraße 54,10825.0,Berlin,07200307
4361415625,52.52949,13.36881,Europa City Imbiss,,,,01200624
4363623307,52.50692,13.30365,Korean Chicken & Bowls,,,,04300623
4363665317,52.42791,13.32782,Pito-Gyro,Kranoldplatz 2,12209.0,Berlin,06200422
4363726442,52.46286,13.32687,Pret A Manger,Schloßstraße 120,12163.0,Berlin,06100103
4366589727,52.48847,13.33771,Milo Burger,Grunewaldstraße 49,10825.0,Berlin,07200307
4367412761,52.44001,13.21645,Bernsteiners,Breisgauer Straße 1,14129.0,Berlin,06400838
4367494203,52.47583,13.42288,Ban Ban Kitchen,Schillerpromenade 32,12049.0,Berlin,08100102
4374675800,52.64886,13.14444,,,,,
4375919424,52.48741,13.34477,Pizza Max,,,,07200307
4376092952,52.47860,13.32077,Il Caminetto,Detmolder Straße 50,10715.0,Berlin,04501151
4376092953,52.47725,13.32006,Kalyon,Laubacher Straße 30,14197.0,Berlin,04400835
4379478605,52.52380,13.19775,Mega Pichelsdorfer Grill,,,,05200631
4379478606,52.53270,13.19786,Prime Kebab,,,,05200629
4379478607,52.53320,13.19791,Sarilar Grill,,,,05200629
4379478608,52.52854,13.19598,MR Falafel,Kerstenweg 1,13581.0,Berlin,05200631
4381394755,52.54446,13.36874,Sever Imbiss,Lindower Straße 14,,,01300836
4389211793,52.52270,13.41258,Frittenwerk,,,,01100310
4393459543,52.51224,13.39003,dean&david,Friedrichstraße 69,10117.0,Berlin,01100206
4396230899,52.54303,13.36458,Libanon Falafel,Müllerstraße 165,,,01401047
4397781320,52.52113,13.19420,My Donose,,,,05200630
4406724576,52.51038,13.20841,Ketchup 35,,,,05200634
4411409193,52.52743,13.33021,Happy Burger,Turmstraße 56,10551.0,Berlin,01200519
4411418619,52.52729,13.33121,Baklavalari,Turmstraße 54,10551.0,Berlin,01200519
4414952722,52.36928,13.13474,Dominos,Gerlachstraße 35,14480.0,Potsdam,
4415243200,52.53541,13.63169,burgerme,Mahlsdorfer Straße 53-57,15366.0,Hoppegarten,
4415604080,52.51088,13.30559,Harrys Sliders,Wilmersdorfer Straße 133,,,04300623
4416460944,52.56864,13.09793,Döner Haus,Falkenhagener Straße 69,14612.0,Falkensee,
4420353163,52.40422,13.25551,Unami,,,,
4422452695,52.50521,13.51447,Yogi,Alfred-Kowalke-Straße 1-4,10315.0,Berlin,11401137
4423466253,52.56788,13.34625,Asia Imbiss,Teichstraße 30,13407.0,Berlin,12100205
4423937392,52.50849,13.40340,Kumpir Club,Kommandantenstraße 71,10117.0,Berlin,01100207
4425098301,52.53260,13.42838,Mehas,Greifswalder Straße 208,10405.0,Berlin,03701659
4425526989,52.51499,13.18409,Imbiss,,13593.0,,05200528
4429093689,52.54705,13.41285,Formidable,Schönhauser Allee 126,10437.0,Berlin,03601142
4436495023,52.55272,13.38088,Asmin Döner Grillhaus,,,,01401045
4436502750,52.55239,13.38211,Hambi baba,,,,01300733
4437579391,52.55416,13.38271,Örnek Lahmacun Evi,,,,01401045
4439256189,52.52643,13.38763,Curry One,Friedrichstraße 114,10117.0,Berlin,01100309
4444546185,52.56357,13.32679,Viet Dream,,,,12200309
4446550254,52.48485,13.35304,Cebo’s Burger,Eisenacher Straße 62,10823.0,Berlin,07200409
4447596499,52.48928,13.34618,Uzbek Eats,Grunewaldstraße 35,10823.0,Berlin,07100204
4448386322,52.56834,13.31226,Grillhaus Kenan,,,,12200309
4448386324,52.56794,13.31260,Merin Grillhaus,Scharnweberstraße 60,13405.0,Berlin,12200309
4454024995,52.52941,13.32843,G.P.S Grilled Pocket Sandwich,Beusselstraße 63,10553.0,Berlin,01200518
4454150178,52.52713,13.32943,Öz Doy Doy,Turmstraße 62,10551.0,Berlin,01200521
4455039391,52.53368,13.43058,Brgrs Brgrs,Greifswalder Straße 37,10405.0,Berlin,03701660
4456233212,52.53252,13.19771,Goldene Drachen,Klosterstraße 5a,13581.0,Berlin,05200629
4487189077,52.54542,13.59241,Döner Box,,,,10200417
4506523503,52.50658,13.31179,Son Kitchen,Kantstraße 46,10625.0,Berlin,04300623
4515123685,52.49918,13.43218,Hühnerhaus 36,Görlitzer Straße 1,10997.0,Berlin,02300419
4533868089,52.51467,13.45997,Balkan Grill Aroma,Niederbarnimstraße 26,10247.0,Berlin,02500830
4534097105,52.50817,13.46663,Gemüse Kebab,,,,02500833
4542091109,52.51424,13.47673,MingTastic Chinese Food Bar,Frankfurter Allee 113-117,10365.0,Berlin,11300722
4542091113,52.51468,13.46282,Pizza XXL,Frankfurter Allee 42,10247.0,Berlin,02500830
4542091124,52.45809,13.58019,Mr. Kebap,Elcknerplatz 8,12555.0,Berlin,09501939
4542091125,52.45751,13.57810,Burger Vision,Bahnhofstraße 33-38,12555.0,Berlin,09501939
4544880374,52.42586,13.48362,Goltz Kebap,Neuköllner Straße 259,12357.0,Berlin,08401241
4547089192,52.50874,13.30507,Nordsee,,,,04300623
4551162390,52.51035,13.30575,Safrani,Wilmersdorfer Straße 129,10627.0,Berlin,04300623
4555544999,52.59225,13.28305,Call a Pizza,Schloßstraße 20,13507.0,,12200515
4561734582,52.50573,13.52009,Happy Döner,,,,11401034
4567767888,52.50859,13.30517,Asia Imbiss,,,,04300623
4582927492,52.49807,13.42106,Basmah,Reichenberger Straße 26,10999.0,Berlin,02300417
4583801394,52.43188,13.25933,greeneat,Teltower Damm 33,14169.0,Berlin,06300526
4583828566,52.46028,13.41800,Avci,Tempelhofer Weg 2,12099.0,Berlin,07400928
4583979873,52.58795,13.42784,Telepizza,Blankenburger Straße 149,13127.0,Berlin,03200207
4583979876,52.58480,13.42859,Bärbels Bistro,Pasewalker Straße 13,13127.0,Berlin,03400725
4596211007,52.46756,13.48979,Döner 49,,12437.0,Berlin,09100304
4596211008,52.46752,13.48973,Asia Lime,,,,09100304
4603580991,52.50961,13.29698,Ihr Frischebäcker,Suarezstraße 60,14057.0,Berlin,04300416
4605700438,52.42898,13.53857,FOOD,,12489.0,Berlin,09200715
4611730985,52.52758,13.33843,Hanoi Bistro,Arminiusstraße 2-4,10551.0,Berlin,01200520
4611739974,52.52801,13.33851,Burgerlich,Arminiusstraße 2-4,,,01200520
4614529742,52.50732,13.30668,KFC,Wilmersdorfer Straße 115,10627.0,Berlin,04300623
4623811442,52.47787,13.28107,Würstle am Roseneck,,,,04400727
4625231107,52.52672,13.33737,Moabiter Döner,,,,01200520
4625232920,52.52680,13.33668,Pizza Pasta,,,,01200520
4626413458,52.52685,13.33602,Gemüse-Döner,Turmstraße 40,10551.0,Berlin,01200520
4639354690,52.50916,13.40457,Sandwich Art,,,,01100207
4664200998,52.39838,13.40605,Grimm Döner,Lichtenrader Damm 162,12305.0,Berlin,07601442
4664307490,52.38677,13.40862,Imbiss China,,,,07601547
4665970499,52.50988,13.46025,Kandaka Food,Gärtnerstraße 26,10245.0,Berlin,02500833
4683292219,52.59586,13.33591,First Kebab,Wilhelmsruher Damm 230,13435.0,Berlin,12500927
4686702515,52.52451,13.33501,Dominos,Alt-Moabit 79,10555.0,Berlin,01200522
4687833341,52.47984,13.35198,Sahara Imbiss,Ebersstraße 74,10827.0,Berlin,07200308
4698343699,52.50122,13.34377,Dolores,Bayreuther Straße 36,10789.0,Berlin,07100101
4698884699,52.45882,13.52664,Gemüse Kebap,Rathenaustraße 1,12459.0,Berlin,09200511
4700279910,52.44291,13.29696,Asia Imbiss Saigon,Drakestraße 33,12205.0,Berlin,06300633
4703099270,52.46104,13.48115,Dominos,Baumschulenstraße 65,12437.0,Berlin,09100304
4703105770,52.46119,13.48147,Asia Haus,Baumschulenstraße 65 II,12437.0,Berlin,09100304
4704850355,52.46854,13.49095,Tasty Gemüse Kebap,,12437.0,Berlin,09100305
4709931443,52.49136,13.41138,Pizzatrium,Körtestraße 8,10967.0,Berlin,02200212
4712176334,52.46544,13.48659,Gorira,Baumschulenstraße 88,12437.0,Berlin,09100304
4715094290,52.45460,13.62543,Tanriverdis,Bölschestraße 60,12587.0,Berlin,09501737
4730593839,52.46199,13.51650,ISHTAR,Wilhelminenhofstraße 24,12459.0,Berlin,09200511
4731336923,52.43241,13.46220,Haci Baba,,,,08401139
4732574347,52.53047,13.29983,CUCCIS,,,,04300517
4736286838,52.50195,13.32936,I♥Phở,,,,04501042
4736904442,52.49612,13.33705,Hammer Koch,Bamberger Straße 7,10777.0,Berlin,04501045
4741168900,52.44843,13.27576,Köfte Burger,Garystraße 46,14195.0,Berlin,06400843
4741882121,52.55325,13.41483,Berlins Gemüse kebab,,,,03601243
4748225794,52.38651,13.40014,Dürümcü Baba,,,,07601544
4750521349,52.51009,13.27780,Eat&GO,,,,04200311
4753256689,52.51065,13.38965,Sandwich Art Café,,,Berlin,01100207
4758617721,52.49723,13.74398,Asja-Sushi-Bar,,,,
4762514455,52.44097,13.60146,Schützengrill,,,,09401433
4762680411,52.46435,13.43283,Valentine,Hermannstraße 126,12051.0,Berlin,08100105
4769294221,52.58173,13.36311,Gemüsekebap 77,,,,03400619
4773307930,52.51129,13.45707,Juju,Simon-Dach-Straße 40,10245.0,Berlin,02500833
4773332993,52.51089,13.45836,Grimy Haus,Gabriel-Max-Straße 17,10245.0,Berlin,02500833
4781765127,52.51507,13.46329,Salami Social Club,Frankfurter Allee 43,10247.0,Berlin,02500728
4796741122,52.40115,13.26076,China Thai,,,,
4804439441,52.56594,13.40860,Flora Burger,Florastraße 41,13187.0,Berlin,03400723
4804439442,52.56616,13.40842,Flora Wrap,Florastraße 63,13187.0,Berlin,03400723
4806911720,52.50838,13.49746,Kilimanjaro Wraps & Bowls,Weitlingstraße 29,10317.0,Berlin,11400929
4812222798,52.56550,13.39466,Pizza Max,,,,03400721
4813445331,52.52644,13.38800,Kebab Baba,Linienstraße 133,10115.0,Berlin,01100309
4813859503,52.56503,13.39475,Döner 02,,,,03400721
4813988670,52.50629,13.31093,44 Chkn,Kantstraße 123,10625.0,Berlin,04300623
4816206581,52.53382,13.19575,Thang Long,,,,05200629
4816206582,52.53383,13.19568,Kartoffelbox & Fruitstars,,,,05200629
4817365211,52.50759,13.39073,KFC,Friedrichstraße 45,10969.0,Berlin,02100102
4828048438,52.55463,13.34503,Burger Republic,Müllerstraße 59,13349.0,Berlin,01400939
4832594545,52.57257,13.41766,Call a Pizza,Damerowstraße 60,13187.0,Berlin,03400723
4839547038,52.52096,13.41193,Pergamon Döner & Pizza,Dircksenstraße 2,10179.0,,01100310
4839547039,52.52027,13.38810,Pergamon Döner & Pizza,Friedrichstraße 142,10117.0,,01100206
4851427390,52.49980,13.30761,Prime166,,10707.0,Berlin,04501043
4862244042,52.48108,13.42636,Dr Burger,Flughafenstraße 46,12053.0,Berlin,08100206
4862470678,52.54784,13.41337,Kukis,,,,03601142
4862470679,52.54784,13.41350,Daddys 100% Steak Kebap,,,,03601142
4862561443,52.53363,13.45722,Food for you,,,,03601450
4868155684,52.58822,13.28476,Burger Brothers,Berliner Straße 9,,,12200515
4870088444,52.51312,13.41776,Umami Sushi,Brückenstraße 5A,,,01100313
4870088445,52.51201,13.41714,Chicken Box,Brückenstraße 2,10179.0,Berlin,01100313
4876537893,52.50643,13.33351,Risa Chicken,Hardenbergplatz 2,10623.0,Berlin,04501042
4877987721,52.54932,13.41333,Kaplan,,,,03601142
4879038060,52.47810,13.32816,La Corniche,Bundesplatz 9,10715.0,Berlin,04501151
4889681830,52.49165,13.39248,Köfte 61,Gneisenaustraße 16,10961.0,Berlin,02200211
4908049916,52.51142,13.45809,Curry 66,Grünberger Straße 66,10245.0,Berlin,02500833
4910796621,52.49901,13.39310,Al Sultan Bistro,Mehringplatz 6,10969.0,Berlin,02100102
4913540400,52.52674,13.44782,Happy Food,,,,03601452
4917255673,52.53639,13.57361,Kombüse,,,,10100316
4924054913,52.49851,13.43987,El Taco Loco,Oppelner Straße 34,10997.0,Berlin,02300419
4927830032,52.53959,13.39554,Dominos,Stralsunder Straße 61,13355.0,Berlin,01300834
4935091671,52.42334,13.47440,Ni Hao,,,,08301037
4936116183,52.54648,13.59251,Döner Box,,,,10200417
4938911233,52.60680,13.20370,Havelfischerei,Fährstraße 16,13503.0,Berlin,12400617
4946850776,52.49523,13.43023,Sushi Moto,Ohlauer Straße 27,10999.0,Berlin,02300418
4948140221,52.49028,13.35299,La Pause,Goltzstraße 51,10781.0,Berlin,07100204
4948140432,52.50895,13.38839,Avan,Mauerstraße 81/82,,,01100205
4955492827,52.53074,13.19611,Burger Route,,,,05200629
4967590823,52.48771,13.35813,Has Mevlana,Hauptstraße 148,10827.0,Berlin,07200411
4968743796,52.51337,13.55417,Dönerhaus,Oberfeldstraße 1K,12683.0,Berlin,10300731
4970467348,52.45261,13.44906,Macs Bistro,,12359.0,Berlin,08200623
4974029892,52.51152,13.41692,Brgrs Brgrs,Brückenstraße 1A,10179.0,Berlin,01100313
4976233223,52.55001,13.42259,Prenzl Burger,Erich-Weinert-Straße 55,10439.0,Berlin,03601244
4977151891,52.48053,13.40707,Tempelburger,,,,08100102
4977255088,52.50161,13.35828,Asia Food-Sushi,,,,01100103
5008260581,52.50059,13.36419,Mahlzeit,Pohlstraße 61,10785.0,Berlin,01100104
5012888722,52.64115,13.37312,Imbiss am Teich,,,,
5014512832,52.53746,13.18717,Özge Grill,,,,05100316
5014542323,52.53734,13.18777,Mina ki Sushi Bar,,,,05100316
5034396388,52.49537,13.42025,Mangal Döner X Lukas Podolski,Kottbusser Damm 1,,,02200213
5037464928,52.58699,13.36767,Zur Currywurst,Hauptstraße 32,13158.0,Berlin,03400619
5037669578,52.52372,13.40921,Got Rice,Rosa-Luxemburg-Straße 5-7,10178.0,Berlin,01100310
5059169221,52.45294,13.45572,Rosa Döner,,,,08200728
5060308121,52.53814,13.63450,Asia-Imbiss,,,,10200524
5060341821,52.53639,13.60572,Aris Diner,,,,10200524
5076009924,52.51474,13.46642,Euro Bistro,Frankfurter Allee 61,10247.0,Berlin,02500728
5077036503,52.50606,13.46993,Nano Falafel,Neue Bahnhofstraße 26b,10245.0,Berlin,02500834
5080728653,52.48635,13.35628,7Days,Hauptstraße 21,10827.0,Berlin,07200409
5080757402,52.48684,13.35499,SchlaraffenLand,,,,07200409
5082266450,52.49258,13.45835,Elsendöner,,,,09100101
5092863432,52.50235,13.34215,Frittenwerk,,,,07100101
5100098646,52.61451,13.46940,Asia Imbiss,,,,03300412
5109788605,52.54816,13.35187,Smack Grill,Brüsseler Straße 6,13353.0,Berlin,01400942
5112895992,52.54584,13.36060,Hakiki,,,,01401043
5129702426,52.48158,13.36562,Naumanns Mittagstisch,,,,07200413
5131072108,52.56368,13.55157,An Minh Cuisine,Hellersdorfer Weg 36,12689.0,Berlin,10100205
5131072109,52.56349,13.55139,Pizza Planet,Hellersdorfer Weg 36,12689.0,Berlin,10100205
5144787668,52.48817,13.33533,Celbis,Berliner Straße 2,10715.0,Berlin,04501152
5155927535,52.55907,13.38548,Soldiner Kiez Burger,,,,01300731
5168382323,52.49391,13.38798,Asia Food & Sushi Bar,,,,02200208
5171487418,52.52189,13.40782,Dunkin,Karl-Liebknecht-Straße 13,10178.0,Berlin,01100310
5171487419,52.52195,13.40795,Le Hung,Karl-Liebknecht-Straße 13,10178.0,Berlin,01100310
5171804581,52.51141,13.46135,Boxi Burger,Gärtnerstraße 17,10245.0,Berlin,02500833
5190011817,52.58065,13.40152,Curry and Fritz,,,,03200206
5190422577,52.33975,13.60901,Dönermann Zeuthen,,,,
5191726512,52.52452,13.19721,Shawarma One,,,,05200630
5191726514,52.52541,13.19718,Sushi Yana,,,,05200631
5191728816,52.52136,13.19759,Buhara Stadt Grill,,,,05200630
5191728817,52.52168,13.19762,Giuseppe,,,,05200630
5191728819,52.52323,13.19788,Café Pause,,,,05200631
5191728938,52.51731,13.19745,Totti,,,,05200630
5191728940,52.52090,13.19818,Mona Lisa,,,,05200631
5191728944,52.52330,13.19786,Pizza Max,,,,05200631
5191728951,52.52760,13.19603,YokoSushi,Pichelsdorfer Straße 142,13595.0,Berlin,05200631
5191728954,52.53136,13.19732,Kristall,,,,05200629
5191728955,52.53179,13.19702,Lale Imbiss,,,,05200629
5191729398,52.52445,13.19725,Megagrill,,,,05200630
5191729399,52.52441,13.19762,Trien,,,,05200631
5191729408,52.53220,13.19742,Sofra,,,,05200629
5191729421,52.52431,13.19766,Thai-Imbiss,,,,05200631
5191729521,52.52435,13.19772,Pizza-Bar,,,,05200631
5196538348,52.37131,13.13436,,,,,
5198695391,52.51426,13.47475,Mustafa Demir´s Gemüse Kebap,,,,02500729
5198862481,52.44014,13.20749,,,,,06400737
5204923623,52.34978,13.62726,Pizza Europa Express,Goethestraße 26C,15738.0,Zeuthen,
5206445247,52.53546,13.35677,Coriander,Perleberger Straße 64,10559.0,Berlin,01200623
5222154373,52.53093,13.42282,Pizza Max,Winsstraße 1,10405.0,Berlin,03701659
5225086315,52.48761,13.43074,Falafel Jakoub,Weserstraße 14,12047.0,Berlin,08100311
5232602721,52.52518,13.34324,Big Döner,Alt-Moabit 87,10559.0,,01200626
5238513323,52.52684,13.33623,Risa Chicken,Turmstraße 39,10551.0,,01200520
5248627027,52.55733,13.37336,McDonalds,Osloer Straße 1,13359.0,Berlin,01300730
5248627029,52.55696,13.37345,Libanesischer Imbiss,,,,01401045
5248627033,52.55729,13.37340,Kral Pizza,,,,01300730
5249077079,52.49864,13.42600,Windburger,,10999.0,,02300417
5252959189,52.52063,13.29972,CharlottenBurger,,,,04300619
5268381952,52.51922,13.29046,Ibn Al-Shahba,,,,04300412
5270689567,52.46796,13.38522,yoko Sushi,Tempelhofer Damm 128,12099.0,Berlin,07400824
5270708178,52.49342,13.34558,Yoko Sushi,Martin-Luther-Straße 41,10779.0,Berlin,07100204
5270717024,52.53357,13.43047,yoko Sushi,Greifswalder Straße 36,10405.0,Berlin,03701660
5270743414,52.50412,13.38793,Yoko Sushi,Wilhelmstraße 24,10963.0,Berlin,02100102
5270997122,52.51065,13.28835,Dominos,Kaiserdamm 14,14057.0,Berlin,04300414
5271898789,52.53478,13.60731,yoko Sushi,Heidenauer Straße 25,12627.0,Berlin,10200524
5285630029,52.48465,13.34585,Eivgis Orientalische Spezialitäten,Belziger Straße 75,10823.0,Berlin,07200409
5298240101,52.49079,13.44774,Safari Falafel,Karl-Kunger-Straße 16,12435.0,Berlin,09100101
5302075023,52.53777,13.20335,Ye-Mc,,,,05100316
5318454922,52.59713,13.35513,KFC,,,,12601134
5324065554,52.47711,13.43911,The Eight,Karl-Marx-Straße 139,,,08100416
5324065568,52.47812,13.43837,Döner 44,,,,08100416
5344624634,52.49983,13.30796,Chicken Berlicious,,,,04501043
5345395907,52.54890,13.41402,CTR Chicken,Schönhauser Allee 74,10437.0,Berlin,03601346
5352674046,52.49890,13.42838,Pattaya II,Wiener Straße 69,10999.0,Berlin,02300417
5352674077,52.49894,13.42830,Khartoum,Wiener Straße 69,10999.0,Berlin,02300417
5353585219,52.49356,13.43646,Zad,,,,02300418
5354951065,52.54746,13.40920,Palmyra,,,,03601142
5358418937,52.54185,13.48856,Burgerhelden,Konrad-Wolf-Straße 99,13055.0,Berlin,11200513
5359877412,52.55760,13.37725,Adanus Çiğköfte,Drontheimer Straße 4,,,01300730
5362287309,52.60038,13.13483,Schönwalder Grill,,,,
5370108759,52.54762,13.41094,BurgerVision,Gleimstraße 36,10437.0,Berlin,03601142
5386152279,52.54980,13.41419,dean&david,Schönhauser Allee 79,,,03601243
5393663163,52.52387,13.40932,Angry Chicken,Rosa-Luxemburg-Straße 7,10178.0,Berlin,01100310
5393663165,52.52368,13.40919,Brammibals Donuts,Rosa-Luxemburg-Straße 5,10178.0,Berlin,01100310
5414911708,52.55516,13.43922,Hot Dog,,,,03500934
5418228073,52.38698,13.40845,Balli,,,,07601544
5433652220,52.36489,13.09273,Asia Cuisine,Am Moosfenn 1,14478.0,Potsdam,
5433993566,52.56425,13.39326,Extra Döner,,,,01300732
5440526359,52.46848,13.38496,Burger Pulse,Ringbahnstraße 75,12103.0,Berlin,07400824
5440526368,52.46847,13.38518,Yasaka Sushi,Tempelhofer Damm 124,12099.0,Berlin,07400824
5486309971,52.49962,13.44365,BurgerSteig,Falckensteinstraße 43,,,02300419
5489584669,52.50007,13.44419,delikato,Falckensteinstraße 44a,10997.0,Berlin,02300419
5502001882,52.49948,13.42840,Zagros,,,,02300315
5511985021,52.42982,13.25991,Subway,Teltower Damm 47,14167.0,Berlin,06300526
5512010608,52.52371,13.40035,Maloa,Oranienburger Straße 7,10178.0,Berlin,01100309
5515617504,52.52733,13.45013,East Kebap,Landsberger Allee 93,10407.0,Berlin,03601452
5517347429,52.42668,13.43495,Friday,,,,08200832
5517347431,52.43990,13.43430,Deniz Grill & Döner,Buckower Damm 50,12349.0,Berlin,08200729
5525134026,52.45393,13.38641,Bistro,,,,07400927
5526347198,52.42886,13.53227,Falafel Saida,Albert-Einstein-Straße 14,12489.0,Berlin,09200715
5528648739,52.52371,13.40011,Beef House,Oranienburger Straße 8,10178.0,Berlin,01100309
5529915380,52.51102,13.58705,Megagrill,,,,10400836
5537426290,52.49585,13.42863,Darfur,Reichenberger Straße 57,10999.0,Berlin,02300417
5539437431,52.47183,13.33593,Three dudes next door,Rheinstraße 67,12159.0,Berlin,07300618
5546461821,52.49828,13.41825,Mis Kebap,,10999.0,,02100106
5548822181,52.54233,13.36954,Nimet Sofrasi,Reinickendorfer Straße 120,13347.0,Berlin,01300836
5552707412,52.51332,13.30519,Dr. Foody,,10585.0,Berlin,04300621
5570450042,52.43472,13.34236,Gemüse Kebap,,,,06200313
5572048797,52.50831,13.45110,Jetpong,,,,02500834
5574652464,52.54031,13.41465,#MyDöner,Knaackstraße 98,10435.0,Berlin,03701555
5583212035,52.45796,13.38390,Neue Döneria,Tempelhofer Damm 204,,,07400825
5585055943,52.50287,13.47510,burgerme,,,,11400927
5586524802,52.50732,13.39021,McDonalds,Friedrichstraße 207,10969.0,Berlin,02100102
5588791124,52.41842,13.30515,Sultan,,,,06200420
5596117922,52.47224,13.44095,Tulsi,Karl-Marx-Straße 200,12055.0,Berlin,08100208
5598144260,52.54038,13.41256,mmaah Korean BBQ express,Schönhauser Allee 44,10435.0,Berlin,03701555
5605106521,52.47164,13.44595,Meva,Richardstraße 55,12055.0,Berlin,08100417
5612107083,52.46833,13.44211,Wunder Lampe,Karl-Marx-Straße 237,,,08100209
5615218527,52.50541,13.46931,Flava,Neue Bahnhofstraße 31,10245.0,,02500834
5617733806,52.50179,13.43183,Sahara Imbiss,Eisenbahnstraße 44,10997.0,Berlin,02300315
5625799849,52.50314,13.36604,Floryas Burger House,Potsdamer Straße 69,10785.0,Berlin,01100104
5643173693,52.55011,13.54822,Döner am Bahnhof,,,,10100210
5650550038,52.52204,13.32679,Rosso,Helmholtzstraße 24,10587.0,Berlin,04300620
5660368721,52.50289,13.44726,mundis,Warschauer Platz 18,10245.0,Berlin,02500835
5661506436,52.42301,13.43700,Haus des Burgers,Buckower Damm 232,12349.0,Berlin,08200832
5681341024,52.55166,13.20968,Burger City,,,,05100313
5684289998,52.35396,13.30687,Fleischerei & Imbiss Papenbrock,Dorfaue 14a,14979.0,Großbeeren,
5718697026,52.49717,13.36146,Döner & Chicken,,,,07100103
5718697027,52.49706,13.36140,Pizza Pasta Salat,,,,07100103
5718697033,52.49532,13.36084,Köfteci,,,,07100103
5736737654,52.49118,13.39482,N Noodles & Tea,Gneisenaustraße 24,10961.0,Berlin,02200211
5742012717,52.50761,13.38604,Landing Lounge,,,,01100205
5744378385,52.58606,13.23247,Susis Hexenhaus,Dohlenstraße 37,13505.0,Berlin,12400616
5767984153,52.54049,13.41255,Rüyam Gemüse Kebab 2,Schönhauser Allee 44a,10435.0,Berlin,03701555
5771282446,52.47903,13.42511,Damn Dog,Selchower Straße 35,12049.0,Berlin,08100102
5774792920,52.53784,13.20437,Lara Meister,,,,05100316
5774793092,52.53886,13.20490,Süd Bistro,,,,05100316
5777664296,52.55832,13.13549,Asia Snack & Döner,,,,
5784580101,52.53610,13.43390,Grill Melis,Danziger Straße 121,10407.0,Berlin,03601451
5787896213,52.49909,13.39986,The Yard,Alexandrinenstraße 125,10969.0,Berlin,02100103
5798361757,52.54241,13.23857,Grill N Chill,,,,05300737
5809015477,52.51009,13.37965,Schoko Fabrik Berlin,,,,01100205
5810918932,52.48021,13.35152,Dedem,,,,07200308
5812915500,52.49779,13.39169,k.bap,,10969.0,Berlin,02100102
5822845068,52.54168,13.42111,Taktiek,Göhrener Straße 8,10437.0,Berlin,03601348
5823169453,52.54068,13.35104,Thai Son Imbiss,Torfstraße 24,13353.0,,01401046
5837979305,52.46341,13.34439,Saki Sushi,Rubensstraße 122,12157.0,Berlin,07300619
5841263040,52.47896,13.42722,Mai Ha Snack,Hermannstraße 214-216,12049.0,Berlin,08100206
5843925610,52.54389,13.27433,,,,,04100101
5844370716,52.52757,13.34418,Asia Sushi,,,,01200625
5846036007,52.52943,13.40045,Burger Vision,,,,01100309
5849339560,52.48924,13.39427,Die Kleene Aubergine,,,,02200211
5849666901,52.53718,13.60731,Chikin Shack,Lyonel-Feininger-Straße 1,12627.0,Berlin,10200421
5859021395,52.48489,13.43308,Yasmin Alsham,,,,08100314
5863285414,52.50694,13.30164,Zait & Zaatar Falafel,,,,04300416
5864472479,52.50606,13.33195,Zaddys,Joachimsthaler Straße 3,10623.0,Berlin,04501042
5864814468,52.50624,13.30211,Black Burger,,,,04300416
5876598786,52.50862,13.42469,Imbiss,,,,01100313
5878487738,52.56209,13.20831,Curry 55,Streitstraße 55,13587.0,Berlin,05100102
5884940076,52.52232,13.40722,,,,,01100310
5887756699,52.55413,13.38333,Ugur Imbiss,,,,01300733
5887756711,52.55382,13.38311,Anadolu Grill,,,,01300733
5892715407,52.52901,13.18238,Kantine,,,,05200629
5908061678,52.53623,13.27242,Thien Thai Bistro,,,,05300841
5915883746,52.49007,13.40323,AnCom Kitchen,Gneisenaustraße 62,10961.0,Berlin,02200210
5922532240,52.37588,13.13948,Fantasia 63,,,,
5926477274,52.36276,13.10791,Konti Kebab,,,,
5938246807,52.53586,13.47427,k.bap,Weißenseer Weg 35-37,13055.0,Berlin,11200514
5938897751,52.47012,13.33347,Khao Hom,Rheinstraße 11,12159.0,Berlin,07300517
5966608730,52.46833,13.33157,Dominos,Rheinstraße 23,12161.0,Berlin,07300516
5972225785,52.50584,13.33174,Burgermeister,Joachimsthaler Straße 3,10623.0,Berlin,04501042
5976036419,52.46425,13.43337,Peanuts,Hermannstraße 145,12051.0,Berlin,08100209
5976049285,52.59950,13.30145,Dö Pi Sa,Waidmannsluster Damm 68,13509.0,Berlin,12500824
5978037264,52.52766,13.38693,Hito Falafel,Chausseestraße 4,,,01100415
5987841575,52.48453,13.35240,Rüyam,Hauptstraße 36,10827.0,Berlin,07200409
5996483932,52.51437,13.47469,Tam Yaki,,,,02500729
5997133551,52.51369,13.47499,Scoom,,10247.0,Berlin,02500729
5997709683,52.54925,13.20086,Baalbek Food,Schönwalder Straße 34,13585.0,Berlin,05100314
5999874211,52.51109,13.50303,Gusto Corner,Frankfurter Allee 271,10317.0,Berlin,11401032
6024481191,52.43146,13.53766,Fisch mit Biss,Albert-Einstein-Straße 1-3,12489.0,Berlin,09200715
6032114408,52.52453,13.30154,Vincent Burger,Tauroggener Straße 9,10589.0,Berlin,04300517
6032488231,52.66183,13.15048,Imbiss,,,,
6032523115,52.50614,13.44733,Rewe Deli am Markt,,,,02400625
6032523123,52.50627,13.44643,Key‘s,,,,02400625
6038453205,52.43651,13.37168,Burger Vision,Lankwitzer Straße 4,12107.0,Berlin,07501133
6040097378,52.49996,13.44126,The Hummusapiens,Oppelner Straße 45,,,02300419
6058462657,52.55990,13.33485,Ibn Alsham,Müllerstraße 95,13349.0,Berlin,01400937
6091000633,52.50802,13.39372,Q Burger,Zimmerstraße 68,10117.0,Berlin,01100207
6103423928,52.50529,13.44334,Five Guys,Hedwig-Wachenheim-Straße 12,10243.0,Berlin,02400625
6103424391,52.50545,13.43963,Som´s Kitchen,,,,02400625
6103424403,52.50458,13.44255,dean&david,Mühlenstraße 15-19,10243.0,Berlin,02400625
6108923474,52.55341,13.34719,Adam 2,Müllerstraße 55,13349.0,Berlin,01400939
6111118985,52.57124,13.40966,da Lionello,Breite Straße 9,13187.0,Berlin,03400724
6119368038,52.47841,13.43846,Asia Imbiss,,,,08100416
6119970979,52.47809,13.34312,Back Baron,,,,07300517
6119970980,52.47020,13.34087,Back Baron,,,,07300618
6119970981,52.47909,13.35160,Back Baron,,,,07300619
6119970982,52.46933,13.44168,Back Baron,,,,08100208
6123731649,52.48920,13.39461,Agora,,,,02200211
6123731652,52.48917,13.39524,Lola,,,,02200211
6123731653,52.48922,13.39441,Pizzeria Sebastiano,,,,02200211
6123731669,52.48918,13.39516,Asia Snack,,,,02200211
6133497361,52.56004,13.09023,Anthony Bacon – Homemade Burger,Bahnstraße 5-12,14612.0,Falkensee,
6149168941,52.53324,13.28022,"Aramark Restaurant ""TechnoCampus""",,,,05300840
6157289424,52.56405,13.37767,Burger Provinz,,,,12100101
6181021245,52.52885,13.38552,Kebap 63,Chausseestraße 12,,,01100415
6183459684,52.42162,13.33421,Constantino.de,,,,06200422
6199482185,52.51130,13.43504,pelmini Welt,Erich-Steinfurth-Straße 11,,,02400623
6199503251,52.37685,13.12946,Joppe,,,,
6200355874,52.51019,13.28105,Dunkin,,,,04200311
6200502155,52.51076,13.53477,VIBE,,,,11401033
6213513092,52.49589,13.29530,Asia-Imbiss,,,,04500938
6221609396,52.50426,13.44303,Chupenga,Mühlenstraße 13,10243.0,Berlin,02400625
6223462328,52.48624,13.42917,Shawarma Albaik,,,,08100314
6254467217,52.46525,13.45594,KFC,,,,08100521
6261706574,52.50002,13.44132,Singh Indian Streetfood,Oppelner Straße 45,,,02300419
6275819866,52.46076,13.50262,KFC,Schnellerstraße 18A,12439.0,Berlin,09200613
6280920395,52.37591,13.12873,Food Connection,,,,
6281646011,52.53632,13.27202,Alte Forno,Siemensdamm 47,13629.0,Berlin,05300841
6285558212,52.42863,13.34705,Dönerwache,,,,06200315
6296198913,52.42276,13.48654,Call a Pizza,Uhrmacherweg 2,,,08401242
6308730870,52.56008,13.09006,Sushi & Bubble Tea,Bahnstraße 7,14612.0,Falkensee,
6312363439,52.59011,13.28916,Linh Asia Imbiss,Gorkistraße 28,13509.0,Berlin,12500824
6322831828,52.54396,13.49826,Kiez Imbiss,,,,11200513
6331736864,52.47489,13.43973,Barakat Tandur Brot,Karl-Marx-Straße 168,12043.0,Berlin,08100207
6331736865,52.47493,13.43972,Cool Burger,Karl-Marx-Straße 168,12043.0,Berlin,08100207
6334039491,52.50684,13.30687,Burger King,Wilmersdorfer Straße 112,10627.0,Berlin,04300623
6340721409,52.50662,13.31086,Maloa,Kantstraße 48,10625.0,Berlin,04300623
6364707596,52.43052,13.25869,Zehlendorf Grill,Machnower Straße 1,14165.0,Berlin,06300526
6372076781,52.49228,13.39445,Pizza Meister,Zossener Straße 12,10961.0,Berlin,02200210
6379263620,52.38290,13.12205,Smash House Smash Burger,,,,
6379263621,52.38295,13.12213,VietLight,Wetzlarer Straße 1a,14482.0,Potsdam,
6391968824,52.41414,13.40099,Lichtenrader Grillhaus,,,,07601442
6401352846,52.49736,13.36212,Burger & Döner City,Potsdamer Straße 129,10783.0,Berlin,07100205
6406006295,52.39353,13.40630,Curry-Point,,,,07601544
6407030765,52.52380,13.62110,Pizza Planet Mahlsdorf,Hönower Straße 214,12623.0,Berlin,10400938
6409922043,52.50692,13.30579,Trattoria Buongiorno,Kantstraße 57,10627.0,Berlin,04300623
6414536339,52.51455,13.46419,Bilakiss,Frankfurter Allee 44,10247.0,Berlin,02500831
6414810312,52.51500,13.46396,Wilde Wiese,Frankfurter Allee 47,10247.0,Berlin,02500728
6417937513,52.52194,13.58690,Asia Snack,Hellersdorfer Straße 77-83,12619.0,Berlin,10200629
6423792861,52.50642,13.33826,Imbiss,,,,01100102
6430926122,52.52728,13.33141,Hoa Sushi,Turmstraße 53,10551.0,Berlin,01200519
6430926124,52.52719,13.33257,Burgervision,,,,01200519
6434286148,52.55483,13.43724,Berlin Burger Lover,Gustav-Adolf-Straße 145,,,03500934
6434287694,52.56769,13.51345,Hung Asia Kochen mit Herz,Egon-Erwin-Kisch-Straße 106,13059.0,Berlin,11100206
6435238742,52.45270,13.57612,Burger City,,,,09501941
6438275352,52.48973,13.38845,Sara Chicken Gemüse Kebap,,,,02200211
6441462675,52.51425,13.33314,Betriebsrestaurant des BBR,Straße des 17. Juni 112,10623.0,Berlin,04300620
6441636769,52.50620,13.31818,Next to Kuchi,Kantstraße 30,10623.0,Berlin,04300624
6441944685,52.50613,13.31990,allPasta,Kantstraße 25,10623.0,Berlin,04300624
6447159192,52.43663,13.34559,TAS Gemüse Kebap,,,,06200313
6458101683,52.43849,13.17727,Ladenstraße,,,,06400737
6463904795,52.51514,13.46757,Pizza Roma,Voigtstraße 42,10247.0,Berlin,02500728
6464021203,52.51492,13.46749,Musti Döner,Voigtstraße 43,10247.0,Berlin,02500728
6482731528,52.50659,13.30682,Sain Gon Pho,,10627.0,Berlin,04300623
6482848241,52.67326,13.31750,Döner Point,Birkenwerderstraße 2,16562.0,Hohen Neuendorf,
6486127956,52.50582,13.30696,Schawarma Kebap Station,,10627.0,Berlin,04300623
6488286112,52.50549,13.33089,Hakiki,Kantstraße 6,10623.0,Berlin,04501042
6489432987,52.44618,13.31565,Indian dream,Hindenburgdamm 57a,12203.0,Berlin,06300630
6489433089,52.44790,13.31556,Boysburger,,12203.0,,06300630
6496727306,52.54078,13.14746,Homemade Kitchen,Am Heideberg 12,13591.0,Berlin,05200419
6498044658,52.51998,13.38849,Mishba,Friedrichstraße 98,10117.0,Berlin,01100206
6500853481,52.50625,13.33331,Tudo,Hardenbergplatz 2,10623.0,,04501042
6503854373,52.45480,13.32748,Manhattan Pizza,Albrechtstraße 114,12167.0,Berlin,06100208
6503854877,52.45464,13.32793,Thai Sushi,Albrechtstraße 112,12167.0,Berlin,06100208
6505903897,52.53412,13.48622,MEGO Döner Box,Landsberger Allee 217 B,13055.0,Berlin,11200514
6532305052,52.55192,13.34981,Babas Döner,Müllerstraße 47A,13349.0,Berlin,01400938
6532305053,52.55191,13.34890,Gel Doy,Kameruner Straße 1,13351.0,Berlin,01400938
6563543226,52.50883,13.30479,Thang Long Food,,,,04300623
6564578074,52.48702,13.48124,Soul Kitchen von Sibel,,,,09100101
6564735891,52.49313,13.46547,La Casita,,,,09100101
6566159239,52.49336,13.38760,Gogi Boss,Mehringdamm 38,10961.0,Berlin,02200208
6569710891,52.53167,13.34928,Mini Perle,Perleberger Straße 52,10559.0,Berlin,01200623
6581421550,52.48114,13.43452,Dunkin,,,,08100206
6583972306,52.49214,13.37107,refueat,Bautzener Straße 40,10829.0,Berlin,07100206
6593074840,52.42103,13.17799,k.bap,,,,06400735
6593565216,52.50124,13.30777,Naenia,,,,04501040
6595152134,52.47895,13.43126,Babettes Imbiss,,,,08100206
6596177154,52.49888,13.35370,Ceylan Kebap Haus,,,,07100102
6596758439,52.49033,13.44903,Neue Republik Reger,Bouchéstraße 79A,12435.0,Berlin,09100101
6600074638,52.55154,13.34964,Baba Sultan Köfteci,,,,01400938
6602072797,52.40114,13.26711,Pizza Jack,Berliner Straße 10,14513.0,Teltow,
6610291460,52.54956,13.35103,See Grillhaus,Seestraße 40,13353.0,Berlin,01400942
6644398839,52.47846,13.42007,han west - home of dumplings,Selchower Straße 20,12049.0,Berlin,08100102
6680211887,52.52451,13.36907,Curry 36,,,,01200628
6680326675,52.54127,13.41220,Taco Love,,10437.0,Berlin,03601142
6682294730,52.45707,13.32200,City Döner,Albrechtstraße 131,12165.0,Berlin,06100102
6684579291,52.47072,13.32024,doppelt Käse Burger,Laubacher Straße 11,14197.0,Berlin,07300516
6687987541,52.48173,13.42513,Burgerzimmer IV,Hermannstraße 232,12049.0,Berlin,08100206
6691677966,52.54764,13.36893,Dar4,Reinickendorfer Straße 95,13347.0,Berlin,01401043
6697053514,52.51027,13.38047,KFC,,10117.0,Berlin,01100205
6710021096,52.55751,13.46590,Ossis Bistro,Rennbahnstraße 2,13086.0,Berlin,03501037
6712455253,52.54545,13.36035,Büngers Fleischersnack,,,,01401047
6723346506,52.51054,13.38035,3CO Fresh Thai Street Food,,,,01100205
6723408552,52.48655,13.35844,Komagene,,10827.0,Berlin,07200411
6724739401,52.50375,13.48593,AVCI Bistro,Leopoldstraße 38A,,,11400929
6734418241,52.51791,13.38849,Little Green Rabbit,Friedrichstraße 153A,,,01100206
6758032286,52.48438,13.38448,Döneria,Manfred-von-Richthofen-Straße 4,12101.0,Berlin,07400720
6781015470,52.36666,13.55626,IKEA Restaurant,Am Rondell 8,12529.0,Schönefeld,
6781044505,52.53401,13.51366,IKEA Restaurant,Landsberger Allee 364,10365.0,Berlin,11300721
6794064753,52.55173,13.43082,Dominos,Gustav-Adolf-Straße 1,13086.0,Berlin,03500934
6806395696,52.48105,13.43454,Best Gemüse Kebap,,,,08100206
6814939693,52.51462,13.46352,Bad Boys,Frankfurter Allee 44,10247.0,Berlin,02500831
6815718373,52.55032,13.35155,Adora Döner Kumru,,,,01400942
6818256668,52.46668,13.43307,Happy Chicken King,Silbersteinstraße 54,12051.0,Berlin,08100209
6819782959,52.51030,13.38055,Gios Cucina,Leipziger Platz 12,10117.0,Berlin,01100205
6841510978,52.54333,13.44089,Şah,Greifswalder Straße 157,10409.0,Berlin,03601245
6853818563,52.49969,13.35351,Nollen Asia Imbiss,,,,07100102
6866862475,52.64879,13.51518,Dönerhaus 63,Heinestraße 52,16341.0,Panketal,
6882944685,52.52610,13.33005,Bamboo,Gotzkowskystraße 7,10555.0,Berlin,01200521
6888252954,52.38652,13.40255,Monkey Donuts,,,,07601544
6893201844,52.43667,13.44804,Thai-Nippon Sushi-Bar,,,,08200730
6913471110,52.49334,13.29588,Sorae,Joachim-Friedrich-Straße 1,10711.0,Berlin,04500938
6943576756,52.48797,13.43036,Harrys Sliders,Weserstraße 205,12047.0,Berlin,08100311
6985805085,52.51095,13.43400,Succis,,,,02400623
7006418797,52.50153,13.32204,Kreuzburger,Knesebeckstraße 65-64,10719.0,Berlin,04501041
7006961285,52.53964,13.42279,Jimmyz,Danziger Straße 63,10435.0,Berlin,03601348
7010915585,52.48242,13.44130,Beyburcù,Wildenbruchstraße 4,12045.0,Berlin,08100418
7011253943,52.56779,13.51258,Macs Deluxe,Egon-Erwin-Kisch-Straße 98,13059.0,Berlin,11100206
7012063012,52.52085,13.41399,Five Guys,Alexanderplatz 2,10178.0,Berlin,01100310
7012366286,52.48560,13.36213,Tuana Feinkost,Kolonnenstraße 12,10829.0,Berlin,07200413
7018706397,52.39157,13.09136,Damaskus Express,,,,
7020226647,52.54038,13.41493,Pizzasn Burgers,Danziger Straße 12,10435.0,Berlin,03701555
7024048974,52.48612,13.42528,Hazar Kebab,Karl-Marx-Straße 5,12043.0,Berlin,08100314
7036400895,52.48123,13.42753,Savanna sudanesische spezialitäten,Mainzer Straße 21,12053.0,Berlin,08100206
7038043745,52.49332,13.33198,Döner Kebap,,,,04501152
7041331264,52.42805,13.32679,Kebab 45,,,,06200422
7058959143,52.65405,13.19783,Call a Pizza,Rigaer Straße 23,16761.0,Hennigsdorf,
7060011377,52.49344,13.38852,Mustafas Gemüse Kebap,Mehringdamm 33,10961.0,Berlin,02200210
7066762912,52.48508,13.35474,Devil’s Smashburger,Hauptstraße 136,10827.0,Berlin,07200410
7067306937,52.48107,13.34951,Juicy Burger,Dominicusstraße 40,10827.0,Berlin,07200308
7082622447,52.53242,13.41214,All In.,Schönhauser Allee 173,,,03701554
7089755262,52.52528,13.33030,Sushi Mana,Gotzkowskystraße 29,10555.0,Berlin,01200521
7100143995,52.63268,13.30987,Spitzen Kebap,,,,
7104496147,52.50463,13.33870,Mago Grill,,,,04501042
7104496148,52.50463,13.33879,Pausa Pranzo,,,,04501042
7104496149,52.50462,13.33889,Cupn go,,,,04501042
7132010679,52.50638,13.45041,Curry 36,,,,02500835
7137355961,52.51644,13.38122,Panini Bar,,,,01100206
7152166754,52.51969,13.17141,Sand 66,Sandstraße 66,13593.0,Berlin,05200527
7167400031,52.44200,13.45651,Ali‘s Gemüse Kebap,,,,08401139
7176856812,52.57034,13.40387,Asia Gourmet,,,,03400722
7176856813,52.57029,13.40391,Center-Grill,,,,03400722
7230317638,52.48484,13.38304,,Dudenstraße 15,,,07400720
7233554324,52.54333,13.44236,Mago Berlin,Greifswalder Straße 90,10409.0,Berlin,03601449
7235438321,52.56110,13.50007,Alanya Grill,Hansastraße 236,13051.0,Berlin,11200410
7235772170,52.53102,13.37615,Kantine im Bundesministerium für Verkehr,Invalidenstraße 44,,,01100308
7248397816,52.48205,13.43389,Çiğköftem,Karl-Marx-Straße 75,12043.0,Berlin,08100314
7252377713,52.50752,13.46751,Selos Döner House,Boxhagener Straße 55,,,02500833
7258243419,52.47131,13.42945,Caglayan,Hermannstraße 175,12051.0,Berlin,08100208
7276606524,52.54463,13.18241,Pizza Bulls,Wittgensteiner Weg 21,13583.0,Berlin,05100209
7276781610,52.47387,13.44108,Meydan,,,,08100416
7276781770,52.47389,13.44129,Marabda Gözleme,,,,08100416
7292820132,52.48512,13.35368,7 Days,,,,07200409
7308376026,52.54369,13.41669,Dade Falafel,Raumerstraße 38,10437.0,Berlin,03601347
7308440298,52.54232,13.41928,Nest,Raumerstraße 12,10437.0,Berlin,03601347
7311262784,52.53967,13.42267,Pizza Supreme,Danziger Straße 63,10435.0,Berlin,03601348
7357006636,52.52310,13.17342,Döner club,,,,05200527
7438355303,52.48690,13.32017,Manakish Spot,,,,04501147
7454962963,52.52844,13.19073,Dominos,Seeburger Straße 11,13581.0,Berlin,05200629
7473599717,52.53208,13.35007,Güllü Lahmacun,,10559.0,,01200623
7476846911,52.42700,13.44861,Döner Insel,,,,08300935
7511559779,52.45774,13.38383,Dominos,Tempelhofer Damm 206,12099.0,Berlin,07400825
7530005423,52.47803,13.32884,Ava Pizza Pasta,,,,04501153
7530005424,52.47713,13.32880,Street Food El Turco,,,,07300517
7542027544,52.57774,13.31570,Zur Kastanie,,,,12200308
7547543644,52.66492,13.49062,Hobi Love,,,,
7554171385,52.46933,13.33266,Chicken Paniert,Rheinstraße 18,12159.0,Berlin,07300517
7589076276,52.50565,13.41206,Burger Zimmer,Heinrich-Heine-Straße 38A,10179.0,Berlin,01100312
7589655328,52.52404,13.46162,Mikadoo,,,,03601453
7598895259,52.47765,13.32873,CUCCIS,,,,04501153
7598895275,52.46944,13.33204,Galileo,Schmiljanstraße 18,12161.0,Berlin,07300517
7605882341,52.55375,13.34573,Döneria,Müllerstraße 122C,13349.0,Berlin,01400938
7609092400,52.55330,13.34631,Vina Bistro Viet-Thai,,,,01400938
7609552680,52.47782,13.43857,Chaikhana,Karl-Marx-Straße 125,12043.0,Berlin,08100416
7612272353,52.55483,13.34469,Hisar 76,Müllerstraße 59B,13349.0,Berlin,01400939
7612272361,52.55641,13.34191,Döner x Burger,Müllerstraße 65A,13349.0,Berlin,01400939
7612272370,52.55590,13.34281,Mephisto,Müllerstraße 63,13349.0,Berlin,01400939
7613427814,52.43063,13.25907,Bobsek Burger,Teltower Damm 38,14167.0,Berlin,06300526
7615989819,52.55217,13.34852,Gold kebap,Müllerstraße 129,13349.0,Berlin,01400938
7617393575,52.38730,13.11713,Kongs Quest,,,,
7623970719,52.61530,13.47068,Burger Karow Pizza,,,,03300412
7629461508,52.50613,13.33179,Dunkin,,,,04501042
7633023883,52.55558,13.34248,Bistro Rehberge,Müllerstraße 113A,13349.0,Berlin,01400937
7640755747,52.47591,13.34031,Friedenauer Grill Bistro,Hauptstraße 68a,12159.0,Berlin,07300517
7651431556,52.44290,13.33155,Ceesers,Birkbuschstraße 47,12167.0,Berlin,06200312
7653520777,52.47134,13.33819,Berlin Çiğköfte,Hedwigstraße 5,12159.0,Berlin,07300618
7659404110,52.48115,13.34717,Chefburger Hühnerwald,Hauptstraße 54,10827.0,Berlin,07200308
7659404111,52.48128,13.34735,Shagun,Hauptstraße 54,10827.0,Berlin,07200308
7667001176,52.50717,13.30196,Döner Bros,,,,04300416
7679662980,52.38685,13.40743,Dominos,Bahnhofstraße 2-3,,,07601544
7680233945,52.49687,13.52335,Tierpark Bistro,,,,11401137
7682213985,52.52121,13.41129,Thang Long Asia Food,,,,01100310
7692607316,52.48762,13.31824,Mille Gusti,Brandenburgische Straße 79,10713.0,Berlin,04501146
7704696587,52.49535,13.39797,Dominos,Brachvogelstraße 1,10961.0,Berlin,02200210
7713037875,52.45024,13.26991,Döner,,,,06400842
7726566090,52.53910,13.57907,,,,,10100316
7728560785,52.57368,13.33119,Imbiss König,,,,12200307
7740377650,52.54744,13.34704,Harbi Burger,,,,01400942
7747350424,52.46973,13.34176,Dewis Kebaphaus,,,,07300619
7750105823,52.59681,13.35385,Pia Bistro,Wilhelmsruher Damm 138-140,13439.0,Berlin,12601134
7800972465,52.50928,13.49800,Sahara,Weitlingstraße 15,10317.0,Berlin,11400929
7810575570,52.55905,13.31407,Zum Würfel II,,,,12200411
7823219652,52.43730,13.23222,Dreamz,Mexikoplatz 1,14163.0,Berlin,06400839
7829097486,52.57053,13.32136,Berlin Bürger Box,,,,12200308
7832871869,52.53811,13.60287,Dominos,Fritz-Lang-Straße 8,12627.0,Berlin,10200421
7832871870,52.55721,13.57113,Dominos,Oberweißbacher Straße 9,12687.0,Berlin,10100206
7835643847,52.50255,13.33849,dean&david,,,,04501042
7852887385,52.46514,13.38583,Hamdi Baba Döner,,,,07400927
7853722744,52.51285,13.38972,Pret A Manger,Friedrichstraße 70,10117.0,Berlin,01100206
7887845873,52.51395,13.47447,Dunkin,Frankfurter Allee 111,10247.0,Berlin,02500729
7887851888,52.51404,13.47431,Thang Long,Frankfurter Allee 111,10247.0,Berlin,02500729
7888455685,52.49454,13.43307,Sahara,Reichenberger Straße 71,10999.0,Berlin,02300418
7902888553,52.51530,13.46439,Supreme Beef,Samariterstraße 39,,,02500728
7934891686,52.50324,13.41264,Dominos,Oranienstraße 52,10969.0,Berlin,02100104
7951358897,52.45384,13.51964,Call a Pizza,Schnellerstraße 44,,Berlin,09200613
7969257240,52.47266,13.42836,Habba,Hermannstraße 180,12049.0,Berlin,08100104
7978410736,52.56338,13.36546,Grillhaus Vira,,,,12100101
7978440749,52.57071,13.36102,Baba Sultan Köfteci,,,,12100103
7980809141,52.44899,13.31561,M&S Gemüsekebap,Hindenburgdamm 61,12203.0,Berlin,06300630
8018733192,52.67420,13.31568,Pizza Station,Birkenwerderstraße 7,16562.0,Hohen Neuendorf,
8038060887,52.63693,13.37396,Norma’s delicious food on wheels,,,,
8039726234,52.51092,13.30559,Hummusapiens,Wilmersdorfer Straße 133,10627.0,Berlin,04300623
8039726235,52.51040,13.30575,Wilma Döner,Wilmersdorfer Straße 130,10627.0,Berlin,04300623
8044108285,52.42411,13.48500,Istanbul Grillhaus,,,,08301037
8072041456,52.54240,13.34804,Can Imbiss,,,,01400938
8081778703,52.41263,13.57297,Batman,Richterstraße 16,,,09301126
8090973082,52.46939,13.33272,Mulkiano,Rheinstraße 17,12159.0,Berlin,07300517
8095094766,52.48086,13.43593,Pi-Kant,Erkstraße 1A,12043.0,Berlin,08100415
8096733563,52.54912,13.20039,Orient Turka,Schönwalder Straße 80,13585.0,Berlin,05100312
8104240160,52.47711,13.43863,TazaShawarma,Karl-Marx-Straße 140,12043.0,Berlin,08100207
8118641617,52.56037,13.33396,China Thai imbiss,,,,01400937
8120284417,52.55875,13.33689,Müller Döner,,,,01400937
8120989385,52.45750,13.32033,PommStore Döner,,,,06100102
8120989386,52.45743,13.32054,Mahal Express,Schloßstraße 34,12163.0,Berlin,06100102
8128338992,52.49312,13.46552,Green Harbor,,,,09100101
8149767941,52.45962,13.52423,burgerme,Wilhelminenhofstraße 48,12459.0,Berlin,09200511
8165609731,52.46360,13.32683,Pizzazone,Schloßstraße 6,12163.0,Berlin,06100103
8174262917,52.54672,13.35930,DJ Bombay Foodtruck,,,,01401048
8176633062,52.46535,13.32794,ViChin-Gourmet,,,,07300516
8177206739,52.46433,13.32823,Maloa,Schloßstraße 129,12163.0,Berlin,06100103
8223127046,52.48143,13.34968,Mir Döner,Dominicusstraße 33,10827.0,Berlin,07200308
8225184069,52.50629,13.30934,Damn Dog,,,,04300623
8229132670,52.45449,13.51625,Miras Grill,Schnellerstraße 36,12439.0,Berlin,09200613
8261376022,52.44496,13.62616,Restaurant Ehrlich,,,,09501737
8264913093,52.50161,13.33460,Earth Tokyo,Augsburger Straße 29,10789.0,Berlin,04501042
8265318077,52.48554,13.34534,Martin’s Döner,Martin-Luther-Straße 99,10825.0,Berlin,07200409
8290426030,52.50311,13.42989,Olive,,,,02300315
8298175713,52.54099,13.37036,Diazo,Reinickendorfer Straße 5,13347.0,Berlin,01300836
8298175714,52.54122,13.37032,Lokman Hekim,Reinickendorfer Straße 7,13347.0,Berlin,01300836
8307055349,52.60001,13.34083,Emir Kebap,,,,12601031
8307219758,52.61777,13.30585,Hermsdorf Kebap,Heinsestraße 37,13467.0,Berlin,12400722
8307219759,52.61928,13.30476,PIZZA & BURGER,Heinsestraße 53,13467.0,Berlin,12400722
8316494897,52.59588,13.33528,Pizza Frabrik,Wilhelmsruher Damm 236,13435.0,Berlin,12500927
8321967541,52.59642,13.34624,Chicken & Burgerstall,Wilhelmsruher Damm 170,13435.0,Berlin,12601236
8321967542,52.59635,13.34654,MV FoodCorner,Wilhelmsruher Damm 168,13435.0,Berlin,12601236
8329195037,52.59822,13.35301,Orient Kitchen,Wilhelmsruher Damm 142D,13439.0,Berlin,12601134
8330198883,52.60431,13.36647,Mustis Quick Kebap,Quickborner Straße 76,13439.0,Berlin,12601133
8330505681,52.60537,13.35698,"Grill Time - Döner, Pizza, Burger",Senftenberger Ring 46,13435.0,Berlin,12601134
8348759993,52.53334,13.41321,Asia Street Food,,,,03701556
8356956766,52.61404,13.31581,Pizza Max,Berliner Straße 137,13467.0,Berlin,12400723
8364623972,52.47580,13.42336,Black Rhino,Kienitzer Straße 112,12049.0,Berlin,08100102
8379002236,52.46565,13.32534,Ayu Japanese Cuisine,Bornstraße 7,12163.0,Berlin,07300516
8389925452,52.49253,13.33121,bundes burger,Bundesallee 199,10717.0,Berlin,04501152
8390667224,52.54884,13.59638,Wurst Teufell,,,,
8392060198,52.42775,13.74760,Fränks,Berliner Straße 5a,15537.0,Erkner,
8413213036,52.45666,13.50855,Thüringer Roster,Schnellerstraße 21,12439.0,Berlin,09200613
8413213037,52.45669,13.50849,Schöneria,Schnellerstraße 21,12439.0,Berlin,09200613
8421628964,52.44548,13.32958,Call a Pizza,Birkbuschstraße 39,12167.0,Berlin,06100206
8423496201,52.48936,13.34443,Bluhms,Grunewaldstraße 39,10825.0,Berlin,07200307
8423617314,52.48075,13.35023,Thai Viet Snack,Dominicusstraße 42,10827.0,Berlin,07200308
8423624618,52.48052,13.35079,Dominos,Dominicusstraße 46,10827.0,Berlin,07200308
8430677476,52.55540,13.55992,ASIA FOOD,,,,10100208
8430677477,52.55538,13.55999,Eiskristall Döner,,,,10100208
8459383487,52.45818,13.57838,Pizza & Pasta,Bahnhofstraße 33-38,12555.0,Berlin,09501939
8459383489,52.45824,13.57843,Kartoffel-Theke,Bahnhofstraße 33-38,12555.0,Berlin,09501939
8462294817,52.56596,13.50376,Grill Zone,Zingster Straße 14,13051.0,Berlin,11100307
8463977958,52.56980,13.49661,Aladin Bistro,Ribnitzer Straße 17A,13051.0,Berlin,11100308
8463977959,52.56976,13.49652,Yasmin,Ribnitzer Straße 17A,13051.0,Berlin,11100308
8463977960,52.57044,13.49620,My Döner,Ribnitzer Straße 24,13051.0,Berlin,11100308
8463977991,52.57117,13.49984,Aladdins Döner,,,,11100307
8463977992,52.56968,13.49632,Mandy,Ribnitzer Straße 19,13051.0,Berlin,11100308
8464152662,52.56976,13.56715,Arkaden Bistro,Havemannstraße 4A,12689.0,Berlin,10100103
8464152667,52.56534,13.57692,Epis,Rabensteiner Straße 36,12689.0,Berlin,10100104
8487216797,52.55006,13.56361,Alanya,Jan-Petersen-Straße 20,12679.0,Berlin,10100209
8487216798,52.54975,13.56477,Bistro Marzahn,Jan-Petersen-Straße 18,12679.0,Berlin,10100209
8489936384,52.51007,13.51176,Blizzeria Berlin,Alt-Friedrichsfelde 22,10315.0,Berlin,11400931
8511269417,52.45916,13.38477,Ege Gemüse Kebab,Tempelhofer Damm 193,12099.0,Berlin,07400927
8561915236,52.48550,13.36237,Döner 27,,,,07200413
8564425698,52.51703,13.17951,Manhattan Burger,Wilhelmstraße 36,13593.0,Berlin,05200527
8571336023,52.55723,13.57069,Bistro Deniz,Oberweißbacher Straße 7-9,12687.0,Berlin,10100206
8572859824,52.51132,13.45246,East Side Burrito,,,,02500833
8589312783,52.49967,13.32455,Burger City,,,,04501044
8637878896,52.48138,13.34997,Papa Grill,Feurigstraße 39,10827.0,Berlin,07200410
8655479726,52.49389,13.50691,Curry Burger Beer,,,,11401135
8658263582,52.48267,13.44119,Kilimanjaro Wraps & Bowls,Wildenbruchstraße 88,,,08100312
8672587818,52.56698,13.51400,Bistro Alanya,,,,11100206
8677079271,52.50911,13.37462,Borkowskis Original Berliner Currywurst,Potsdamer Straße 1,10785.0,Berlin,01100102
8686567378,52.46233,13.3678,Asian Food,,,,07400822
8699221988,52.45597,13.32239,Kümes Chickenhouse,,,,06100102
8711922372,52.54074,13.40594,Mauer Kebap,Eberswalder Straße 4,,,03701554
8726328726,52.56858,13.37465,Mariacho Lieferservice,,,,12100102
8731651541,52.63300,13.28735,die FoodWerkstatt,Ludolfingerplatz 6,13465.0,Berlin,12400720
8766255547,52.42501,13.57502,Pizzeria Cucina,Regattastraße 35,12527.0,Berlin,09301126
8785403717,52.59636,13.34653,Food Corner,,,,12601236
8785404117,52.58106,13.34591,Call a Pizza,,,,12100205
8792865051,52.56598,13.10204,Yoko Sushi,Bahnhofstraße 1a,14612.0,Falkensee,
8801414018,52.48077,13.43573,,Karl-Marx-Straße 87,12043.0,Berlin,08100415
8806284617,52.53804,13.60706,Cam Ly Bistro,,,,10200421
8809221743,52.48215,13.43393,Burger Kombo,Fuldastraße 1,,,08100314
8809522053,52.45121,13.32984,Saiko Sushi Bar,,,,06100206
8833791797,52.44352,13.31539,Yoko Sushi,Hindenburgdamm 92,12203.0,Berlin,06300633
8836934512,52.67291,13.56914,Palast Bistro,,,,
8850187008,52.53325,13.40096,El Amigo Taqueria,Veteranenstraße 21,10119.0,Berlin,01100416
8850856431,52.42363,13.39639,Konti Döner,,,,07501134
8851304189,52.45586,13.32417,Risa Chicken,Albrechtstraße 8,12165.0,Berlin,06100102
8865878635,52.37727,13.11615,Feldküche,,,,
8870398628,52.50567,13.30371,City Chicken,Stuttgarter Platz 10,10627.0,Berlin,04300623
8941761764,52.50538,13.32706,Shawafel,,,,04300622
8944369250,52.42726,13.36648,Middle Eats,Belßstraße 42,12249.0,Berlin,06200317
8948957617,52.53200,13.41164,Taquería El Oso,,,,03701554
8951362205,52.45481,13.38484,The Burgerbar,,,,07400927
8956548950,52.48981,13.60627,Nello Panini,Rastatter Straße 3,12623.0,Berlin,10400940
8960917297,52.53899,13.27014,Pizzeria al Ponte,Quellweg 35a,13629.0,Berlin,05300839
8990558386,52.47493,13.48210,Tio Bito Empanadas,Köpenicker Landstraße 132,,,09100203
8995723983,52.44002,13.43430,Huy Phat,Buckower Damm 50,12349.0,Berlin,08200729
9022437760,52.44408,13.56788,Wieduwilt & Krause,,,,09200819
9031994756,52.36877,13.13993,Burger & Kebap,,,,
9032834761,52.52165,13.59821,Freddy Fresh,Windbergweg 1,12621.0,Berlin,10400835
9037836464,52.55877,13.37298,Asia anh anh,,,,01300730
9037836465,52.55883,13.37297,Isirik,Residenzstraße 85,13409.0,Berlin,01300730
9038176109,52.47088,13.38509,mc Kebap,,,,07400720
9040273695,52.47870,13.42549,Haci Gemüse Kebab,,,,08100102
9048860334,52.50249,13.37838,Indian Street Food,Schöneberger Straße 22,10963.0,Berlin,02100101
9063536931,52.49786,13.46373,Kobani,Stralauer Allee 17B,,,02500835
9063809874,52.51120,13.20549,NEVIOS Foodtruck,,,,05200634
9067753721,52.52740,13.19563,Bella Italia,Pichelsdorfer Straße 141,,,05200630
9073332144,52.54964,13.44813,Burgers Dreamland,Langhansstraße 12,13086.0,Berlin,03500935
9073418331,52.55000,13.44580,Pizza & Burger Bulls,Langhansstraße 135,13086.0,Berlin,03500935
9073520472,52.55221,13.46654,Maxim Grill,Berliner Allee 160,13088.0,Berlin,03501038
9073975195,52.54992,13.45896,Familien Bistro II,Berliner Allee 102,13088.0,Berlin,03500936
9074458269,52.54630,13.41911,Ayakayo,Stargarder Straße 68,10437.0,Berlin,03601347
9083857881,52.53915,13.61968,KiezBistro 2 - Döner & Fast Food,Louis-Lewin-Straße 111,12627.0,Berlin,10200524
9094325081,52.51226,13.38981,Frittenwerk,Friedrichstraße 69,,,01100206
9095176124,52.51205,13.49867,Hühnerwald,Frankfurter Allee 255,10365.0,Berlin,11300725
9108270017,52.46604,13.43240,Çiğköftem,Hermannstraße 152,12051.0,Berlin,08100209
9122675261,52.52307,13.41164,OBST inn,,,,01100310
9152976582,52.43590,13.37928,Burger City,Großbeerenstraße 35,12107.0,Berlin,07501133
9155808807,52.52607,13.38894,Magic Johns,Oranienburger Straße 48,,,01100309
9160600487,52.55459,13.39774,ServiceStore DB,,,,03601140
9160651387,52.55460,13.39801,ServiceStore DB,,,,03601140
9166121508,52.55929,13.41363,Bistro 2001,Berliner Straße 93,13189.0,Berlin,03400827
9176701616,52.49168,13.38671,Döner City,,,,02200209
9176722117,52.49175,13.38675,Köfte City,,,,02200209
9178141339,52.58132,13.36407,Yilis Döner,,,,12100205
9180014318,52.52887,13.40172,Lovebirds,Rosenthaler Straße 3,10119.0,Berlin,01100309
9180305031,52.58825,13.34130,Zum Würfel,,,,12100205
9180365627,52.44505,13.38609,Phan Kitchen,Mariendorfer Damm 85,12109.0,Berlin,07501031
9187138172,52.54020,13.61977,Hellersdorfer Grillhaus,Louis-Lewin-Straße 120,12627.0,Berlin,10200423
9206219383,52.49072,13.42317,Kavurma-Köfte,,,,02200213
9212646293,52.50104,13.47711,Box 84 by Murat,,,,11501238
9225777960,52.51177,13.30551,Alte Forno,,,,04300621
9237900837,52.51480,13.46340,Asia Imbiss,,,,02500728
9258380299,52.56031,13.09235,Hähnchenkönig,,,,
9286392661,52.50610,13.33191,Chutney,Hardenbergstraße 26,,,04501042
9289123754,52.50136,13.26345,,Waldschulallee 34,14055.0,Berlin,04200207
9289123755,52.50175,13.26500,Biberstand,,,,04200207
9289123762,52.50039,13.26561,,,,,04200207
9315956889,52.54046,13.41144,Brash Burger,Kastanienallee 3,,,03701554
9353923217,52.49290,13.46033,Bistro Liliput,Puschkinallee 14,12435.0,Berlin,09100101
9355794303,52.43015,13.19335,Döner,,,,06400737
9359221844,52.50646,13.45019,Mishba,,,,02500835
9374667420,52.55188,13.34989,Curry Keule,Müllerstraße 47A,13349.0,Berlin,01400939
9404809256,52.55016,13.46401,Yellow Pizza,Bizetstraße 129,13088.0,Berlin,03500936
9406902382,52.52358,13.41614,Falafelli,,,,01100310
9410594297,52.44504,13.57714,Tasty,Kietzer Straße 12,12555.0,Berlin,09401534
9420865800,52.48936,13.34449,Pipa’s,Grunewaldstraße 39,10825.0,Berlin,07200307
9421237665,52.48953,13.34856,Ziyade,Grunewaldstraße 26,10823.0,Berlin,07100204
9423603587,52.45347,13.43854,Crash Burger,,,,08200623
9434102520,52.56585,13.41207,Öz Döner Vision,,,,03400826
9450251708,52.45321,13.53957,Pizzeria Bella Roma,,,,09200613
9455783578,52.50660,13.55827,Heißer Wolf,,,,10300733
9461579641,52.46433,13.32729,Dunkin,Schloßstraße 1,12163.0,Berlin,06100103
9465353060,52.47727,13.42460,Lavin Restaurant,,,,08100102
9495358435,52.49883,13.31218,Burgermeister,Konstanzer Straße 1,10707.0,Berlin,04501043
9500966685,52.46509,13.32772,Aiko Sushi,,,,07300516
9505293748,52.54047,13.34891,Sahara Imbiss,Fehmarner Straße 5,13353.0,,01401046
9516600798,52.57550,13.33175,Fast Imbiss,,,,12200307
9524622097,52.46913,13.46723,Akis Bistro,,,,08100521
9527151896,52.51829,13.28180,La Famiglia,,,,04200311
9531153629,52.45424,13.51678,Pizza Bulls,Fennstraße 24,12439.0,Berlin,09200613
9531153630,52.45520,13.51361,Rocket Eat,Schnellerstraße 30,12439.0,Berlin,09200613
9549482152,52.52497,13.30573,Tinas Imbiss,,,,04300518
9557214640,52.42054,13.31331,Furat Kebab,,,,06200421
9558984029,52.59202,13.38411,DönerKebabHaus,Friedrich-Engels-Straße 134,13158.0,Berlin,03400618
9563161962,52.45111,13.75035,Isy Kebap,,,,
9573906939,52.64073,13.20658,Dominos,,,,
9580332831,52.45316,13.28645,Naya Jouly,Thielallee 34,14195.0,Berlin,06400843
9586438190,52.52847,13.37648,The Fresh Seeds,Invalidenstraße 90,10115.0,Berlin,01100308
9624112496,52.39300,13.27139,B&B,,14513.0,,
9632071031,52.46113,13.32518,Viet-Cocos,Schloßstraße 110,12163.0,Berlin,06100103
9641470250,52.51997,13.38963,Chupenga,Georgenstraße 200,10117.0,Berlin,01100206
9645895338,52.52305,13.43441,Pizzeria 24/7 Shop,,,,02400521
9653733831,52.51487,13.46102,Grillo,Frankfurter Allee 32,10247.0,Berlin,02500830
9659519467,52.51847,13.40631,City Café Bistro,,,,01100310
9661594883,52.48764,13.35432,Saveur de Bánh Mì,Akazienstraße 24,10823.0,Berlin,07200409
9675690077,52.45108,13.33974,Steglitzer Grillhaus,,,,06100204
9677505904,52.50801,13.39350,Maloa,,,,01100207
9682474281,52.57736,13.42858,Metropol Cafe & Bistro,,13187.0,Berlin,03400831
9683063347,52.48141,13.43091,Feel Good Food,Flughafenstraße 19,12053.0,Berlin,08100206
9704896078,52.49265,13.38716,Marthas Delicious Burgers,Mehringdamm 40,10961.0,Berlin,02200209
9710850729,52.45178,13.43855,Pizzeria La Spada,Britzer Damm 121,12347.0,Berlin,08200726
9724649824,52.49360,13.32403,Enes Döner,,,,04501149
9733492338,52.51886,13.28469,Tasty Grill Haus,,,,04300412
9733507837,52.51464,13.28762,Call a Pizza,,,,04300413
9741677658,52.54330,13.37640,Manakish by Ibo,Gerichtstraße 10,13347.0,,01300836
9741694017,52.54797,13.37487,Hühnerwald,Pankstraße 27,,,01300836
9742130328,52.56365,13.72453,Opa´s Bistro,,,,
9748108248,52.45600,13.38418,Burgerzimmer,Tempelhofer Damm 215-219,12099.0,Berlin,07400927
9762208987,52.47549,13.29091,Wurstmaxe,Breite Straße 25,14199.0,Berlin,04400832
9765503775,52.52495,13.33521,tasty chicken,,,,01200521
9770221480,52.54983,13.41461,Vincent Vegan,Schönhauser Allee 79/80,10439.0,Berlin,03601243
9773222084,52.48791,13.35832,Crispys,,,,07200411
9775798577,52.50240,13.46208,,,,,02500835
9775829188,52.40278,13.52477,The Mood,Schönefelder Chaussee 239,12524.0,Berlin,09300922
9786724844,52.44895,13.47310,Serrano,Ligusterweg 44,12437.0,Berlin,09100306
9792254406,52.50853,13.37561,Five Guys,Potsdamer Platz 11,10785.0,Berlin,01100102
9797173470,52.37218,13.61402,,Heinrich-Heine-Allee 17,15732.0,Eichwalde,
9797339415,52.54424,13.54571,Nordsee,Marzahner Promenade 1,12679.0,Berlin,10100210
9797339518,52.54279,13.54462,Dominos,Marzahner Promenade 10,12679.0,Berlin,10100210
9806357742,52.50346,13.44707,Nepal Momo,Warschauer Straße 48,10243.0,Berlin,02400625
9815364441,52.44568,13.38425,Tiamo,Kaiserstraße 112,12105.0,Berlin,07501030
9816595281,52.51040,13.29214,Kaiser Grill,,,,04300416
9834250025,52.51441,13.46579,Loco Chicken,Frankfurter Allee 60,10247.0,Berlin,02500831
9846849130,52.49983,13.41704,Kaiza Chicken,,,,02300314
9846854231,52.49986,13.41707,Gios Georgische Küche,,,,02300314
9846859834,52.49967,13.41694,Lookma Berlin,,,,02300314
9851080875,52.52730,13.32797,Beirut Express,,,,01200518
9884853217,52.51314,13.45629,vegd,Boxhagener Straße 21,10245.0,Berlin,02500833
9885033525,52.53844,13.42937,World of Pizza,Ella-Kay-Straße 2A,10405.0,Berlin,03701657
9888361701,52.47006,13.51988,,,,,09200512
9892595565,52.62995,13.31078,Dominos,,,,
9907224717,52.53405,13.53833,Thai-Nippon Vietnamesisches Restaurant,Märkische Allee 166-172,12681.0,,10100312
9908254097,52.51973,13.16284,Imbiss,,,,05200528
9914355511,52.51037,13.45430,Falafel Hind,Kopernikusstraße 23,,,02500833
9929848017,52.50908,13.37433,goldies smashburger,Potsdamer Straße 1,10785.0,Berlin,01100102
9935507589,52.54963,13.44815,Burgers Dreamland,Langhansstraße 12,13086.0,Berlin,03500935
9945056563,52.52651,13.38893,Wiki Wiki Poke,Linienstraße 130,10115.0,Berlin,01100309
9946051920,52.47998,13.41498,Snackpoint,,,,08100102
9952451372,52.52613,13.68301,Döner Kebap,,,,
9963502137,52.50382,13.48528,Back Baron,Archibaldweg 21,10317.0,Berlin,11300826
9964329644,52.51488,13.47377,Yummi Sushi & Asia Kitchen,Rigaer Straße 56,10247.0,Berlin,02500729
9968095797,52.50916,13.50031,Bistro Irene,Irenenstraße 5A,10317.0,Berlin,11400929
9974963718,52.53243,13.41982,Dominos,Prenzlauer Allee 231,10405.0,Berlin,03701556
9975018017,52.53420,13.42169,Seven Döner,Prenzlauer Allee 32,10405.0,Berlin,03701659
9975023818,52.53517,13.42226,Breakfast & more,Prenzlauer Allee 39,10405.0,Berlin,03701659
9978747702,52.51079,13.40159,Seven Coffee,Leipziger Straße 51,10117.0,Berlin,01100207
9993248007,52.51052,13.38027,Masti,,,,01100205
9995089393,52.55316,13.37891,Species,,,,01401045
10002244226,52.51862,13.28055,Meshur Köfteci,,,,04200308
10003704989,52.53184,13.32874,Sushi City,Beusselstraße 38,10553.0,Berlin,01200519
10006487272,52.53531,13.42150,Olivenberg,,,,03701556
10013237728,52.51193,13.43504,Tu Rincón Latino,,,,02400623
10023940094,52.39922,13.24712,aramark im Hause Rewe Markt Teltow,,14513.0,Teltow,
10042922321,52.50340,13.38155,,,,,02100101
10057200170,52.46452,13.32743,dean&david,Schloßstraße 1,12163.0,Berlin,06100103
10067447117,52.51078,13.45224,Burgermeister,Warschauer Straße 65,10243.0,Berlin,02500833
10068277017,52.36452,13.50737,Fish&Chips,,,,
10068310817,52.36447,13.50719,Wittys,,,,
10068310917,52.36465,13.50727,Basta!,,,,
10068311117,52.36458,13.50734,Asia gourmet,,,,
10075402072,52.47017,13.43181,Dominos,,,,08100208
10075620639,52.49584,13.45425,Sool Imbiss,Eichenstraße 3,12435.0,Berlin,09100101
10075820101,52.43604,13.34662,Gemüse Kebap,,,,06200313
10089750885,52.51527,13.46317,Dunya,Silvio-Meier-Straße 1,,,02500728
10089750890,52.51472,13.46667,Burger Time,,,,02500728
10106683989,52.50373,13.40296,Gala Bistro,Ritterstraße 41,10969.0,Berlin,02100103
10111940549,52.49984,13.30801,Sold Out Smashburger,Kurfürstendamm 166,10707.0,Berlin,04501043
10124692457,52.48653,13.35648,Restaurant Sultan Al Sham,Hauptstraße 20,10827.0,Berlin,07200409
10132200752,52.46227,13.36691,Street Food King,Bessemerstraße 57-75,12103.0,Berlin,07400822
10133119760,52.53764,13.18635,Pizza Club,,,,05100316
10134091439,52.52024,13.38811,Wittys Bio-Currywurst,Friedrichstraße 141,,,01100206
10140359175,52.53203,13.36714,The Fresh Seeds,Heidestraße 14A,10557.0,,01200624
10141296611,52.51660,13.19733,Solo Pizza,,,,05200630
10141301400,52.52314,13.19814,Asia Haus,,,,05200631
10149034978,52.52157,13.41078,ănăn,,,,01100310
10159947314,52.52143,13.58718,Huong Lua,Hellersdorfer Straße 77-83,12619.0,Berlin,10200629
10168352209,52.52198,13.41075,Eat Culture,,,,01100310
10168385161,52.52168,13.41125,Dunkin,,,,01100310
10185196712,52.52106,13.41162,Burger King,,,,01100310
10223603617,52.51493,13.29067,Aba Kebap,Danckelmannstraße 13,14059.0,,04300413
10228415974,52.52477,13.43871,,,,,02400520
10259382016,52.43721,13.44831,Imbiss & Getränke Urbanis,,,,08200727
10276097613,52.50401,13.47273,Asia Phung,Krummhübler Straße 1,10317.0,,11400927
10282688009,52.52028,13.41323,Burgermeister,Dircksenstraße 112,10178.0,Berlin,01100310
10293199744,52.48235,13.44122,kollektiv kitchen,Wildenbruchstraße 4,12045.0,Berlin,08100418
10313545910,52.54298,13.57200,burgerme,Pritzhagener Weg 21,12685.0,Berlin,10100316
10314816002,52.48985,13.36009,Sahara,Hauptstraße 159,10827.0,Berlin,07200411
10314816003,52.48980,13.36005,hamdi baba,Hauptstraße 159,10827.0,Berlin,07200411
10314838772,52.55332,13.38883,Trophies Burgers,Grüntaler Straße 19,,,01300733
10542439621,52.46708,13.50909,Cafeteria,,,,09200510
10542894372,52.50378,13.44732,Bistro Anh Yen,Warschauer Straße 45,10243.0,Berlin,02400625
10550743909,52.67191,13.28011,Kebap 63,,,,
10554624378,52.52765,13.33852,Saftladen,,,,01200520
10556329494,52.53970,13.42241,Daily Warteg,Danziger Straße 61,10435.0,Berlin,03601348
10558368769,52.54856,13.50368,Dominos,,,,11200411
10574526841,52.52228,13.37843,Burgerwood,,,,01100308
10584960706,52.40162,13.25908,Dominos,,,,
10594722938,52.50038,13.35426,Pizzeria Verdura,Karl-Heinrich-Ulrichs-Straße 2,,,07100103
10595463219,52.55184,13.42925,mundi´s,,,,03400828
10595707066,52.53907,13.42327,Fantasia Döner Pizza,Danziger Straße 70,10435.0,Berlin,03701555
10599872964,52.51923,13.29062,Amani,Spandauer Damm 42-44,,,04300412
10615662349,52.50747,13.37369,Manifesto,Alte Potsdamer Straße 7,10785.0,Berlin,01100102
10652790812,52.50814,13.37438,,,,,01100102
10652790813,52.50799,13.37424,Vincent Vegan,Tamara-Danz-Straße 11,10785.0,Berlin,01100102
10652790814,52.50803,13.37426,Malang,,,,01100102
10652790815,52.50795,13.37421,KFC,,,,01100102
10681117659,52.60934,13.33535,Titisee Black & White,,,,12601032
10686934256,52.52747,13.48983,,,,,11300721
10690217505,52.43325,13.54001,Farmers Kitchen,Franz-Ehrlich-Straße 12,,,09200715
10693118855,52.50807,13.37428,Fatih Servet,,,,01100102
10693130762,52.50202,13.41964,Saha,,,,02300314
10695568351,52.51343,13.39700,Maloa,,,,01100206
10695646203,52.53238,13.39771,Lyfe,Invalidenstraße 160,,,01100415
10697663875,52.51048,13.30531,CTR Chicken,Wilmersdorfer Straße 43,10627.0,Berlin,04300623
10697822849,52.52169,13.16456,Hühnerwald,,,,05200527
10710019772,52.58445,13.28575,Seeteufel,,,,12200515
10710019778,52.58445,13.28565,Asia - Snack,,,,12200515
10710895030,52.58456,13.28562,,,,,12200515
10741978242,52.43299,13.53681,immergrün,,,,09200715
10742899891,52.50985,13.32625,Mensa TU Hardenbergstraße,Hardenbergstraße 34,10623.0,Berlin,04300622
10742912287,52.50965,13.32613,Mensa Pasteria TU Veggie 2.0 – Die vegane Mensa,Hardenbergstraße 34,10623.0,Berlin,04300622
10746789198,52.55156,13.38234,King Schawarma,,,,01300836
10747046111,52.49967,13.39113,X-Berg Kebap,Mehringplatz 12,10969.0,Berlin,02100102
10748737649,52.50702,13.39028,Biers,,,,02100102
10749237305,52.47493,13.45333,Euro imbiss,,,,08100417
10753322578,52.43330,13.56622,Imbiss mit Mittagstisch,,,,09200819
10753608037,52.50486,13.36687,Beste Bagel,,,,01100103
10759695784,52.55995,13.46002,Sidar,,,,03501037
10762018244,52.51472,13.47445,85° Simmer Kitchen,,,,02500729
10771821233,52.65930,13.53246,King Döner,Schönower Straße 40,16341.0,Panketal,
10780627731,52.53265,13.38772,Mmaah,Elisabeth-Schwarzhaupt-Platz 5,10115.0,Berlin,01100415
10784811463,52.53908,13.39502,Bayram Grillhaus,Brunnenstraße 131,,,01300835
10797287464,52.51122,13.30549,Lookma,Wilmersdorfer Straße 135,,,04300623
10803097883,52.53210,13.42881,Super,,,,03701660
10803765913,52.46122,13.43455,B&O,,,,08200624
10804826689,52.56654,13.31687,Merin Grillhaus,Scharnweberstraße 100,13405.0,Berlin,12200309
10816746846,52.45017,13.31579,Duran Imbiss,,,,06300630
10828641267,52.40285,13.51157,Dominos,,,,08401245
10842048397,52.42982,13.32712,Aykent´s,,,,06200421
10864113529,52.51046,13.37989,Pommesfreunde,,,,01100205
10880579380,52.56276,13.46334,Bistro Pförtnerhaus,,,,03501037
10885617116,52.51685,13.38544,Burgerkette,,,,01100206
10885617184,52.51639,13.38041,Curry Wolf,,,,01100206
10895915819,52.51236,13.29742,Pizza Max,,,,04300414
10900645939,52.45627,13.32388,Metro Döner,,,,06100208
10903224297,52.46173,13.32498,Bistro M&C,,,,06100103
10903264005,52.66912,13.28801,Pascha,,,,
10914628271,52.49726,13.32385,Falafel Jacob,,,Berlin,04501044
10931303324,52.54999,13.42264,Nabil Falafel Schawarma,,,,03601244
10933386870,52.48188,13.49383,,,,,09100203
10939015607,52.53695,13.63409,,,,,
10958642468,52.36685,13.50825,Hermanns,,,,
10992219455,52.49308,13.38260,Saiko Sushi,Yorckstraße 77,,,02200209
10998253733,52.45231,13.59203,Wurst Mücke,,,,09501941
11005328179,52.49402,13.44494,Jimmys Falafel,,12435.0,Berlin,09100101
11007667434,52.53154,13.36682,my Indigo,Heidestraße 43,,,01200624
11020871705,52.42683,13.47099,,,,,08301036
11025916772,52.53150,13.33195,,,,,01200519
11035534406,52.64115,13.20687,Bring n Burger,,,,
11050140306,52.64165,13.20622,Ozis Bistro,,,,
11050551308,52.45814,13.50950,Banh mi and more,Schnellerstraße 133,12439.0,Berlin,09200613
11053319550,52.49872,13.44601,Burger City,Schlesische Straße 18,,,02300419
11055086473,52.42472,13.46230,L.A. Foods,,,,08300935
11058081913,52.54416,13.42677,Quarkbällchen,Prenzlauer Allee 180,10405.0,Berlin,03701657
11074780060,52.50584,13.31880,Japanese Summer Food Pop Up Store,,,,04300624
11079106153,52.51141,13.40734,Sài Gòn Bánh Mì,Wallstraße 21,10179.0,Berlin,01100312
11105904906,52.49961,13.39097,Sahara Imbiss,Mehringplatz 13,,,02100102
11106986100,52.54507,13.36331,Dominos,,,,01401043
11109227536,52.55174,13.35537,Spuntino,Seestraße 57,,,01401048
11111776842,52.50633,13.49625,Clouds,Weitlingstraße 55,,Berlin,11400929
11119510338,52.53320,13.35164,Slices and Burgers,,,,01200623
11133750137,52.52453,13.32732,Crispy´s,,,,01200518
11134118371,52.45602,13.43691,Ikbal Grill,,,,08200624
11134135408,52.45569,13.43710,Pizzeria La Mia,Britzer Damm 78,,,08200624
11166624584,52.53224,13.34125,BackBaron,,,,01200520
11169377639,52.53712,13.34274,BackBaron,,,,01200517
11182105035,52.56108,13.51030,burgerme,,,,11100309
11200058937,52.49606,13.42795,Reichen Burger,Reichenberger Straße 54,10999.0,,02300417
11204123734,52.52527,13.46538,Kebab Bros,,,,11300618
11212847884,52.46832,13.38520,Zey & Bek,,,,07400824
11214315762,52.48900,13.39266,Munchies,Schenkendorfstraße 1,10965.0,Berlin,02200211
11243435837,52.52446,13.34910,Pink Burgers,,10559.0,,01200626
11269448566,52.55688,13.36286,Seepferdchen,Seestraße 80,13347.0,Berlin,01400940
11273043170,52.48854,13.45373,Burger Home,,,,09100101
11282883194,52.52558,13.31095,Kaiserin Imbiss,,,,04300518
11290691269,52.52947,13.36874,Daily Warteg,,,,01200624
11306607054,52.50871,13.46169,Hot Dogs,,,,02500833
11339197352,52.52737,13.47223,Anton Döner,Rudolf-Seiffert-Straße 31,10369.0,Berlin,11300619
11341290847,52.51376,13.52158,Freestyle,,,,11401033
11344973269,52.57050,13.36049,Crazy Chicken,Residenzstraße 19-20,,,12100205
11347111425,52.45682,13.32112,Far East Express,,,,06100102
11348250677,52.48227,13.43183,Asia Food,Karl-Marx-Straße 66,12043.0,Berlin,08100206
11351399284,52.45616,13.32074,Metro Vital Kebab Imbiss,,,,06100102
11356477169,52.67413,13.31579,Waffel,,16562.0,,
11373265257,52.49885,13.44246,Citronella,Falckensteinstraße 9,10997.0,Berlin,02300419
11374042874,52.45269,13.57623,Sushi City,,,,09501941
11384307379,52.45711,13.50807,Original Ketwurst,,,,09200613
11384561040,52.55401,13.41417,Oggis Gemüsekebab,Schönhauser Allee 100,10439.0,Berlin,03601139
11387653365,52.52977,13.44458,Bistro Dogan,,,,03601452
11387654276,52.52277,13.45061,Mercan Bistro,,,,02500726
11413101451,52.53163,13.19698,Enfes,,,,05200629
11428958905,52.49383,13.34589,Call a Pizza,,,,07100204
11442966283,52.45942,13.37659,Kısmet Grill,,,,07400825
11453127480,52.52296,13.19855,Rammor,Weißenburger Straße 17,13595.0,Berlin,05200631
11455464188,52.63784,13.20519,City Pizzeria,Postplatz 3,16761.0,Hennigsdorf,
11468786064,52.44794,13.31560,Korea Imbiss,,,,06300630
11492401564,52.51488,13.46511,Mamas Food,,,,02500728
11503604981,52.47898,13.47374,Hanoi To Go,,,,09100202
11513992069,52.51054,13.38043,Burger Turm,,,,01100205
11519456469,52.48872,13.42444,Nefis gemuse kebab,,10967.0,,02200213
11522880779,52.49256,13.45958,Currywurst Pommes Burger,,,,09100101
11531156411,52.51275,13.61201,American burger,,,,10400938
11531439236,52.50876,13.30582,Subway,Wilmersdorfer Straße 53,10627.0,Berlin,04300623
11538206196,52.53560,13.35706,Eyvan,,,,01200623
11538226783,52.49571,13.45414,Magic Imbiss,,,,09100101
11576186143,52.48973,13.35183,Bizzy’m Back,,,,07200409
11581751190,52.52906,13.21427,Asia Cuisine,Pichelswerderstraße 6,,,05100317
11629917725,52.38681,13.40458,Pizza Bacio,,,,07601544
11648549441,52.48264,13.43416,Pashtriku,Fuldastraße 59,,,08100314
11648549445,52.48238,13.43383,The Taste,Fuldastraße 61,,,08100314
11664637043,52.50804,13.25849,Würstl Stand,,,,04200207
11669489332,52.51191,13.32233,Royal Back,,,,04300622
11669489333,52.51170,13.32187,Royal Back,,,,04300622
11669588990,52.45614,13.32137,Les Baguettes,,,,06100102
11669721667,52.52946,13.36883,Oggis Gemüsekebab,Döberitzer Straße 1,,Berlin,01200624
11669762542,52.54965,13.41449,Dunkin,,,,03601243
11675955593,52.48276,13.43259,Familienpizza,Karl-Marx-Straße 63,,,08100314
11678949416,52.52954,13.40203,Wrapublic,,,,01100309
11678949418,52.52955,13.40230,Lucys The Deli,Torstraße 116,,,01100309
11678949419,52.52955,13.40253,Fechtner,,,,01100309
11685885145,52.50292,13.39551,Döner Plus,,,,02100103
11687802227,52.48732,13.38749,Sama Beirut,Fidicinstraße 43,,,02200211
11688458926,52.47009,13.43011,Burgees Smashburger,,,,08100208
11691376307,52.51954,13.38812,Dunkin,,,,01100206
11703864753,52.51224,13.49197,Tacuza,Frankfurter Allee 209,10365.0,Berlin,11300724
11722251891,52.44455,13.58578,Mambo Döner,,,,09401431
11734870887,52.37892,13.64481,Döner Haus,,,,09301228
11745950673,52.53291,13.38759,Nordis,,,,01100415
11747986081,52.51044,13.29270,Osteria Mia,,,,04300416
11748680001,52.57132,13.31298,Grill König,,,,12200310
11752645379,52.50722,13.27899,India Express,,,,04200311
11752645380,52.50726,13.27899,Fritten Mafia,,,,04200311
11753240897,52.52894,13.39488,Slice Society,Torstraße 173,,,01100415
11753240898,52.52891,13.39477,nola,Torstraße 173,,,01100415
11763524126,52.38153,13.13678,Hai Lam Imbiss,,,,
11772057310,52.47298,13.42807,Yarnaki,,,,08100103
11773939570,52.52880,13.19412,Mega Bistro,Seeburger Straße 91,13581.0,,05200630
11778458160,52.53372,13.58143,,,,,10100316
11795362338,52.53833,13.48081,Suppe und Stulle,Konrad-Wolf-Straße 74,13055.0,Berlin,11200513
11809614911,52.48006,13.52552,By Dennis Broiler & Dönerhaus,Treskowallee 119,10318.0,Berlin,11501341
11809814338,52.50707,13.31091,Villa Latina,,,,04300623
11813995102,52.37043,13.13438,Dunkin,,,,
11816929700,52.44726,13.34138,ARDA Döner Kebap,,,,06100206
11819958112,52.44364,13.38640,Desi Dera,Mariendorfer Damm 101,12109.0,Berlin,07501031
11840846856,52.46840,13.43100,7Tepe,Emser Straße 107,12051.0,Berlin,08100208
11879118868,52.42978,13.46510,Allim,,,,08401139
11883234263,52.51492,13.32197,,,,,04300622
11883571533,52.46796,13.44323,Pizza Fofolala,Lahnstraße 92,,,08100209
11891019973,52.48123,13.42517,Chix,Hermannstraße 229,12049.0,Berlin,08100206
11913217007,52.36530,13.31398,Döner 4 bros,,,,
11919922614,52.50957,13.37306,Pret A Manger,Potsdamer Straße 2,10785.0,Berlin,01100102
11932804169,52.49563,13.39644,Sahara Imbiss,,,,02200210
11934667782,52.56837,13.69473,Pauseneck II,,,,
11942590284,52.52678,13.35181,Agri Bistro,,,,01200625
11942617436,52.50664,13.31369,Lucky Katsu,Leibnizstraße 70B,10625.0,Berlin,04300623
11954055976,52.45305,13.42165,Kalazan Döner,,,,08200624
11962702022,52.63063,13.49988,Kumo Sushi,Karower Chaussee 29,13125.0,Berlin,03100103
11964950511,52.40796,13.44115,krusty´s pizza,,,,
11975090485,52.44315,13.45727,Pizza Max,,,,08401138
11983551421,52.52608,13.30181,Side Döner Burger,Tauroggener Straße 36a,10589.0,Berlin,04300517
11990920935,52.52874,13.34646,ratzfatzsatt,Turmstraße 21,10559.0,Berlin,01200625
11993569573,52.51030,13.45613,Circle & Slice,,,,02500833
12009267263,52.54897,13.57856,,,,,10100207
12028944889,52.45558,13.32558,Döner X Burger,,,,06100102
12031157972,52.44891,13.35282,Schöne Burger,,,,06100205
12031157973,52.44904,13.35291,Acuns Döner,,,,06100205
12040636468,52.50122,13.41907,Hasir Burger,,,,02300314
12040661087,52.50171,13.41803,Bazooka,Oranienstraße 35,,,02300314
12041998708,52.46800,13.43121,Star Bistro Bar,,,,08100208
12050649607,52.43066,13.09953,Imbiss,,,,
12052862470,52.57780,13.24424,Snackpoint,,,,12400619
12053162963,52.57821,13.24459,Seeee Pizza,,,,12400619
12061032192,52.51652,13.47242,4 Seasons,,,,02500729
12066348775,52.58659,13.36791,Döner Pizza,,,,03400619
12066505799,52.58702,13.36835,Sushi Shop,,,,03400619
12068486884,52.53318,13.35160,BRGRS,,,,01200623
12071667493,52.49868,13.37308,Smash FE,,,,02200207
12071679156,52.56787,13.41239,Kebap 63,Berliner Straße 117,13187.0,Berlin,03400723
12078101169,52.52091,13.41429,CURRY 61 Alexanderplatz,Alexanderplatz 2,10178.0,,01100310
12092980801,52.47727,13.42487,Pilz Imbiss,Herrfurthstraße 31,12049.0,,08100102
12094161961,52.53223,13.19745,I love drinks,,,,05200629
12100662301,52.53876,13.42358,Faloom,,,,03701555
12111474936,52.56989,13.49527,Grillen und Chillen / على كيفك,Ribnitzer Straße 24,13051.0,Berlin,11100308
12112549801,52.51888,13.41093,Curry & More Berlin,,,,01100310
12116835884,52.49643,13.37516,Foodtruck,,,,02200207
12118950895,52.48713,13.42256,Pizza Delizia,Hasenheide 7,,,02200212
12118950896,52.48710,13.42269,Has Döner,,,,02200212
12118950899,52.48636,13.42352,Pizzeria Calabrisella,,,,08100101
12124923568,52.50583,13.46970,The Breakfast,Neue Bahnhofstraße 28,,,02500834
12133422849,52.52459,13.32968,Efulim Gözleme,,,,01200521
12141416419,52.38652,13.40248,Kebab Haus,,,,07601544
12147032601,52.52128,13.41303,scoom,,,,01100310
12151246274,52.39445,13.41174,,,,,07601443
12151579432,52.36470,13.09251,Extrawurst,,,,
12164185079,52.48056,13.33342,Das Büdchen,Am Volkspark 17y,10715.0,Berlin,04501153
12172564780,52.47404,13.71286,,,,,
12174721254,52.41918,13.31317,Döner World,,,,06200421
12179291901,52.49717,13.36143,Hello Charge,,,,07100103
12181098901,52.62560,13.49612,Kumo Vegan,Karower Chaussee 99,13125.0,,03100103
12183422697,52.51460,13.46387,Grill Studio,,,,02500831
12233179031,52.36465,13.50709,Burger King,,,,
12233179034,52.36484,13.50922,Burger King,,,,
12241126620,52.49966,13.41715,Söner,,,,02300314
12246857860,52.52455,13.33011,Burger Smith,Gotzkowskystraße 25,10555.0,Berlin,01200521
12260788401,52.55634,13.42362,GaumenSchmaus,,,,03400828
12264461506,52.47720,13.33081,Rosmarin Grill,,,,07300517
12271289457,52.55380,13.46573,,,,,03500933
12285008685,52.48962,13.38909,The Noodle Town,,,,02200211
12292138373,52.51623,13.39591,,,,,01100206
12293894682,52.40294,13.52411,Istanbul Grill,,,,09300922
12297672455,52.63684,13.20148,All in One,,,,
12297672457,52.63703,13.20218,Five Chicks,,,,
12297672459,52.63714,13.20319,,,,,
12306471301,52.51170,13.38983,Mr. Kebab,Friedrichstraße 63,,,01100207
12309521701,52.54733,13.41094,Wilhelms Burger,Gleimstraße 23,10437.0,,03601142
12315898719,52.45581,13.32429,Sahara,,,,06100102
12320917302,52.53265,13.42983,Luigis Pizza,Hufelandstraße 4,10407.0,Berlin,03701660
12323814020,52.55130,13.44241,Langhans Burger,,,,03500934
12323868526,52.54862,13.45165,Gemüse Kebap,Berliner Allee 39,,,03500935
12323955578,52.52698,13.68503,Anka Döner,Rudolf-Breitscheid-Allee 35,15366.0,Neuenhagen bei Berlin,
12346055316,52.40932,13.25183,Iss Wurscht...völlig Bulette,,,,06300525
12356327328,52.54860,13.45096,Lunchmarkt Antonplatz,,,,03500935
12361953755,52.41472,13.34718,Curry Box,,,,07601339
12363200751,52.50406,13.34656,Döner Game,,,,01100101
12372320942,52.55277,13.37915,Tropical Cocktail,,,,01401044
12372344022,52.55249,13.38217,Levent Börek,,,,01300733
12386806388,52.53707,13.41890,Fabio Pasta (Wochenmarkt Kollwitzplatz),,10435.0,Berlin,03701555
12404704862,52.41100,13.40347,Karagül Kebap Sofrasi,,,,07601442
12416130977,52.56888,13.41135,Macs Bistro,,,,03400723
12419562721,52.50708,13.27926,Bacca,,,,04200311
12423528682,52.46080,13.52072,Rissan,,,,09200511
12424954405,52.56893,13.40359,Pankow Bistro,,,,03400721
12449759240,52.50814,13.37480,Saku,,,,01100102
12449759241,52.50815,13.37472,Asia Gourmet,,,,01100102
12469002124,52.57367,13.33117,Gala Döner,,,,12200307
12469061734,52.57164,13.37972,Femo Bistro Döner Kebab,,,,12100102
12475391577,52.47737,13.43843,Döner Box,Karl-Marx-Straße 130,12043.0,Berlin,08100207
12476023567,52.64696,13.53114,Asia Imbiss,,,,
12485958656,52.50341,13.44703,Teufel Curry,,,,02400625
12488625202,52.44475,13.57381,Hauptmann Burger,Alt-Köpenick 38,,,09401534
12489089446,52.54289,13.49064,Pizza Max,Konrad-Wolf-Straße 108,13055.0,Berlin,11200513
12491947901,52.55393,13.34539,Taş Firin,,,,01400938
12492499004,52.46767,13.37735,Asia Bistro,,,,07400823
12492499005,52.46767,13.37724,Doner Welt,,,,07400823
12504464245,52.51068,13.38074,Hotalo,,,,01100205
12512352795,52.52856,13.40234,Birds in the Kitchen,Rosenthaler Straße 67,10119.0,Berlin,01100309
12514140928,52.52500,13.39006,sunu,,,,01100309
12514173961,52.51029,13.38077,Frittenwerk,,,,01100205
12514173969,52.51020,13.37971,immergrün,,,,01100205
12514173970,52.51006,13.37974,Subway,,,,01100205
12518185035,52.56746,13.36272,Irmak Grillhaus,,,,12100102
12529554372,52.52308,13.41162,Curry Inn,,,,01100310
12546002528,52.53055,13.40076,Zerö Kebab,,,,01100416
12557331788,52.49555,13.42966,Smooches,Reichenberger Straße 61a,10999.0,Berlin,02300417
12557347804,52.50002,13.40712,Chompy030,Wassertorstraße 53,10969.0,Berlin,02100105
12561245589,52.46743,13.43163,Köfteci,,,,08100209
12561304083,52.52422,13.41187,Pressecafé,Karl-Liebknecht-Straße 29,10178.0,Berlin,01100310
12563923073,52.49895,13.44537,zoe Burger,Cuvrystraße 49,10997.0,Berlin,02300419
12566015091,52.49118,13.40124,Nenehs Imbiss,,,,02200210
12582844077,52.38736,13.40909,Goltz Burger,,,,07601544
12585243601,52.54748,13.41295,The Mood,Schönhauser Allee 124,10437.0,,03601142
12587647820,52.59839,13.32251,Smash Tastic,,,,12500927
12590615652,52.54502,13.36109,Subs N Buns,,,,01401047
12603599685,52.49921,13.42773,36 Burger,,,,02300315
12610152444,52.56486,13.32555,,,,,12200309
12630562901,52.49109,13.36121,Bülent Börekçilik,Hauptstraße 163,10827.0,,07100206
12635703923,52.50029,13.42361,Shiso Burger,Oranienstraße 13,,,02300315
12643085499,52.38621,13.10807,Ruffs Burger,,,,
12645466744,52.50146,13.43107,Juice Club,,,,02300315
12645532945,52.50157,13.43154,Macs Kebap,,,,02300315
12650469114,52.54758,13.41068,Saaky,,,,03601142
12655685082,52.44640,13.29339,Dominos,Habelschwerdter Allee 1,14195.0,Berlin,06300629
12668114904,52.51243,13.49795,Royal Döner Burger,,,,11300725
12673831505,52.56047,13.09015,Ralfis Knoblauchbaguettes,,,,
12693982636,52.56625,13.34542,Tahir Usta,,,,12100204
12698051028,52.52166,13.41111,Cuccis,,,,01100310
12732495548,52.49768,13.42934,Romeos,Lausitzer Straße 47,10999.0,Berlin,02300417
12734413664,52.52452,13.33301,Burger Manufaktur,Alt-Moabit 40,10555.0,Berlin,01200521
12770037168,52.36440,13.50970,Auf die Hand,,,,
12798725928,52.48127,13.52586,Fatih Servet,,,,11501341
12803095100,52.53282,13.36559,dean & david,Heidestraße 40,,,01200624
12804934985,52.59418,13.36111,Gefällt mir! Döner,,,,12601235
12810528093,52.49927,13.42772,36 Döner,,,,02300315
12817521201,52.43649,13.54392,MIXI Gemüse Döner,Dörpfeldstraße 18,12489.0,Berlin,09200716
12828526602,52.43968,13.38789,Yunus Emre Steak Döner,Mariendorfer Damm 135,12107.0,Berlin,07501134
12830946427,52.55377,13.34569,Pide Lahmacun,,,,01400938
12834568413,52.53329,13.53603,,,,,10100311
12834590714,52.53273,13.53649,,,,,10100311
12842758100,52.52358,13.39927,Breggs,Oranienburger Straße 84,,,01100309
12851596933,52.37714,13.09455,Food Home,,,,
12856968601,52.47968,13.43766,Chettinad,,,,08100415
12856968801,52.47970,13.43783,Chens Beef Noodle House,,,,08100415
12856968901,52.47962,13.43790,Koji,,,,08100415
12856969001,52.47952,13.43799,Mangiare,,,,08100415
12860621252,52.51655,13.38266,Kadakals Döner Kebap,,,,01100206
12876010001,52.48808,13.42874,Humble Pie,,,,08100311
12877769609,52.44165,13.68678,Alan Bistro,,,,09501838
12884123533,52.56986,13.56671,Bistro Mauritius,,,,10100103
12884136908,52.56991,13.56657,Pizza Pasta Burger Mauritius,,,,10100103
12892402693,52.45941,13.32340,Its Mo,,,,06100102
12895431640,52.54185,13.44057,Greifs Döner,,,,03601449
12909656553,52.43859,13.38750,Arona Mini Pizza,Mariendorfer Damm 142,12107.0,Berlin,07501133
12917598360,52.45663,13.33874,Chopsticks,Bismarckstraße 16f,12169.0,Berlin,06100208
12918847323,52.48711,13.42260,Amici Amici Sicilian Kitchen & Street Food,Hasenheide 7,10967.0,Berlin,02200212
12923554401,52.46956,13.36714,IKEA Bistro,Sachsendamm 47,10829.0,Berlin,07400822
12942185914,52.52405,13.40893,Parmera Pasta,Münzstraße 3,,,01100310
12959841669,52.52121,13.33405,Teigmeister,,,,01200522
12977818012,52.53367,13.19808,Ciao Bella,,,,05200629
12977855393,52.53370,13.19816,immergrün,,,,05200629
12979986697,52.50672,13.30887,Lokum Döner,,,,04300623
12996968020,52.53441,13.55261,Aris Diner,,,,10100314
12996979241,52.46805,13.38520,Imren Grill,,,,07400824
13019529003,52.43658,13.54415,Charlis Grillhaus,Dörpfeldstraße 20,12489.0,Berlin,09200716
13026341308,52.53443,13.40526,Rubens Arepas,Kastanienallee 47,10119.0,Berlin,01100416
13028494347,52.50757,13.37138,Cafeteria,Potsdamer Straße 33,10785.0,Berlin,01100102
13037185925,52.49339,13.42153,Közde,,,,02200213
13038382301,52.48507,13.43257,IBN ALSHAM,,,,08100314
13045415198,52.53782,13.42301,BrotMì,,,,03701555
13072381704,52.45585,13.57774,Eat Greek,Seelenbinderstraße 21,,,09501939
13083717661,52.36283,13.50843,Haferkater,,,,
13092508905,52.50319,13.46869,Scoom,,,,02500835
13092580801,52.59713,13.35512,RISA,,,,12601134
13092586601,52.59737,13.35470,China-Box,,,,12601134
13098120714,52.47400,13.44488,Fräulein Pilz,,12055.0,Berlin,08100416
13104031314,52.50604,13.44549,SLICE,,,,02400625
13108700340,52.59393,13.40267,Krüger Grillkutsche-Thüringer Rostbratwurst vom Grill,Dietzgenstraße 125,13158.0,Berlin,03200205
