id,lat,lon,name,street,zip_code,city,planning_area_id
30012754,52.5388551,13.3960965,Eiscafe Eisberg,Brunnenstraße 55,13355.0,Berlin,1300834
35528080,52.5476798,13.3563426,Coffee Star,Müllerstraße 146,13353.0,Berlin,1400942
66917199,52.5194029,13.3887381,Starbucks,,,,1100206
66917229,52.5167295,13.3797732,Starbucks,Pariser Platz 4A,10117.0,Berlin,1100206
69226202,52.507931,13.3737316,Brammibals Donuts,Alte Potsdamer Straße 7,10785.0,Berlin,1100102
75645699,52.5105871,13.3764297,Espresso House,Potsdamer Platz 5,10785.0,Berlin,1100102
81362508,52.5089075,13.2708507,Café & Reisebüro - Eishandwerk,Heerstraße 1,14052.0,Berlin,4200310
84644791,52.5082693,13.3770044,Espresso House,Potsdamer Platz 10,10785.0,Berlin,1100102
87036259,52.5307598,13.3831456,Espresso House,Invalidenstraße 35,10115.0,Berlin,1100415
87040343,52.5110724,13.3900182,Starbucks,Friedrichstraße 61,10117.0,Berlin,1100207
87040348,52.5113571,13.3894708,Einstein Kaffee,,,,1100207
89274938,52.5195321,13.4103508,Segafredo,,,,1100310
115544715,52.4296874,13.530639,Caffè Kamee,Rudower Chaussee 25,12489.0,Berlin,9200715
249299067,52.5382237,13.4204986,SowohlAlsAuch,Kollwitzstraße 88,10435.0,Berlin,3701555
253999353,52.4879922,13.3540483,DoubleEye,Akazienstraße 22,10823.0,Berlin,7200409
268760098,52.545836,13.4061087,Café Meta,Am Falkplatz 1,10437.0,Berlin,3601142
268915525,52.5038988,13.2909804,Kuno 15,Kuno-Fischer-Straße 15,14057.0,Berlin,4300415
269713585,52.5183945,13.3464153,Weinwirtschaft in der Akademie der Künste,Hanseatenweg 10,10557.0,Berlin,1200629
270667310,52.5146541,13.3483549,Café Viktoria,,,,1100102
270814693,52.4272121,13.2172579,Dagas Café,Potsdamer Chaussee 80,14129.0,Berlin,6400736
271668412,52.4882026,13.3609478,Cafe Sunar,,,,7200411
272593724,52.456348,13.2925424,eßkultur,Lansstraße 8,14195.0,Berlin,6400843
272811519,52.4979882,13.443644,Bizim Kiez,,,,2300419
272812495,52.4971308,13.4431518,Beumer Lutum,Cuvrystraße 22,10997.0,Berlin,2300419
275564580,52.525912,13.3869997,Espresso House,Friedrichstraße 125,10117.0,Berlin,1100308
276795876,52.433668,13.4225855,Milchbar,,,,8200729
277836777,52.4686515,13.4677356,Kiez-Bäckerei,,12057.0,Berlin,8100521
278125487,52.5054349,13.4663979,Uebereck,Sonntagstraße 31,10245.0,Berlin,2500834
278295436,52.4890118,13.3935082,Barcomis Café & Kaffeerösterei,Bergmannstraße 21,10961.0,Berlin,2200211
278874829,52.5146574,13.4630543,Milchgesicht,Mainzer Straße 1,10247.0,Berlin,2500830
281334742,52.5467698,13.5567171,Konditorei & Eiscafé Engel,Marzahner Promenade 55,12679.0,Berlin,10100210
281513616,52.4910478,13.3675144,Cafe Finovo,Großgörschenstraße 12,10829.0,Berlin,7100206
282420126,52.5097761,13.457186,Caramello,Wühlischstraße 31,10245.0,Berlin,2500833
282421717,52.5128318,13.4582338,Intimes,Boxhagener Straße 107,10245.0,Berlin,2500830
282430727,52.5160258,13.4570212,Café Tasso,,,,2500727
282739852,52.5166158,13.4631774,Brunchella,,,,2500728
286428319,52.5370841,13.2019954,Café Lutetia,Jüdenstraße 10,13597.0,Berlin,5100316
289414441,52.4820047,13.6015579,Das kleine Eiswerk,Hultschiner Damm 76,12623.0,Berlin,10400941
291535997,52.5074506,13.3213947,Pars,Grolmanstraße 53,10623.0,Berlin,4300624
292203637,52.4978961,13.3230488,Zoena,,,Berlin,4501044
292203638,52.4979575,13.3228653,Sweet2go,Pfalzburger Straße 79,10719.0,Berlin,4501044
300658414,52.4445732,13.1306758,Sommercafé Kladow,Lüdickeweg 1,14089.0,Berlin,5400944
305259644,52.5152592,13.3983179,The Coffee Shop,,,,1100207
305260598,52.5191167,13.3985266,Café im Alten Museum,,,,1100206
308410291,52.5213767,13.4096608,Tudo,,,,1100310
308523030,52.5511873,13.4040715,Kiez Kaffee Kraft,Schivelbeiner Straße 23,10439.0,Berlin,3601140
310267635,52.4923209,13.4182784,BlacKawa,Dieffenbachstraße 52,10967.0,Berlin,2200213
310267637,52.4923551,13.4181322,Schönes Café,Dieffenbachstraße 54,10967.0,Berlin,2200213
310268917,52.4937994,13.4190153,Mokarabia,,,,2200213
310269864,52.4931596,13.4203993,Narr-Bar,Böckhstraße 24,10967.0,Berlin,2200213
312697036,52.4866549,13.3551643,Café Bilderbuch,Akazienstraße 28,10823.0,Berlin,7200409
314401620,52.5223054,13.4509232,Ja Dilo,Petersburger Straße 45,10249.0,Berlin,2500726
314752483,52.5351623,13.3986537,caffe e cioccolata,Anklamer Straße 41,10115.0,Berlin,1100416
315549929,52.536814,13.402935,La Lúcuma,Granseer Straße 8,10435.0,Berlin,1100416
315738178,52.5373544,13.4007116,Cup Arkona,Arkonaplatz 10,10435.0,Berlin,1100416
316883775,52.5373736,13.4040229,Cafe Fräulein Dietrich,Fürstenberger Straße 14,10435.0,Berlin,1100416
317179404,52.5472409,13.3580798,Fedora,Müllerstraße 28,13353.0,Berlin,1401048
317550357,52.4310052,13.5319872,Gerdans Café,Rudower Chaussee 26,12489.0,Berlin,9200715
319181468,52.5498572,13.4132889,Espresso House,Schönhauser Allee 116,10439.0,Berlin,3601141
321529369,52.5333583,13.4041902,Glücklich am Park,,,,1100416
323226411,52.4562032,13.307115,Café Viktoria,,,,6300629
324792576,52.4132497,13.3629269,Cafe Europa,,,,7601236
329969468,52.5175686,13.4238976,Lotus Cafe,,,,1100311
330264334,52.5295304,13.4017825,St. Oberholz,Rosenthaler Straße 72,10119.0,Berlin,1100309
332625327,52.5206164,13.384282,Zimt & Zucker,Schiffbauerdamm 12,10117.0,Berlin,1100308
333136478,52.5230929,13.3837544,Café Albrecht,Reinhardtstraße 23,10117.0,Berlin,1100308
333136721,52.5260119,13.3880152,Espresso ambulanz,Oranienburger Straße 51,10117.0,Berlin,1100309
333192881,52.4650127,13.3441689,Wolke,Rubensstraße 108,12157.0,Berlin,7300619
333336881,52.4838008,13.4225619,,Lucy-Lameck-Straße 32,12049.0,Berlin,8100101
334638166,52.5223826,13.384463,Monsieur Toche,Albrechtstraße 19,10117.0,Berlin,1100308
335172577,52.4483263,13.276018,Aux Delices Normands,,,,6400843
335594170,52.5331919,13.4008848,Feuerstein,Veteranenstraße 22,10119.0,Berlin,1100416
336139006,52.5312177,13.4022416,Fleury,Weinbergsweg 20,10119.0,Berlin,1100416
336384859,52.5284446,13.3944118,Café Lenet,,,,1100309
339305531,52.5423416,13.5634074,Cafe & Konditorei,Alt-Marzahn 71,12685.0,Berlin,10100313
339819416,52.5349278,13.4057256,Napoljonska,Kastanienallee 43,10119.0,Berlin,1100416
346196517,52.5412048,13.5705532,Ice Angels,Blumberger Damm 90,12685.0,Berlin,10100316
347278881,52.5331675,13.4018782,bei Maria,Veteranenstraße 11,10119.0,Berlin,1100416
347294453,52.4290088,13.3234863,Genç,Königsberger Straße 4a,12207.0,Berlin,6200421
348053171,52.4383177,13.2327133,Tillmanns Café Krone,Argentinische Allee 2,14163.0,Berlin,6400838
352936932,52.49307,13.367236,Café Monaco,Mansteinstraße 17,10783.0,Berlin,7100206
353900373,52.5888042,13.2802229,Cafefahrt,Alt-Tegel 21,13507.0,Berlin,12200515
361569575,52.4788003,13.42333,Felicia,Weisestraße 8,12049.0,Berlin,8100102
366935821,52.4542786,13.5287854,Kranhauscafé,Paul-Tropp-Straße 11,12459.0,Berlin,9200511
366943233,52.4857307,13.526982,TreBo,Treskowallee 75,10318.0,Berlin,11501340
366986850,52.5065004,13.3133688,Ulteamate,Kantstraße 40,10625.0,Berlin,4300623
370455026,52.5090275,13.3077924,Cafe Lisboa,Goethestraße 34,10625.0,Berlin,4300623
370455636,52.5080285,13.3054849,Homera,Pestalozzistraße 33,10627.0,Berlin,4300623
370852065,52.5470948,13.4153599,Le midi,Greifenhagener Straße 17,10437.0,Berlin,3601346
371832454,52.5102468,13.3075842,Café Kali,Schillerstraße 35,10627.0,Berlin,4300623
380497987,52.5092183,13.3770918,Caras Gourmet,,,,1100205
387487628,52.5095598,13.3797813,eleven,Leipziger Platz 11,10117.0,Berlin,1100205
388291809,52.6003969,13.3790778,Zur alten Backstube,Hauptstraße 155,13158.0,Berlin,3400618
388939733,52.505529,13.4670037,velicious,Lenbachstraße 13b,10245.0,Berlin,2500834
389896794,52.4999162,13.30369,Roberta,,10629.0,Berlin,4500936
394829831,52.51579,13.295969,Café Morgenlicht,Schloßstraße 13,14059.0,Berlin,4300413
412722274,52.4192605,13.7216644,Klein Schwalbenberg,,,,9501838
415308571,52.5453306,13.4213322,Fräulein Dickes,Stargarder Straße 60,10437.0,Berlin,3601347
415309920,52.5412773,13.4225078,Café Bolacha,Senefelderstraße 29,10437.0,Berlin,3601348
416405905,52.4506268,13.2808788,Coffee Station,,,,6400844
417237675,52.4931928,13.4651593,Hafengarten,,,,9100101
427932030,52.5114759,13.3245364,Café Planwirtschaft,Hardenbergstraße 40A,10623.0,Berlin,4300622
428114285,52.4473524,13.315569,Eiscafé Falsone,Hindenburgdamm 58,12203.0,Berlin,6300630
429735606,52.5272029,13.3968878,Spoonful,,,,1100309
431258771,52.6174691,13.4897579,Siebert’s Back & Café,Achillesstraße 65,13125.0,Berlin,3300411
432486560,52.5220903,13.3270868,Endlich Mittag,Helmholtzstraße 23,10587.0,Berlin,4300620
434481239,52.5930118,13.4570289,Kaffeehaus Blankenburg,Alt-Blankenburg 44,13129.0,Berlin,3300514
437194563,52.5190506,13.4102575,Blixen,,,,1100310
437320468,52.5171785,13.3869064,Segafredo,Unter den Linden 36-38,10117.0,Berlin,1100206
438156127,52.514519,13.3258091,Café Shila,Leonida-Zamfirescu-Weg 1,10623.0,Berlin,4300622
440012483,52.5006491,13.4295135,Eve&cat,Lausitzer Platz 1,10997.0,Berlin,2300315
440923198,52.5124847,13.3936722,Einstein Kaffee,,,,1100206
441878995,52.4706565,13.4429525,Café Kent,,,,8100417
442392124,52.4484477,13.3849151,Makara,Mariendorfer Damm 48,12109.0,Berlin,7501030
442534063,52.4488357,13.2783362,Rotes Café,Harnackstraße 1 A,14195.0,Berlin,6400843
443129170,52.4662556,13.4317552,Silber Cafe Bar,Hermannstraße 117,12051.0,Berlin,8100105
443674211,52.4390629,13.2146898,Café Schlacht,Breisgauer Straße 2,14129.0,Berlin,6400737
443728425,52.5380486,13.2068219,Eiscafé Millefiori,Breite Straße 35,13597.0,Berlin,5100316
447436526,52.5232961,13.3234413,Cafeteria im PTZ,Pascalstraße 13-14,10587.0,Berlin,4300620
447904739,52.4398995,13.2137084,Seestern,Am Schlachtensee 70,14129.0,Berlin,6400737
448081472,52.5241735,13.1932594,Café Barfly,Brüderstraße 47,13595.0,Berlin,5200630
454257347,52.4841453,13.439611,Venue,Weserstraße 172,12045.0,Berlin,8100312
459668815,52.5713907,13.4090296,Café Rosenrot,,,,3400724
459672233,52.5819179,13.4043582,Eis-Cafe Kubitza,Dietzgenstraße 22,13156.0,Berlin,3200207
459673806,52.5834832,13.4034581,Johns,,,,3200207
462667753,52.4571248,13.3219704,Espresso House,Albrechtstraße 131,12165.0,Berlin,6100102
469201752,52.5717507,13.4147236,Café Impuls,Breite Straße 49,13187.0,Berlin,3400723
470319909,52.5619796,13.2462072,Seeblick,,,,12200412
473066926,52.4175822,13.3053628,Dolce Vita,Lindenstraße 1,12207.0,Berlin,6200420
474799087,52.4770501,13.4396823,Café Rix,Karl-Marx-Straße 141,12043.0,Berlin,8100416
476258826,52.4792298,13.4455331,Cafe Tribune,,12059.0,Berlin,8100418
476810292,52.5504144,13.4104738,Cafe Sgaminegg,Seelower Straße 2,10439.0,Berlin,3601141
477430712,52.4265984,13.3038598,Enjoy,,,,6300632
486517824,52.4553114,13.5246833,Coffeebar,,,,9200511
489761194,52.5176023,13.3737245,Berlin Pavillon am Reichstag,Scheidemannstraße 1,10557.0,Berlin,1100102
491566232,52.5063206,13.2850956,Pianocafé am Lietzensee,Neue Kantstraße 20,14057.0,Berlin,4300415
493655311,52.5375349,13.4088525,Café Morgenrot,Kastanienallee 85,10435.0,Berlin,3701554
499274751,52.5163204,13.4648762,Tapiocaria,Samariterstraße 34a,10247.0,,2500728
499500765,52.5168592,13.4618241,Elysium Kaffeehaus,Rigaer Straße 25,10247.0,Berlin,2500728
505944632,52.493531,13.3820141,Mr. Minsch,Yorckstraße 15,10965.0,Berlin,2200208
507655174,52.5269738,13.508433,,,,,11300721
508657352,52.5880587,13.2849445,Waffle Brothers,,,,12200515
509405055,52.5139107,13.4952827,Cafeteria,,,,11300725
515879722,52.4799669,13.423336,Café Kent 3,Weisestraße 64,12049.0,Berlin,8100102
520048684,52.5421007,13.4206554,Café Liebling,Raumerstraße 36a,10437.0,Berlin,3601348
530557759,52.5015112,13.2604007,Bistro Waldschulallee,,,,4200207
530715885,52.5419608,13.3574263,Göttlich essen & trinken,Tegeler Straße 23,13353.0,Berlin,1401047
531305449,52.5162817,13.3822317,Café Lebensart,Unter den Linden 69,10117.0,Berlin,1100206
531795198,52.5261737,13.3937554,Cafe Buchhandlung,Tucholskystraße 32,10117.0,Berlin,1100309
533621382,52.5015049,13.2970697,Magnifique,Damaschkestraße 38,10711.0,Berlin,4500936
534572922,52.4856082,13.2985642,Maries Cuisine,Hohenzollerndamm 151,14199.0,Berlin,4400830
536668241,52.4562244,13.5263792,WaschBar mit Stephanus-Shop,Johannes-Kraaz-Straße 9,12459.0,Berlin,9200511
539466865,52.575032,13.2242449,Zur Sonne,,,,12400616
541077710,52.5405112,13.4172239,Lorch & Söhne,Danziger Straße 25,10435.0,Berlin,3601347
544752150,52.5032686,13.4824127,Nadia + Kosta,Türrschmidtstraße 31,10317.0,Berlin,11400927
549227499,52.5482581,13.5001346,Café Zwerg,Konrad-Wolf-Straße 7,13055.0,Berlin,11200411
549227520,52.5487278,13.5009843,K3 Lounge,Konrad-Wolf-Straße 3,13055.0,Berlin,11200411
550408206,52.5434493,13.3633758,Raz,Müllerstraße 163,13353.0,Berlin,1401047
559983461,52.5048357,13.2991984,Cafe Dollinger,Stuttgarter Platz 21,10627.0,Berlin,4300416
560526925,52.5479554,13.4154754,Caffè Monelli,Greifenhagener Straße 53,10437.0,Berlin,3601346
564686130,52.5859108,13.2866935,Coffee Fellows,Veitstraße 40a,13507.0,Berlin,12200515
568525725,52.50166,13.3079215,Frau Behrens Torten,Wilmersdorfer Straße 96-97,10629.0,Berlin,4501040
569992089,52.483723,13.2674353,Wiener Conditorei am Hagenplatz,Hagenplatz 3,14193.0,Berlin,4400728
570034727,52.4518101,13.3304701,Konditorei Rabien,Klingsorstraße 13,12167.0,Berlin,6100206
573381064,52.5113992,13.4688574,Peggy Bee,,,,2500831
575741952,52.415518,13.4709336,Casino am Zwickauer Damm,,,,8401242
581887067,52.4306229,13.1935989,Cafe & Eis,,,,6400737
582747040,52.5313153,13.412804,Café Bar Chagall,Kollwitzstraße 2,10405.0,Berlin,3701556
586536404,52.3865171,13.3995765,Eiscafé Moin Moin,Bahnhofstraße 39,12305.0,Berlin,7601544
597413602,52.536158,13.406129,Friendly Society Berlin (Kulturkaufhaus),Griebenowstraße 23,10435.0,Berlin,1100416
601060497,52.6365888,13.5026966,Alt-Buch,,,,3100102
603798038,52.5368723,13.2045554,Konditorei Fester,Markt 4,13597.0,Berlin,5100316
607756448,52.5401534,13.3753652,Cafe Desd,Schulzendorfer Straße 13,13347.0,Berlin,1300836
609005537,52.4374617,13.2323477,Bahnhofsklause,,,,6400839
611031859,52.5311012,13.4026797,Galão A Pastelaria,Weinbergsweg 8,10119.0,Berlin,1100416
613536371,52.5208955,13.3217679,Backhaus Helmholtz,Helmholtzstraße 1,10587.0,Berlin,4300620
614502665,52.5234417,13.3223481,lunch+more,Pascalstraße 10,10587.0,Berlin,4300620
615147093,52.5241937,13.4022118,Röststätte,Rosenthaler Straße 40-41,10178.0,Berlin,1100309
616297349,52.5094249,13.3056216,Cafe Extrablatt,Wilmersdorfer Straße 46,10627.0,Berlin,4300623
616526854,52.6192673,13.3936976,Steckenpferd,Hauptstraße 35,13159.0,Berlin,3200204
617262898,52.5077347,13.3098133,Eis Michel,Pestalozzistraße 85,10625.0,Berlin,4300623
617342493,52.5006544,13.2968487,Was Gesundes,Joachim-Friedrich-Straße 27,10711.0,Berlin,4500937
618021341,52.468267,13.4672874,Kösk Frühstück & Café,,,,8100521
618571207,52.4471029,13.2806343,Coffeebar FU Wirtschaftswissenschaften,Garystraße 21,14195.0,Berlin,6400843
618993715,52.5108514,13.322867,brot&butter,,,,4300624
621274121,52.4541235,13.3817861,Rudi & Rosa,Viktoriastraße 10-18,12105.0,Berlin,7400825
622136256,52.4902199,13.4560369,Twins Catering,Beermannstraße 2,12435.0,Berlin,9100101
622481673,52.5422898,13.4180647,Das Spielzimmer,Schliemannstraße 37,10437.0,Berlin,3601347
623299186,52.5359288,13.3973584,la Caffèteria,Brunnenstraße 153,10115.0,Berlin,1100415
626328553,52.5077517,13.3990512,Cafe brennBar,,,,2100103
626374681,52.5499124,13.3863271,BAK Breakfast House,Badstraße 8A,,,1300733
627105786,52.5527628,13.385714,Cafe Star,Stettiner Straße 11,,,1300733
629369805,52.5048153,13.3070218,Impala Coffee,Wilmersdorfer Straße 67,10629.0,Berlin,4501040
635820523,52.4616728,13.3255962,Sandwich Art,Schloßstraße 112,12163.0,Berlin,6100103
635871464,52.5154958,13.478308,Cooquin Cafe,,,,11300722
637834348,52.4552464,13.5828604,Cafe/Haus der Jugend Köpenick,,,,9501940
638214074,52.5356286,13.4214006,Coffee Star,Wörther Straße 23,10405.0,Berlin,3701556
639281322,52.4322931,13.5296167,Studentisches Begegnungszentrum Motorenprüfstand,Newtonstraße 16,12489.0,Berlin,9200715
643056998,52.528159,13.5382721,Lara Beach,Helene-Weigel-Platz 4,12681.0,Berlin,10100312
643494404,52.5540116,13.3914822,Dilekerei,Eulerstraße 11b,13357.0,Berlin,1300733
644618647,52.528282,13.538245,Bica Billard & Café,Helene-Weigel-Platz 4,12681.0,Berlin,10100312
647907957,52.5029418,13.4944202,Kleines Cafe,,,,11400929
648207426,52.5099198,13.4984136,Vinacafe Tin Tin,,,,11400929
648259071,52.5095173,13.2087991,,,,,5200634
648259073,52.50954,13.2114308,Captains Inn am Stößensee,,,,5200634
651452392,52.5119621,13.3261805,Coffeebar Wetterleuchten,Straße des 17. Juni 135,10623.0,Berlin,4300622
654401099,52.5104455,13.4541003,Spielwiese Berlin,Kopernikusstraße 24,10245.0,Berlin,2500833
655146770,52.5122546,13.4852364,Becks Bäckerei & Bistro,Frankfurter Allee 172,10365.0,Berlin,11300826
658617876,52.4723377,13.433447,Pee Pees Katzencafé,Thomasstraße 53,12053.0,Berlin,8100208
660502479,52.5013335,13.3007369,Tines Hausgemachtes,,10629.0,Berlin,4500936
661126955,52.5135018,13.3053868,Exclusive Coffee,Zillestraße 74,10585.0,Berlin,4300621
661126968,52.5153002,13.3045991,Schlesische Backstube Hutzelmann,Wilmersdorfer Straße 19,10585.0,Berlin,4300621
662869978,52.4777628,13.2818428,Wiener Conditorei Caffeehaus,Hohenzollerndamm 92,14199.0,Berlin,4400727
664244050,52.4745349,13.2922386,Oase,,,,4400832
666388873,52.4886406,13.301475,Tillmann,Hohenzollerndamm 47a,10713.0,Berlin,4500939
667211344,52.5113062,13.2686117,Café Thiel,,,,4200310
667211368,52.5159551,13.2604129,Wiener Caffeehaus,,,,4200310
667211390,52.5157916,13.2622288,Café Kuhn,,,,4200308
667890052,52.5147577,13.4623755,Die Garbe,Frankfurter Allee 40,10247.0,Berlin,2500830
667893376,52.5376459,13.4084608,The Kafé,Kastanienallee 24,10435.0,Berlin,3701554
668246088,52.4497919,13.252357,Toms Kaffeerösterei,Ladenstraße 50-52,14169.0,Berlin,6400840
668953779,52.4893414,13.3932506,Coffee Cult,Bergmannstraße 89,10961.0,,2200211
668954190,52.4894164,13.392622,Jederzeit,Bergmannstraße 92,10961.0,Berlin,2200211
670658006,52.4804592,13.3520052,Hak Bakery & Breakfasthouse,Dominicusstraße 43,10827.0,Berlin,7200410
675503721,52.6000299,13.3025247,Eiscafé Angelina,,,,12500824
676633343,52.5392474,13.4073495,Kauf dich glücklich,Oderberger Straße 44,10435.0,Berlin,3701554
676826545,52.5308057,13.4024016,Chefs,Weinbergsweg 5,10119.0,Berlin,1100416
676897955,52.4362387,13.261466,Café Lebensart,,,,6400841
676902828,52.534791,13.4248903,Prenzelkasper,Marienburger Straße 39,10405.0,Berlin,3701658
677826168,52.5590025,13.413655,Café La Vineta,Berliner Straße 92,13189.0,Berlin,3400827
678901089,52.4578859,13.2927463,Kornfeld,Königin-Luise-Straße 38,14195.0,Berlin,6400843
679671722,52.6082586,13.2306314,Café Feldblick,,,,12400619
681671395,52.5120748,13.4485823,Cafe Sociale,Gubener Straße 48,10243.0,Berlin,2400624
687075341,52.5124608,13.4892499,U-Back,,,,11300724
687589952,52.4172718,13.4965188,Die EIS Diele,,,,8401243
691484585,52.4554826,13.3251231,Café le Paris,Albrechtstraße 11,12165.0,Berlin,6100102
693892088,52.5029931,13.3208736,einhorn,,10629.0,Berlin,4501041
695831701,52.4974558,13.2959074,Tre Terre,Joachim-Friedrich-Straße 45,10711.0,Berlin,4500938
699851948,52.491494,13.3246763,Café Steinecke,,,,4501149
699851950,52.4914278,13.3252965,Happiness-Heart Café,Güntzelstraße 22,10717.0,Berlin,4501149
700761160,52.5401,13.4115903,An einem Sonntag im August,Kastanienallee 103,10435.0,Berlin,3701554
703501026,52.5430245,13.4126746,Jute Bäckerei,Schönhauser Allee 52A,10437.0,Berlin,3601346
703607113,52.5480242,13.3749562,Cafe Adam,Pankstraße 27,,,1300836
704913843,52.4884134,13.3409245,Bella Italia,,,,7200307
707417295,52.5450226,13.3691344,Oeuf,Reinickendorfer Straße 110,13347.0,Berlin,1401043
707490376,52.552202,13.3821838,Eis Boutique,,,,1300733
715911570,52.5051348,13.2939052,Café Phoenix,Witzlebenstraße 21,14057.0,Berlin,4300416
715911667,52.5099653,13.2977888,Caffé e Panini,,,,4300416
718143748,52.5062211,13.294257,Reporter,,14057.0,Berlin,4300416
718143866,52.5078666,13.2582731,Adiks Stehcafé,Soldauer Allee 22A,14055.0,Berlin,4200207
718143873,52.5061448,13.2941973,Suarez Café,,14057.0,Berlin,4300416
718143894,52.4996474,13.3027278,Kids Planet,Damaschkestraße 4,10711.0,Berlin,4500936
718143924,52.5002493,13.3009439,Velvet Leaf,Damaschkestraße 12,10711.0,Berlin,4500936
721522044,52.5353847,13.4199291,Manufacture Delicate,Rykestraße 7,10405.0,Berlin,3701556
721907907,52.5843498,13.3661533,Sindbad,,,,3400619
725941837,52.5181274,13.2927651,Café Reet,Klausenerplatz 5,14059.0,Berlin,4300413
726126783,52.4740598,13.3147718,R3 Coffee Lounge,Rüdesheimer Straße 1,14197.0,Berlin,4400835
727851984,52.4865603,13.3606762,ess eins,,,,7200411
727852043,52.4945858,13.3541633,Winterfeldt Schokoladen,Goltzstraße 23,10781.0,Berlin,7100204
728708454,52.5238158,13.3377772,Fiaker,Bochumer Straße 5,10555.0,Berlin,1200522
729587083,52.5517673,13.3821694,Lezziz,,,,1300836
730172932,52.4971132,13.3640563,Stehcafé 72,,,,7100205
734960871,52.539387,13.3956763,Künefe,,,,1300834
737197006,52.5268357,13.4783092,Kaffee-Haus Madlen,,,,11300617
738604733,52.3482497,13.6453544,Café Heideklause,,,,9301228
739939511,52.436338,13.3465325,Alpen-Eis,Schulstraße 1,12247.0,Berlin,6200313
742015772,52.4250012,13.4632617,Café Happiness,,,,8300935
745680952,52.4887871,13.4386477,missismiller,Weichselstraße 35,12045.0,Berlin,8100312
745732665,52.48772,13.431108,Ketori,Weserstraße 202,12047.0,Berlin,8100311
746477311,52.4874886,13.4374185,Föllerei,Weichselstraße 30,12045.0,Berlin,8100312
747149311,52.5224842,13.4519398,Ambavi,,10249.0,Berlin,2500726
747493591,52.4867015,13.3263802,Les Baguettes,Berliner Straße 22,10715.0,Berlin,4501149
747493608,52.4905325,13.3338592,Merenda Snacks & Spezialitäten aus Italien,,,,4501152
747528357,52.587098,13.401993,Café maximal,Dietzgenstraße 68,13156.0,Berlin,3200207
750621200,52.5803653,13.4015537,Blauer Stern,Hermann-Hesse-Straße 11,13156.0,Berlin,3200206
752878303,52.4727222,13.4545851,Geschwister Nothaft,Schwarzastraße 9,12055.0,,8100417
752903324,52.4719574,13.4510678,Café Dejavu,Niemetzstraße 22,12055.0,Berlin,8100417
752995885,52.4737502,13.4447944,Gülays Kitchen,Richardplatz 15,12055.0,Berlin,8100416
760002918,52.470691,13.4432437,Tele-Internet-Café,,,,8100417
760035387,52.4970063,13.3084147,Kindercafé Wunderland,Düsseldorfer Straße 40,10707.0,Berlin,4501043
766467492,52.508443,13.3748068,The Barn,Alte Potsdamer Straße 5,,,1100102
766467493,52.5083593,13.3747024,the coffee shop,,,,1100102
766742164,52.4904781,13.4095085,Kiez Vegan,Körtestraße 22,10967.0,Berlin,2200212
766875154,52.4380015,13.546032,Eiscafé Venezia,Florian-Geyer-Straße 109a,12489.0,Berlin,9200716
768569344,52.5152912,13.3336514,Einstein Café,Wegelystraße 1,10623.0,Berlin,4300620
769850000,52.5664578,13.3632601,Cafe Irmak,Residenzstraße 122,13409.0,Berlin,12100102
771332593,52.5042035,13.3438641,Cafe Belmont,,,,7100101
773342385,52.5405949,13.4192924,Suicide Sue,Dunckerstraße 1a,10437.0,Berlin,3601348
773640803,52.5090499,13.3750816,Panoramacafé,,,,1100102
774485383,52.5407053,13.4159966,Asmen Feinkost,Danziger Straße 19,10435.0,Berlin,3601347
775342935,52.4585143,13.3215886,Fendricks,Muthesiusstraße 1,12163.0,Berlin,6100102
775342945,52.4586454,13.3227066,Confiserie Reichert,Schloßstraße 96,12163.0,Berlin,6100102
775862458,52.5017035,13.3137428,Kant Café,Walter-Benjamin-Platz 8,10629.0,Berlin,4501041
775862467,52.503883,13.3169154,Cali Bocca,,10629.0,Berlin,4501041
775862481,52.503825,13.313729,Kame,Leibnizstraße 45,10629.0,Berlin,4501041
775862484,52.5039936,13.3224052,1900,,10623.0,Berlin,4501041
776125571,52.5175085,13.3071924,KaraMels,,,,4300619
778710960,52.5399494,13.4114208,Kaffee Marlene,Kastanienallee 103,10435.0,Berlin,3701554
778710965,52.539385,13.4103183,Eis Bar,,,,3701554
779033051,52.5057585,13.4062281,masal,,,,2100104
790502622,52.5341014,13.4201663,Bettyn Caty,Knaackstraße 8,10405.0,Berlin,3701556
792057080,52.5360975,13.6095221,Die Kiste,Heidenauer Straße 10,12627.0,Berlin,10200524
793020082,52.5355294,13.3895386,Bistro Grenzfall,,,,1300835
794213642,52.5018471,13.4175899,Milch & Zucker,Oranienstraße 37,10999.0,Berlin,2300314
800128344,52.4629091,13.3386564,JamJam Eis,,,,6100209
800786280,52.5126458,13.468956,Herman Schulz,Finowstraße 33,10247.0,Berlin,2500831
802550080,52.5399974,13.4053802,Bonanza Coffee Heroes,Oderberger Straße 35,10435.0,Berlin,3701554
809726248,52.4984392,13.4335985,Cafe Isa Mitz,Görlitzer Straße 1,10997.0,Berlin,2300418
809927484,52.5230254,13.399815,Café Neundrei,Monbijouplatz 2,10178.0,Berlin,1100309
813354337,52.4425443,13.2949936,Berliner Genussmanufaktur,Curtiusstraße 8,12205.0,Berlin,6300634
814185643,52.5187671,13.5676003,Caféteria,Warener Straße 7,12683.0,Berlin,10300732
821271943,52.508244,13.3900606,Coffee Fellows,Friedrichstraße 204,10117.0,Berlin,1100207
823779622,52.5438537,13.4162712,Pakolat,Raumerstraße 40,10437.0,Berlin,3601347
823788770,52.4533177,13.2865366,CoffeeCross,Thielallee 34,14195.0,Berlin,6400843
831416217,52.4902868,13.3533984,Tee Tea Thé,Goltzstraße 2,10781.0,Berlin,7100204
832835292,52.5531634,13.3661352,Golden Bäcker & Eis Café,,,,1401049
833164275,52.4642659,13.3282185,WonderWaffel,Schloßstraße 128,12163.0,Berlin,6100103
837695966,52.4331186,13.5355616,Bäckerei Wahl,,,,9200715
837697399,52.4491175,13.5126469,Pinoli,Nieberstraße 12,12487.0,Berlin,9100408
839543566,52.5304933,13.4076613,L21,Lottumstraße 21,10119.0,Berlin,3701554
849634209,52.5114415,13.4571362,Fatoush,Simon-Dach-Straße 41a,10245.0,Berlin,2500833
849791887,52.5517753,13.4878352,Aquarium Café,Suermondtstraße 3,13053.0,Berlin,11200512
855341809,52.5521179,13.3622806,Karadeniz Lokali,,,,1401049
858993575,52.5329269,13.4130892,LPG Bistro,,,,3701556
861329092,52.5211298,13.300105,Café La Mouche am Schloß Charlottenburg,Charlottenburger Ufer 1,10587.0,Berlin,4300619
862030918,52.5143243,13.3147167,Café Mediterrane,,,,4300621
862992897,52.4955306,13.4273449,Fourty Years,Lausitzer Straße 34,10999.0,Berlin,2300417
863057757,52.5208397,13.4101065,Espresso House,Panoramastraße 1A,10178.0,,1100310
865291775,52.523655,13.3293853,La Fabrica Food,Gotzkowskystraße 19,10555.0,Berlin,1200517
865931269,52.499904,13.418011,Simitdchi,Adalbertstraße 97,10999.0,Berlin,2300314
866049060,52.5016751,13.418271,luzia,Oranienstraße 34,10999.0,Berlin,2300314
867234044,52.5018088,13.4169524,Café Alibi,Oranienstraße 166,10999.0,Berlin,2300314
867271475,52.5010875,13.418963,Café Três,Adalbertstraße 91,10999.0,Berlin,2300314
867497526,52.5273463,13.3308641,Pfau,Turmstraße 55,10551.0,Berlin,1200519
867497537,52.5254463,13.3299052,Eis Rialto,,,,1200521
867734682,52.5023636,13.4169636,ART en chocolat,Oranienplatz 15,10999.0,Berlin,2300314
867751944,52.5011789,13.420052,Smyrna Kuruyemis,Oranienstraße 27,10999.0,Berlin,2300314
871641850,52.4996233,13.4172801,Ağrı Efsanesi,,,,2300314
874274557,52.5001477,13.4181523,Cafe Kotti,,,,2300314
874353331,52.5026859,13.4145875,ichorya,Oranienstraße 42,10969.0,Berlin,2100104
876181984,52.5163595,13.3929727,TIM’s Bakery & Deli,Bebelplatz 1,10117.0,Berlin,1100206
876497311,52.5117429,13.4561409,Black Bowl,,10245.0,Berlin,2500833
886097100,52.4983654,13.4284928,Café Mori,Wiener Straße 13,10999.0,Berlin,2300417
886309568,52.495893,13.4053992,A.Horn,Carl-Herz-Ufer 9,10961.0,Berlin,2200210
894767196,52.4881135,13.3678221,AHA-Berlin e.V.,Monumentenstraße 13,10829.0,Berlin,7200414
894770295,52.5338915,13.4095286,Donath,Schwedter Straße 13,10119.0,Berlin,3701554
895721094,52.526835,13.3393389,Bistro Jonas Café,Jonasstraße 1,10551.0,Berlin,1200520
900404996,52.5059202,13.2011105,Seasidebar,Siemenswerderweg 50,13595.0,Berlin,5200634
904894109,52.5162369,13.4547754,Kaffee & Tee,,,,2500727
918358352,52.5174904,13.2934752,Q-Masch,,,,4300413
920664308,52.4981816,13.3848148,Ökotussi,Großbeerenstraße 11,10963.0,Berlin,2200208
923413825,52.4794544,13.4416806,Pêle Mêle,Innstraße 26,12043.0,Berlin,8100415
925237927,52.4129931,13.143137,Aux Delices Normands,Chausseestraße 2a,14109.0,Berlin,6400735
925524894,52.5044803,13.3378959,leo coffee,,,,4501042
929208382,52.5008266,13.3866122,rundum,Stresemannstraße 37,10963.0,Berlin,2100101
930288682,52.4403717,13.3962769,Park-Café,,,,7501032
931622739,52.4847439,13.4439166,Zimt & Mehl,Weigandufer 16,12045.0,Berlin,8100312
932342550,52.5100684,13.3227678,Giro Coffee Bar,Knesebeckstraße 5,10623.0,Berlin,4300624
935637567,52.4905777,13.3943553,cuccuma,,,,2200211
937913621,52.5270767,13.394678,Bravo,Auguststraße 69,10117.0,Berlin,1100309
940815668,52.4643933,13.2963918,La Vie,,,,6400844
941375461,52.4913067,13.4112178,monsieur ibrahim,Körtestraße 8,10967.0,Berlin,2200212
941475631,52.5408831,13.3479389,Bio-Café Platane des Hippokrates,Föhrer Straße 7,13353.0,Berlin,1401046
944470505,52.5090594,13.3673047,Café Estrade,,,,1100102
945649942,52.5349391,13.4174939,Cafe am Wasserturm,,,,3701556
959238592,52.4887243,13.408271,Kouskous Café Bar,,,,8100101
961626565,52.5274648,13.3925097,Kame,Linienstraße 113,10115.0,Berlin,1100309
963961708,52.4873841,13.4216577,Raffiné,,,,2200212
963961727,52.4870548,13.4227109,Eiscafé Uno,,,,2200212
970422265,52.4879159,13.3946276,Golightly,Friesenstraße 22,10965.0,Berlin,2200211
971891546,52.5164075,13.4725194,QG - Café Français,Pettenkoferstraße 6,10247.0,Berlin,2500729
972319931,52.5122954,13.4173278,BackArt,,,,1100313
974389011,52.5319361,13.4315198,Sech10 - Coffee & Breakfast Club,Hufelandstraße 16,10407.0,Berlin,3701660
974393040,52.5059555,13.2772492,Messesnack Kleiner Stern,,,,4200311
975136815,52.5169402,13.3962176,Operncafé,Unter den Linden 5,10117.0,Berlin,1100206
975312178,52.522594,13.4003855,Viadukt Bistro,,,,1100309
975312193,52.5231934,13.4020866,Starbucks,Neue Promenade 3,10178.0,Berlin,1100309
975693680,52.5068724,13.4540486,Skatehalle Berlin,,,,2500834
978979323,52.5316063,13.3962364,Schneiders Schokoladen,Ackerstraße 149,10115.0,Berlin,1100415
980767608,52.4721688,13.4425773,Café Vux,Wipperstraße 14,12055.0,Berlin,8100417
983602481,52.4894641,13.396443,Italo,Marheinekeplatz 4,10961.0,Berlin,2200211
988995654,52.5461439,13.3976501,Tortenwerkstatt,Gleimstraße 6,13355.0,Berlin,1300834
989022916,52.5200624,13.3910986,Pure Origins,Georgenstraße 193,10117.0,Berlin,1100206
992805974,52.4388235,13.3441377,Malibu,Leonorenstraße 71a,12247.0,Berlin,6200313
992806068,52.4297578,13.3273282,Cafe Rosenduft,Jungfernstieg 4b,12207.0,Berlin,6200421
993801825,52.5383221,13.4098243,Barista,Oderberger Straße 54,10435.0,Berlin,3701554
994711625,52.509983,13.386533,Das Kaffeehaus,Leipziger Straße 16,10117.0,Berlin,1100205
997194050,52.490974,13.4236412,La Femme,,,,8100311
1006711174,52.437981,13.2951499,Frau Lüske,Baseler Straße 46,12205.0,Berlin,6300634
1011764416,52.5065755,13.3020578,Limone,,,,4300416
1014797816,52.4925818,13.4260274,Saarbach,Sanderstraße 22,12047.0,Berlin,8100310
1029298838,52.532969,13.435551,cafézinho espresso-bar,Bötzowstraße 41,10407.0,Berlin,3701660
1057589896,52.535267,13.4071784,Haliflor,Schwedter Straße 26,10119.0,Berlin,3701554
1059237503,52.553736,13.4655505,Strandbad Weissensee,,,,3500933
1074960875,52.5219239,13.3770007,Bistro im Haus der Bundespressekonferenz,Schiffbauerdamm 40,10117.0,Berlin,1100308
1075397105,52.5218537,13.38456,Sag mir wo die Blumen sind,Albrechtstraße 9,10117.0,Berlin,1100308
1077639186,52.5002405,13.4430425,Café Smyrna,Schlesische Straße 6,10997.0,Berlin,2300419
1078763320,52.5227923,13.3490886,zwölf.uhr.mittags,Kirchstraße 17,10557.0,Berlin,1200626
1078763398,52.524139,13.3491796,coffeemamas,Kirchstraße 2,10557.0,Berlin,1200626
1078763413,52.5241967,13.3491981,Maxway Coffee,Kirchstraße 2,10557.0,Berlin,1200626
1078763421,52.5244316,13.3492903,moa,Kirchstraße 1,10557.0,Berlin,1200626
1078763424,52.5231319,13.3492197,cafépaci,Kirchstraße 19,10557.0,Berlin,1200626
1082694815,52.4289169,13.2560014,CoffEy,Machnower Straße 6,14165.0,,6300524
1108199052,52.5023012,13.3097974,Maître Münch,Giesebrechtstraße 16,10629.0,Berlin,4501040
1112868723,52.4784312,13.4300615,Amasya,,,,8100206
1116215472,52.5118676,13.4661017,art.gerecht,Jungstraße 14,10247.0,Berlin,2500831
1121340468,52.4797837,13.2794419,3gold,,,,4400728
1126457748,52.444924,13.5756378,Mokkafee,Grünstraße 21,12555.0,Berlin,9401534
1127766779,52.5655524,13.4001871,Café Paula,,,,3400721
1127766843,52.5653802,13.4037971,Trivitys,Florastraße 27,13187.0,Berlin,3400721
1131533968,52.5092173,13.5269246,Coffeebar,Alt-Friedrichsfelde 60,10315.0,Berlin,11401034
1133787154,52.5237358,13.1974152,Rücker,Pichelsdorfer Straße 99,13595.0,Berlin,5200630
1135716864,52.5645076,13.3708829,Café Goldzug,,,,12100101
1137567654,52.4742961,13.3329289,Weinbeisser,Handjerystraße 90,12159.0,Berlin,7300517
1140719947,52.4955993,13.4268698,Regenbogenfabrik Soli-Café,Lausitzer Straße 22,10999.0,Berlin,2300417
1154259642,52.4923589,13.4262022,Sing Blackbird,,,,8100310
1156532513,52.5094541,13.3249126,Café Hardenberg,Hardenbergstraße 10,10623.0,Berlin,4300624
1157372924,52.569827,13.394497,Kaffeehaus Rosengarten,Wilhelm-Kuhr-Straße 27,13187.0,Berlin,3400620
1158236121,52.5384946,13.4104199,DÄRI Frozen Yogurt,Oderberger Straße 6,10435.0,Berlin,3701554
1159055478,52.5282883,13.4245886,Melis Coffee,Am Friedrichshain 35,10407.0,Berlin,3701660
1165884601,52.4869857,13.428753,Schicha Habibi,,,,8100311
1165969884,52.4986682,13.4264959,HayHay,Skalitzer Straße 38,10999.0,Berlin,2300417
1167205365,52.4995796,13.4347585,Trash No. 54,,,,2300315
1168905946,52.5181423,13.279605,La Manife (& DHL/DPD Pakete),Spandauer Damm 115,14050.0,Berlin,4200311
1170145498,52.5180469,13.3163455,Yaz Up,Guerickestraße 38,10587.0,Berlin,4300619
1172020940,52.6068952,13.419925,lilastern - Das Eltern-Kind-Café,Hugenottenplatz 2,13127.0,Berlin,3200310
1175886847,52.5073392,13.309583,AJBrasil,Krumme Straße 57,10627.0,Berlin,4300623
1180916040,52.6179422,13.3544855,Eisbar Angelina,,,,12500929
1187333100,52.5046568,13.3253099,Stulle mit Brot,,,,4501041
1187333115,52.5036379,13.3256024,Café Lila,,,,4501042
1187355556,52.4950249,13.4230147,Brammibals Donuts,Maybachufer 8,12047.0,Berlin,8100310
1188954629,52.5024732,13.3234064,Caras,Kurfürstendamm 36,10719.0,Berlin,4501041
1194782083,52.5190117,13.2969673,Kunstpause,,,,4300414
1194782107,52.5069595,13.2968527,Café Kredenz,Kantstraße 81,10627.0,Berlin,4300416
1198087064,52.530458,13.1959382,Florida Eiscafé,Klosterstraße 15,13581.0,Berlin,5200629
1198396904,52.4604707,13.3248225,Just a little crush,Hubertusstraße 14,12163.0,Berlin,6100103
1209659439,52.492664,13.3829619,Kuchenkultur,Großbeerenstraße 28d,10965.0,Berlin,2200209
1210101080,52.552585,13.409725,elf Gaststätte,Paul-Robeson-Straße 11,10439.0,Berlin,3601141
1210805845,52.5271934,13.3323471,90 Grad,Turmstraße 50,10551.0,Berlin,1200519
1214196409,52.5029367,13.3216989,Cappuccino,,10623.0,Berlin,4501041
1216641554,52.5030318,13.3202603,Espressobar,,10629.0,Berlin,4501041
1219857968,52.5053547,13.3276348,BagCo,,,,4300622
1224145991,52.5120778,13.3911878,Rausch Schokoladenhaus,Charlottenstraße 60,10117.0,Berlin,1100207
1226789679,52.5110151,13.2941867,alea,Kaiserdamm 3A,14057.0,Berlin,4300414
1229303959,52.4482443,13.3056286,La Pallina,Hortensienstraße 12B,12203.0,Berlin,6300629
1229408775,52.5097639,13.3055486,Black Fox Coffee,,10627.0,Berlin,4300623
1231246020,52.5530058,13.4673589,Residenz Weisser See,,,,3501038
1232192569,52.5472088,13.3582226,Sisters Coffee & Waffle,Müllerstraße 28,13353.0,Berlin,1401048
1235239480,52.5082223,13.2856507,See-Stübchen,,,,4300415
1235266872,52.4795856,13.6007254,Backstube & Café,Hultschiner Damm 51,12623.0,Berlin,10400940
1237776947,52.5040092,13.415139,Kombrink,Dresdener Straße 27,10999.0,Berlin,2300314
1238525253,52.560721,13.4444227,Sonnenwinkel,,,,3500932
1239746377,52.5119941,13.376716,Café Lebensart,Lennéstraße 1,10785.0,Berlin,1100102
1244902063,52.4975068,13.431027,Tiki Heart,Wiener Straße 20,10999.0,Berlin,2300417
1246581868,52.4835037,13.4445081,hom,Wildenbruchplatz 5,12045.0,Berlin,8100418
1248675710,52.5524184,13.4116955,Cafe Gold,Paul-Robeson-Straße 6,10439.0,Berlin,3601141
1254056139,52.62707,13.501353,Kaffee-Haus Madlen im Café Max,Robert-Rössle-Straße 10,13125.0,Berlin,3100103
1254063155,52.5892738,13.2836029,Café Röttgen,Berliner Straße 3,13507.0,Berlin,12200515
1254064335,52.5060452,13.2958488,Aud Réy,Holtzendorffstraße 18,14057.0,Berlin,4300416
1255588544,52.4930669,13.4152562,dildile,,,,2200213
1256737675,52.4940938,13.4183887,Mephisto,Graefestraße 10,10967.0,Berlin,2200213
1256737702,52.4935579,13.4184004,"Dobedo kleider, kuchen, künste",Graefestraße 82,10967.0,Berlin,2200213
1256737721,52.4943854,13.4167548,TEE·SALON·IKI,Böckhstraße 50,10967.0,Berlin,2200213
1256737730,52.4929383,13.4174689,Mitterhofers Tönchen und Lenchen,Graefestraße 18,10967.0,Berlin,2200213
1256785842,52.4916174,13.3235176,Non Solo Vini,Güntzelstraße 26,10717.0,Berlin,4501149
1256888920,52.4870704,13.4287534,Villarge,,,,8100311
1270333627,52.5061361,13.4955614,Green Wall Coffee,Sophienstraße 27,10317.0,Berlin,11400929
1279671584,52.5370584,13.4345124,Café Laelia,Greifswalder Straße 50,10405.0,Berlin,3601451
1279778647,52.5901547,13.2870331,BoBoQ Tegel Quartier,,13507.0,Berlin,12200515
1282111609,52.5021031,13.3042274,SharaZad,,,,4500936
1292651153,52.378745,13.6450939,Winkels Eis-Café,Adlergestell 751,12527.0,Berlin,9301228
1293209201,52.5144197,13.4949395,Winkels Cafe Restaurant Bar,Fanningerstraße 27,10365.0,Berlin,11300725
1305230458,52.5182083,13.3148036,Arrey,,,,4300619
1305276032,52.4869118,13.4307821,Zip,Pannierstraße 57,12047.0,Berlin,8100311
1306177287,52.4874287,13.4271307,schaumschläger,Hobrechtstraße 11,12047.0,Berlin,8100311
1306177292,52.4865589,13.4295126,Camon Coffee,Sonnenallee 27,12047.0,Berlin,8100311
1307115261,52.4692685,13.4324824,Fincan,Altenbraker Straße 26,12051.0,Berlin,8100208
1307115302,52.4701508,13.4315508,Café Canisi,Schierker Straße 23,12051.0,,8100208
1309021878,52.5136469,13.462356,Coffein Centrale,Mainzer Straße 6,10247.0,Berlin,2500830
1311121818,52.5007728,13.2992627,pera,,10711.0,Berlin,4500936
1313503788,52.5135742,13.2946805,Selmani Bäckerei & Konditorei Café,,,,4300413
1314614830,52.4906157,13.3863191,bagel coffee culture,Mehringdamm 66,10961.0,Berlin,2200209
1314769761,52.51283,13.3935515,Kulturcafé Quchnia,Markgrafenstraße 35,10117.0,Berlin,1100206
1315492722,52.452404,13.1448711,Eiskreme Hausgemacht,Sakrower Kirchweg 1-3,14089.0,Berlin,5400944
1319751809,52.5273017,13.3311755,Cafe Bar Istanbul,Turmstraße 54,10551.0,Berlin,1200519
1326048795,52.4827139,13.1716037,Hofcafe,,,,5400942
1331751571,52.4463093,13.5747815,Altstadtcafé Cöpenick,Alt-Köpenick 16,12555.0,Berlin,9401534
1331755902,52.4461719,13.5763467,Milchkaffee,Kirchstraße 5,12555.0,Berlin,9401534
1332424262,52.5171831,13.436985,Café Sibylle,Karl-Marx-Allee 72,10243.0,Berlin,2400623
1333812249,52.4639085,13.3315579,Thoben,Schöneberger Straße 8,12163.0,Berlin,6100209
1336637898,52.5375029,13.2034027,Ciao Eisladen,,,,5100316
1336663082,52.5005266,13.4227441,Taqueria Florian,,,,2300314
1336704611,52.4904343,13.3920962,Molinari & Ko,Riemannstraße 13,10961.0,Berlin,2200211
1336725589,52.5388469,13.2061316,,,,,5100316
1336852734,52.4947113,13.4192862,Sausebrause,,,,2200213
1336954808,52.5361238,13.4372761,Café 157,John-Schehr-Straße 24,10407.0,Berlin,3601451
1339054034,52.5059664,13.316565,Long Story Short,Kantstraße 134b,10625.0,Berlin,4300624
1342620541,52.5007808,13.4172788,Fräulein Wild,Dresdener Straße 13,10999.0,Berlin,2300314
1346939879,52.5025709,13.4200198,Chez Michel,,,,2300314
1346939936,52.5008776,13.4289001,Cafe Dostlar,,,,2300315
1348552210,52.468253,13.4297907,Horon Cafe,,12051.0,Berlin,8100104
1348552229,52.4681435,13.4287583,Café Günseli,,12051.0,Berlin,8100104
1348720482,52.5015398,13.4319234,Jannimu,Eisenbahnstraße 2,10997.0,Berlin,2300315
1349331526,52.4659592,13.3807181,Cafe Klatsch,Alt-Tempelhof 46,12103.0,Berlin,7400824
1350537933,52.5124553,13.4133041,,,,,1100312
1352718186,52.5509028,13.4200152,Sonderbar,,,,3601243
1356526442,52.5717427,13.3117338,Eis Schober,,,,12200310
1363833363,52.4553547,13.3856182,Café Lebensart,Tempelhofer Damm 227,12099.0,Berlin,7400927
1365431665,52.5417028,13.2358828,Ce la vi,,,,5300737
1365742613,52.4889168,13.4047768,Two Trick Pony,Bergmannstraße 52,10961.0,Berlin,2200211
1367516641,52.5284889,13.3765681,Egen Tied,Invalidenstraße 90,10115.0,Berlin,1100308
1372320333,52.4695377,13.4234072,Warthe-Mahl,Warthestraße 47,12051.0,Berlin,8100104
1374234648,52.5116504,13.4611248,Weder gestern noch morgen,Gärtnerstraße 22,10245.0,Berlin,2500833
1374234665,52.5111231,13.4615464,Faves,Grünberger Straße 83,10245.0,Berlin,2500833
1383039164,52.5652664,13.3628164,Café am See,Residenzstraße 43,13409.0,Berlin,12100204
1386424940,52.476987,13.4224107,TERZ,Herrfurthplatz 14,12049.0,Berlin,8100102
1387515956,52.465632,13.3809397,Bäckerei Biene Maja,Schönburgstraße 1,12103.0,Berlin,7400824
1387515959,52.465494,13.3835138,Café Berlina,,,,7400824
1387922023,52.5332473,13.1568948,Café Galaxy,,,,5200420
1389048016,52.4997963,13.4387375,Baretto,,10997.0,Berlin,2300419
1389054322,52.4999124,13.4238645,Cassonade,,,,2300315
1390047426,52.5212712,13.4497689,Lachmanns leckere Waffeln,Petersburger Platz 4,10249.0,Berlin,2400522
1390695197,52.4944067,13.4600197,Muca,Martin-Hoffmann-Straße 16,12435.0,Berlin,9100101
1391486693,52.4563231,13.3219985,Coffee Time,,,,6100102
1394484108,52.4781398,13.328193,Bundesbrot,Bundesplatz 9,10715.0,Berlin,4501151
1397070387,52.5049434,13.3679278,Staabi Back & Bistro Kiosk,,,,1100104
1401087610,52.5370272,13.4295638,Elena,Danziger Straße 102,,,3701658
1403784421,52.4640916,13.4894902,Cafe Sack,Kiefholzstraße 248,12437.0,Berlin,9100304
1408380025,52.4236381,13.3972867,Eisige Gezeiten,,,,7501134
1409476638,52.4636073,13.3321769,NICO Café Bar,,12163.0,Berlin,6100209
1409483978,52.4627612,13.3348477,Buon Cafe,Poschingerstraße 34,12157.0,Berlin,6100209
1412218896,52.517102,13.3859461,Cafe Einstein,Unter den Linden 42,10117.0,Berlin,1100206
1413338645,52.5630585,13.5692916,Golferia Berlin,Wittenberger Straße 50,12689.0,Berlin,10100103
1420377685,52.4020992,13.5648215,FrozenFire Kaffeehaus,Buntzelstraße 92,12526.0,Berlin,9301024
1423930314,52.5206232,13.4590452,"Ryans Eis, Waffel & Co.",Eldenaer Straße 58,10247.0,Berlin,3601453
1425004085,52.4972719,13.4317026,My First Love,,,,2300417
1425707922,52.4817967,13.4251322,Icerde,,,,8100206
1431722014,52.4526349,13.287921,Coffeebar,,,,6400843
1431722015,52.452868,13.2899566,Kauderwelsch,Habelschwerdter Allee 45,14195.0,Berlin,6400843
1432538587,52.5241901,13.4026549,Café Cinema,Rosenthaler Straße 39,10178.0,Berlin,1100309
1433120465,52.519203,13.402645,Bandy Brooks,,,,1100310
1433120467,52.5202185,13.4027007,Food Lounge Berlin,,,,1100310
1438352952,52.5104602,13.3881611,Centolire,,,,1100207
1442933536,52.4587508,13.3894021,,,,,7400927
1444792934,52.5495968,13.3619093,Motte,Nazarethkirchstraße 40,13347.0,Berlin,1401048
1447902834,52.4936199,13.4273135,Green Pineapple,,,,8100310
1450333958,52.5495914,13.4628841,Friedas Glück,Lindenallee 55,13088.0,Berlin,3500936
1453876137,52.5100937,13.5180766,Turo Cafe u. Sportsbar,Alt-Friedrichsfelde 87,10315.0,Berlin,11401032
1454355303,52.4747017,13.4277186,Teehaus Alte Forno,Leykestraße 1,12053.0,Berlin,8100208
1456062232,52.4898723,13.4313321,NikoDemus,,,,8100311
1458852556,52.5054002,13.5146863,Romance Eis - Cafe - Snack,Alfred-Kowalke-Straße 2-4,10315.0,Berlin,11401137
1470688063,52.4899481,13.4253804,Göttin der Weisheit,Lenaustraße 5,12047.0,Berlin,8100311
1470688064,52.4882335,13.4281088,Bullys Bakery,Friedelstraße 7,12047.0,Berlin,8100311
1471137930,52.5305927,13.3837117,The Barn,Invalidenstraße 112,10115.0,Berlin,1100415
1471966102,52.5469244,13.4065317,Empathie Café Bar,Gleimstraße 12,10437.0,Berlin,3601142
1472505562,52.5058941,13.3737159,g4 / Café & bubble tea,Eichhornstraße 1,10785.0,Berlin,1100102
1479236385,52.5617093,13.2069295,Kleines Café,,,,5100105
1486087545,52.5520167,13.4316458,Emma T.,,,,3500934
1489328842,52.5234286,13.379825,Café Luise,Luisenstraße 46,10117.0,Berlin,1100308
1489978776,52.5396848,13.4241249,Einstern,Prenzlauer Allee 195,10405.0,Berlin,3601348
1492336682,52.5326044,13.4307374,Rosa Canina,Hufelandstraße 7,10407.0,Berlin,3701660
1505231651,52.4433179,13.5737816,Schlosscafé,,,,9401534
1511340435,52.484281,13.443209,Cafeteria der Guttempler,Wildenbruchstraße 80,12045.0,Berlin,8100312
1519970045,52.4895119,13.3477991,Stay,Grunewaldstraße 29,,Berlin,7100204
1523646679,52.5304718,13.4185069,Café Julis,Metzer Straße 21,10405.0,Berlin,3701556
1526715525,52.4929734,13.4282957,Katie’s Blue Cat,Friedelstraße 31,12047.0,Berlin,8100310
1535709267,52.511768,13.6119847,Mambo Billard Cafe,,,,10400939
1538359026,52.5397486,13.4060443,Krone Kitchen & Coffee,Oderberger Straße 38,10435.0,Berlin,3701554
1539485134,52.4834604,13.5227536,Bäckerei,Dönhoffstraße 7,10318.0,Berlin,11501339
1542549068,52.5219699,13.4115003,BoBo Q,,,,1100310
1542726699,52.4931466,13.422912,Klötze und Schinken,Bürknerstraße 12,12047.0,Berlin,8100310
1544180781,52.5484679,13.4101238,Café Rhino,Rhinower Straße 5,10437.0,Berlin,3601142
1551867698,52.4977655,13.3792487,Tor 25,Möckernstraße 26,10963.0,Berlin,2200207
1552051681,52.5310103,13.3868181,Oslo Kaffebar,Eichendorffstraße 13,10115.0,Berlin,1100415
1552576662,52.5081113,13.3951983,Russtrôt,Zimmerstraße 56,10117.0,Berlin,1100207
1557125533,52.4681276,13.4325447,leuchtstoff – Kaffeebar,Siegfriedstraße 19,12051.0,Berlin,8100208
1557465381,52.5696348,13.4109162,Liebes Bisschen,Berliner Straße 6,13187.0,Berlin,3400723
1559866469,52.4540287,13.6248219,Das Café,,,,9501737
1562676230,52.633383,13.289765,Kaffeehaus Zeltinger,Zeltinger Platz 1A,13465.0,Berlin,12400721
1569311602,52.5125866,13.411279,Coffee Lab,,,,1100312
1569311609,52.512054,13.4128245,Saftzeit,,,,1100312
1569311627,52.5116965,13.4135233,Schmidt’s Deli Deluxe,,,,1100312
1575536843,52.4902908,13.4267463,Myxa,,,,8100311
1581563474,52.4869859,13.4308776,Bruch,,,,8100311
1586841130,52.5323549,13.396964,Les Pâtisseries de Sébastien,Invalidenstraße 157,10115.0,Berlin,1100415
1587105378,52.5199838,13.3922192,Kaffeeserie,,,,1100206
1587137752,52.5133352,13.386262,Nö!,Glinkastraße 23,10117.0,,1100206
1588368446,52.4771185,13.4480371,almna,Hertzbergstraße 14,12055.0,Berlin,8100415
1590031005,52.5322494,13.3315261,Einer dieser Tage,Waldstraße 32,10551.0,Berlin,1200519
1591637176,52.5248854,13.3789937,Campus Café,Luisenstraße 13,10117.0,Berlin,1100308
1595959821,52.4554889,13.5033093,Das Berliner Frühstück,Südostallee 169,12487.0,Berlin,9100407
1597401733,52.5499137,13.4460153,Eiscafé Surprise,Langhansstraße 136,13086.0,Berlin,3500935
1601806281,52.4910917,13.3940977,Eliza Café,,,,2200211
1602775598,52.5107813,13.4610674,Macondo,Gärtnerstraße 14,10245.0,Berlin,2500833
1608905786,52.5274297,13.4051474,NoMoreSleep,,,,1100309
1608905894,52.5272205,13.4062986,Green Tea Café Mamecha,Mulackstraße 33,10119.0,Berlin,1100309
1617351357,52.4905819,13.4480821,Il Sogno,Karl-Kunger-Straße 18,12435.0,Berlin,9100101
1617444761,52.4337358,13.2868004,Bäckerei Bärenstark,Ringstraße 48,12205.0,Berlin,6300634
1621270112,52.5357069,13.4210922,Tenzan Lab.,Wörther Straße 22,10405.0,Berlin,3701556
1632237622,52.4107281,13.3302591,Cafe am Park,,,,6200423
1636909103,52.499783,13.4393804,Sofia,Wrangelstraße 93,10997.0,Berlin,2300419
1637037148,52.4999364,13.438338,Estate Coffee,Wrangelstraße 39,10997.0,Berlin,2300419
1644096101,52.4895882,13.4404319,Café Kalle Klein,Harzer Straße 109,12435.0,Berlin,9100101
1648374191,52.4838386,13.4327862,Kiez Backshop,Donaustraße 118,12043.0,Berlin,8100314
1650697555,52.4767265,13.4200344,Engels,Herrfurthstraße 21,12049.0,Berlin,8100102
1659884043,52.5479045,13.3559595,Sechs fünf,Müllerstraße 145A,,,1400942
1665753563,52.4841475,13.4365729,Café Tschüsch,Fuldastraße 12,12045.0,Berlin,8100312
1685663904,52.5439586,13.4151937,Café Butter,Pappelallee 73,10437.0,Berlin,3601346
1695272245,52.5335102,13.40222,Edel & Faul,Veteranenstraße 16,10119.0,Berlin,1100416
1699572602,52.5222497,13.336143,Eisbox,,,,1200522
1699759457,52.522842,13.398625,handmade Berlin,,,,1100309
1702699761,52.4649573,13.4865998,Schwarz & Rot,Baumschulenstraße 23,12437.0,Berlin,9100304
1706967652,52.568189,13.4124173,Milchmanns,Berliner Straße 119,13187.0,Berlin,3400723
1714250170,52.5229855,13.3828675,Backshop Cafe am Deutschen Theater,Reinhardtstraße 27,10117.0,Berlin,1100308
1717925725,52.4900924,13.4273743,Brezel Company,Lenaustraße 10,12047.0,Berlin,8100311
1718497602,52.4823234,13.4359972,Café Istanbul,,,,8100314
1718497603,52.4825188,13.4363725,Bichou,Schönstedtstraße 14,12043.0,Berlin,8100314
1718570743,52.4970772,13.3221363,Kuchen Zeit,Ludwigkirchplatz 12,10719.0,Berlin,4501044
1718668798,52.5446359,13.422957,kaffeebar,Stargarder Straße 55a,10437.0,Berlin,3601348
1721061603,52.4375529,13.2155154,Tayas,Breisgauer Straße 14,14129.0,Berlin,6400737
1728451321,52.5468157,13.4124925,"gestern, heute & morgen",Gaudystraße 1,10437.0,Berlin,3601142
1731205692,52.5490235,13.4061879,Café Schwesterherz,Kopenhagener Straße 22,10437.0,Berlin,3601142
1741956100,52.522285,13.3998676,CentAnni,,10178.0,Berlin,1100310
1743226665,52.490932,13.4128265,no milk today,Fichtestraße 3,10967.0,Berlin,2200212
1746692345,52.5036739,13.3462051,Leckerback Café,,,,7100101
1753752059,52.4770702,13.3711351,Eis Bär,Gontermannstraße 56,12101.0,Berlin,7400720
1762352159,52.5211711,13.3292433,Einstein Kaffee,Franklinstraße 12,10587.0,Berlin,4300620
1766678243,52.6099574,13.2492081,Cafe am Marktplatz,,,,12400619
1773535615,52.4906445,13.323321,Made,Uhlandstraße 124,,,4501149
1776499511,52.4177544,13.4953513,Café Bar Craemer,Alt-Rudow 58,12357.0,Berlin,8401243
1777155489,52.5711208,13.5638073,Rokis café-bar fresh,,,,10100101
1781450171,52.5266968,13.3931906,Princess Cheesecake,Tucholskystraße 37,10117.0,Berlin,1100309
1781450184,52.5266056,13.3941224,Victoria,Auguststraße 74,10117.0,Berlin,1100309
1783259057,52.4445221,13.261344,Café Milch & Honig,Sophie-Charlotte-Straße 29,14169.0,Berlin,6400841
1794131335,52.5196945,13.4036191,Espresso House,,,,1100310
1800983070,52.493128,13.4150077,Brandi Espresso Bar,Dieffenbachstraße 63,10967.0,,2200213
1802244177,52.4349241,13.2574527,Alte Backstube,Martin-Buber-Straße 18,14163.0,Berlin,6300526
1811815459,52.5203576,13.3904824,Coffeebar,Geschwister-Scholl-Straße 1,10117.0,Berlin,1100206
1813236376,52.5043808,13.3906826,coffee point,Puttkamerstraße 7,10969.0,Berlin,2100102
1815228807,52.5219314,13.4017393,La Siesta,Garnisonkirchplatz 2,,,1100310
1819427816,52.5074321,13.4547101,Emma Pea,Revaler Straße 99,10245.0,Berlin,2500834
1825925171,52.4532614,13.4737176,Hofcafé Späth,Späthstraße 80/81,12437.0,Berlin,9100306
1832540155,52.5168683,13.2615548,Eisdiele Gloria,Steubenplatz 5,14050.0,Berlin,4200308
1834289225,52.5404253,13.4052762,Eisstübchen Madlen,Oderberger Straße 31,10435.0,Berlin,3701554
1835112340,52.4974338,13.4410298,Good Morning Coffee,Falckensteinstraße 18,10997.0,Berlin,2300419
1836349969,52.4818162,13.4212116,Café Blume,Fontanestraße 32,12049.0,Berlin,8100101
1844110215,52.531,13.405692,Erchys Coffee & Plants,Choriner Straße 84,10119.0,Berlin,1100416
1846582013,52.5868154,13.3675408,Ventelino,Hauptstraße 30,13158.0,,3400619
1851364969,52.4730604,13.3276274,Kaiser Bäckerei&Café,Friedrich-Wilhelm-Platz 2,12161.0,Berlin,7300515
1851822930,52.5287225,13.335613,Café Zina,,10551.0,Berlin,1200519
1852738792,52.494573,13.3580211,Cafe Palladin,Pallasstraße 8,10781.0,Berlin,7100103
1860400733,52.5235834,13.3994669,Breggs,Oranienburger Straße 84,10178.0,Berlin,1100309
1860404844,52.5235963,13.3992021,Comebuy,Oranienburger Straße 83,10178.0,Berlin,1100309
1860423248,52.5268154,13.3951902,me Café,Auguststraße 68,10117.0,Berlin,1100309
1860444015,52.5235447,13.4009473,Wang Cha,Oranienburger Straße 91,10178.0,Berlin,1100309
1862169690,52.5107534,13.4578148,Cupcake,Krossener Straße 12,10245.0,Berlin,2500833
1862881461,52.4955276,13.2985304,Credo,Westfälische Straße 27a,10709.0,Berlin,4500938
1863558440,52.5317262,13.4319571,Soledor Café,Hufelandstraße 18,10407.0,Berlin,3701660
1868541156,52.4387677,13.3883529,Eis Hennig,Mariendorfer Damm 143,12107.0,Berlin,7501134
1870419336,52.4970766,13.3531602,Café Wagoon,Winterfeldtstraße 48,10781.0,Berlin,7100102
1870419338,52.4971233,13.3534856,Hey Schnecke,Winterfeldtstraße 46,10781.0,Berlin,7100102
1870419380,52.4971063,13.3533676,KiezEis,Winterfeldtstraße 46,10781.0,Berlin,7100102
1870490929,52.4934156,13.3538625,Baltas Coffee Shop,Goltzstraße 17,10781.0,Berlin,7100204
1870490931,52.4940479,13.3540184,Golzo,Goltzstraße 21,10781.0,Berlin,7100204
1870490938,52.4921071,13.3535428,Ombretta,Goltzstraße 12a,10781.0,Berlin,7100204
1882363782,52.5020358,13.3268611,"""Wintergarten"" im Literaturhaus",,10719.0,Berlin,4501042
1882589613,52.503958,13.3333339,Starbucks,Kurfürstendamm 231,10719.0,Berlin,4501042
1882642242,52.5014745,13.3330236,King,Rankestraße 23,10789.0,Berlin,4501042
1883199955,52.4683371,13.328607,Eis Voh,Bundesallee 118,12161.0,Berlin,7300516
1884427969,52.535409,13.397567,Joris,,,,1100415
1891601061,52.5093057,13.4591467,Paletas,Wühlischstraße 26,10245.0,Berlin,2500833
1891619034,52.5075618,13.4563419,Wahrhaft Nahrhaft,Revaler Straße 16,10245.0,Berlin,2500834
1894786511,52.535475,13.4228532,Bootshaus Café,Marienburger Straße 49,10405.0,,3701658
1898418740,52.5162344,13.4825508,Bonjour,Normannenstraße 37,10367.0,Berlin,11300722
1898919376,52.5056639,13.3198539,Cafe Aedes,Bleibtreustraße 5a,10623.0,Berlin,4300624
1905963621,52.497705,13.3246154,MARDİA,,,,4501045
1905971550,52.4933048,13.3221541,Nellys,,,,4501044
1905981083,52.5107974,13.4564059,Homemade,Simon-Dach-Straße 10,10245.0,Berlin,2500833
1914289753,52.5025548,13.4528483,Bean Fifteen,Lehmbruckstraße 15,10245.0,Berlin,2500835
1914552946,52.4979446,13.3233844,Magnifique,,,,4501044
1914553002,52.4976244,13.3233885,Ludwig,Ludwigkirchstraße 10,10719.0,Berlin,4501044
1915578917,52.4976197,13.3516662,San Cristobal,Nollendorfstraße 27,10777.0,Berlin,7100102
1915596902,52.4979518,13.3545763,Café Berio,Maaßenstraße 7,10777.0,Berlin,7100103
1915596923,52.4975547,13.3546662,Maxway Coffee,Maaßenstraße 13,10777.0,Berlin,7100103
1917019358,52.4477609,13.6246356,Mokkafee,Bölschestraße 7,12587.0,Berlin,9501737
1920148932,52.513121,13.4109299,Café Re,Märkisches Ufer 22,10179.0,Berlin,1100312
1924843944,52.517285,13.407669,Bonne Vie Berlin,Propststraße 1,10178.0,Berlin,1100310
1927805998,52.5190904,13.3943048,SBZ Krähenfuß,Dorotheenstraße 17,10117.0,Berlin,1100206
1927815788,52.4830906,13.4417527,K-Fetisch,Wildenbruchstraße 86,12045.0,Berlin,8100312
1928857792,52.532701,13.4232129,Kaffe,Immanuelkirchstraße 6,10405.0,Berlin,3701659
1929568328,52.4962007,13.3274365,Shaniu,Pariser Straße 56,,,4501045
1930103812,52.5316567,13.3259808,Stadtschloss-Treff,Rostocker Straße 32b,10553.0,Berlin,1200518
1932625177,52.5110999,13.3225045,Caras,,,,4300624
1934149461,52.504229,13.3200252,nibs,Bleibtreustraße 46,10623.0,Berlin,4501041
1935018843,52.5299353,13.4106932,The Barn,Schönhauser Allee 8,10119.0,Berlin,3701556
1935699752,52.5099126,13.3010322,Café Köstlich,Schillerstraße 53,10627.0,Berlin,4300416
1944093933,52.4920765,13.4282321,Tischendorf,Friedelstraße 25,12047.0,Berlin,8100310
1944751229,52.5482559,13.400897,Frau Krüger,Kopenhagener Straße 37,10437.0,Berlin,3601142
1948871654,52.5184897,13.2899419,Anno Domini,Klausenerplatz 21,14059.0,Berlin,4300413
1948871666,52.5185996,13.2899199,Café Kiki,Klausenerplatz 22,14059.0,Berlin,4300413
1951034843,52.5236029,13.3851104,Espresso Bar,,,,1100308
1956119086,52.5051356,13.3207985,Fürst & Iven Autorenbuchhandlung,Else-Ury-Bogen 601,10623.0,Berlin,4300624
1962661754,52.4970859,13.4315028,,Ohlauer Straße 4,10999.0,Berlin,2300417
1962769142,52.4770202,13.3287885,Café Adèle,Bundesallee 142,12161.0,Berlin,7300517
1964235485,52.5331615,13.422673,Ralfs Torten Atelier,,,,3701659
1964235517,52.5330508,13.422994,Godshot,Immanuelkirchstraße 32,10405.0,Berlin,3701659
1964250492,52.5329329,13.4225646,Café Blaumond,Immanuelkirchstraße 3,10405.0,Berlin,3701659
1964736150,52.5353789,13.416651,Il Glaciale,Kollwitzstraße 59,,,3701556
1964818110,52.533147,13.40781,Guice,,,,3701554
1965270854,52.4844549,13.4280581,Prizreni,,,,8100206
1965270881,52.4836253,13.4307659,Barbar Aga,,,,8100314
1971713459,52.4962467,13.3959314,Kirchencafe,Zossener Straße 65,,,2200210
1979796735,52.4376095,13.547001,Eis Esila Café,Dörpfeldstraße 42,12489.0,Berlin,9200716
1981033693,52.4937607,13.4125288,Tzom,Dieffenbachstraße 69,10967.0,Berlin,2200213
1994994766,52.4998951,13.4308111,Weltcafé,,,,2300315
2013009711,52.4954914,13.4208452,Café & Bäckerei am Markt,,,,8100310
2021504230,52.5274715,13.5424799,Cafe & Bistro im Ärztehaus,Helene-Weigel-Platz 10,12681.0,Berlin,10100312
2024980009,52.5007861,13.423276,KiezeKlein,Mariannenstraße 7,10997.0,Berlin,2300314
2027152518,52.4826473,13.3258944,Cafe am Volkspark,,10715.0,Berlin,4501151
2028823935,52.4814946,13.3632289,Cafe Mon Cherie,Naumannstraße 48,10829.0,Berlin,7200413
2030956662,52.4864035,13.3196582,Mein Orient,Berliner Straße 127,10713.0,Berlin,4501146
2033281037,52.5024401,13.3166875,SETs,,10629.0,Berlin,4501041
2049027952,52.4367793,13.5447188,Monkey Donuts,Dörpfeldstraße 24,12489.0,Berlin,9200716
2060775214,52.6343912,13.2899811,Lindner & Feinbäckerei,Zeltinger Platz 13,13465.0,Berlin,12400721
2072371209,52.5268335,13.3363386,Marasch Eis,Turmstraße 39,10551.0,Berlin,1200520
2095900330,52.4993125,13.3075146,Aux Délices Normands,Brandenburgische Straße 32,10707.0,Berlin,4501043
2095900366,52.4994919,13.3075003,Breets,Brandenburgische Straße 33,10707.0,Berlin,4501043
2098290149,52.4354778,13.3447856,Cafe Sammeltasse,Kaiser-Wilhelm-Straße 75,12247.0,Berlin,6200313
2098311147,52.5119946,13.3241953,INI-Keller,Straße des 17. Juni 145,10623.0,Berlin,4300622
2102301336,52.5506121,13.3594236,Café Largo,Malplaquetstraße 33,13347.0,Berlin,1401048
2102541972,52.521226,13.3476767,Konditorei & Café Buchwald,Bartningallee 29,10557.0,Berlin,1200629
2102640486,52.5010625,13.5545747,Cafe am Grabensprung,Grabensprung 118,12683.0,Berlin,10300734
2121663158,52.505405,13.3333868,Roca,,,,4501042
2126217579,52.5457235,13.3616876,Yesil Çam,,,,1401043
2126473948,52.4856879,13.3941757,Goldfries,Schwiebusser Straße 45,10965.0,Berlin,7400721
2133748673,52.5381059,13.5611324,EisEck,Allee der Kosmonauten 166,12685.0,Berlin,10100315
2140292702,52.539702,13.4072172,Engelberg,Oderberger Straße 21,10435.0,Berlin,3701554
2143425558,52.4919617,13.3939307,Mokkabar,Gneisenaustraße 93,10961.0,Berlin,2200210
2154327887,52.531218,13.346216,Thea & coffee,Birkenstraße 19,10559.0,Berlin,1200623
2155961177,52.5249129,13.3989764,"""You are welcome""",Große Hamburger Straße 15-16,10115.0,Berlin,1100309
2157243739,52.462487,13.158768,Weichardts Hofladen | Cafeteria Kladow,Kladower Damm 221,14089.0,Berlin,5400942
2160817394,52.4892471,13.4527925,Café Grenzenlos,Plesser Straße 1,12435.0,Berlin,9100101
2163096456,52.5259366,13.4779799,Café Sonnenstrahl,,,,11300619
2166771285,52.5796153,13.2937791,,,,,12200412
2167347246,52.5366668,13.3975708,Handbestand - Altbuchhandel und Kaffeehaus,Brunnenstraße 42,10115.0,Berlin,1100416
2171343152,52.5068798,13.3213697,Bertolini,,10623.0,Berlin,4300624
2176128667,52.458605,13.3814251,Cafe Kurve,Friedrich-Wilhelm-Straße 22,12103.0,Berlin,7400825
2181178529,52.5070536,13.3935284,Misch-Misch Café Bistro,Rudi-Dutschke-Straße 18a,10969.0,Berlin,2100102
2181178530,52.5075282,13.3988291,Café Springfeld,,,,2100103
2181178790,52.5058194,13.3904613,westberlin,Friedrichstraße 25,10969.0,Berlin,2100102
2183466752,52.5097308,13.3732767,Starbucks,Potsdamer Straße 4,10785.0,Berlin,1100102
2183841782,52.5032118,13.3792996,Kaffee lieben wir,Schöneberger Straße 9/10,10963.0,Berlin,2100101
2187058416,52.5178809,13.3880748,Telefónica Basecamp,Mittelstraße 51-53,10117.0,Berlin,1100206
2188663985,52.4925265,13.3553305,JOHANN Bäckerei,Gleditschstraße 47,10781.0,Berlin,7100204
2190105993,52.4901725,13.3860728,Bar Italia,,,,2200209
2196151350,52.5508274,13.3735134,Dujardin,Uferstraße 12,13357.0,Berlin,1401044
2204643562,52.4820593,13.3302306,Super,Bundesallee 161,10715.0,Berlin,4501153
2204880969,52.5449816,13.3742252,Panke Café,Gerichtstraße 23,13347.0,Berlin,1300836
2218321934,52.4563332,13.2995177,Das Café in der Gartenakademie,Altensteinstraße 15A,14195.0,Berlin,6400843
2232551186,52.5018861,13.43189,Kaffee 9,Eisenbahnstraße 43,10997.0,Berlin,2300315
2233864243,52.53717,13.22483,Kart World,Am Juliusturm 15-29,13599.0,Berlin,5300736
2245080198,52.4673434,13.4318209,Fior di Mocca,,,,8100209
2255624853,52.5914557,13.3992462,Agnes Neuhaus Café,,,,3200205
2256111701,52.5277872,13.3393944,Café Wunder,Jonasstraße 7,10551.0,Berlin,1200520
2258203499,52.5518654,13.3743804,Café Pförtner,Uferstraße 8-11,13357.0,Berlin,1401044
2262623769,52.4355445,13.4156465,Seestern,Mohriner Allee 145,12347.0,Berlin,8200729
2264296523,52.5518655,13.3840183,Il Milanese del Tacco,Stettiner Straße 63,13357.0,Berlin,1300733
2275847312,52.4788243,13.4444784,Trinkaus Café,Roseggerstraße 44,12043.0,Berlin,8100415
2284912291,52.5039547,13.3306362,Ampelmann,Kurfürstendamm 20,10719.0,Berlin,4501042
2285494280,52.4818183,13.3798649,Fräulein Frost,Manfred-von-Richthofen-Straße 29,12101.0,Berlin,7400720
2286176643,52.4984717,13.3538283,Ahenam,,,,7100102
2286554245,52.5130534,13.3200138,Café TELquel,Ernst-Reuter-Platz 7,10587.0,Berlin,4300622
2286878625,52.4968299,13.1555099,Café Montalis,Maximilian-Kolbe-Straße 16,14089.0,Berlin,5400942
2287270716,52.4959199,13.3733975,Pauls Liegewiese,,,,2200207
2287794608,52.4887605,13.4233995,Eat & Enjoy,Urbanstraße 87,10967.0,Berlin,2200213
2287826642,52.5017038,13.4194007,WonderWaffel,Adalbertstraße 88,10997.0,Berlin,2300314
2297383148,52.546648,13.3626109,Barcode,,,,1401043
2298418674,52.5474409,13.3638833,Café Bades,Antonstraße 35,13347.0,Berlin,1401043
2298418695,52.5482802,13.3625576,Tetova,,,,1401043
2301610389,52.551765,13.3657509,Café Europa,,,,1401049
2301610457,52.5520232,13.3666409,Internet & Telecafe,,,,1401049
2301610474,52.5520042,13.3661306,Hak Bäckerei,Hochstädter Straße 24,13347.0,Berlin,1401049
2306458644,52.5475145,13.3586494,BoBoQ,Nazarethkirchstraße 51,,,1401048
2315817603,52.4886291,13.4011481,Café Strauss,Bergmannstraße 42,10961.0,Berlin,2200211
2320709661,52.4927363,13.3532929,Café Pink,Goltzstraße 40,10781.0,Berlin,7100204
2322237728,52.4975935,13.4288505,Cutie Pie,Lausitzer Straße 8,10999.0,Berlin,2300417
2327216232,52.4543187,13.3287243,Overcomer,Albrechtstraße 109,12167.0,Berlin,6100208
2328402487,52.4124787,13.5721499,Lieblings-Kaffee,,12524.0,,9301024
2329589241,52.4977522,13.3693839,Café Eule,Bülowstraße 69a,10783.0,Berlin,2200207
2335060179,52.5373431,13.2031601,Italienische Eis Manufaktur,,,,5100316
2335067091,52.5116533,13.4526184,Milch & Zucker,Warschauer Straße 70,10243.0,Berlin,2500833
2335068380,52.5119055,13.452735,KALA,Warschauer Straße 71,10243.0,Berlin,2500833
2335073751,52.5121329,13.4538222,MELT Bistro,Grünberger Straße 40,10245.0,Berlin,2500833
2335074680,52.5121179,13.4538889,La Tazza DOro,Grünberger Straße 40,10245.0,Berlin,2500833
2335130703,52.4903256,13.4240468,Carik Kuruyemis,,10967.0,Berlin,8100311
2335177520,52.4839515,13.435064,soup2go,,,,8100314
2335180297,52.4842273,13.4345045,Bistro-Café tetova,,,,8100314
2336906515,52.4849761,13.3292122,Café Bistro Vili,Wilhelmsaue 134,10715.0,Berlin,4501150
2342631502,52.5189879,13.3925988,Coffeebar c.t.,Universitätsstraße 6,10117.0,Berlin,1100206
2347398750,52.5012925,13.3307086,Carisma Bakery,Joachimsthaler Straße 19,10719.0,Berlin,4501042
2347507121,52.5055383,13.3214359,Coffee Drink Your Monkey,Savignyplatz 11,10623.0,Berlin,4300624
2349075194,52.5130194,13.3973586,the coffee shop,,,,1100207
2352412930,52.5060617,13.3149028,The Pink,,10625.0,Berlin,4300624
2367435171,52.4598243,13.3582387,Café Paresüd,Prellerweg 47-49,12157.0,Berlin,7400822
2377831972,52.546475,13.4335178,Café Eckstern,Sodtkestraße 20,10409.0,Berlin,3601245
2383431410,52.5215627,13.4469191,Frau Honig,,,,2400522
2390772266,52.441269,13.687283,Café Gerch,,,,9501838
2391234910,52.496275,13.2935112,Lou,Westfälische Straße 54,10711.0,Berlin,4500938
2398120502,52.4946846,13.4156477,goldmarie,Grimmstraße 29,10967.0,Berlin,2200213
2398308917,52.5064511,13.3437959,Cafe Minouche,,,,1100102
2406812438,52.437341,13.2334557,La Piazza,Beerenstraße 66,14163.0,Berlin,6400839
2409135234,52.4758569,13.3402464,Café Traum,Hauptstraße 69,12159.0,Berlin,7300517
2409187394,52.4721187,13.3350396,LuLa am Markt,Lauterstraße 14-15,12159.0,Berlin,7300517
2410979582,52.4026799,13.5258814,Tonys Cafe,Ortolfstraße 206A,12524.0,Berlin,9300922
2422635786,52.5415936,13.3506764,Dazwischen,Torfstraße 16,13353.0,Berlin,1401046
2423191980,52.6070436,13.31843,Mühlencafé,Artemisstraße 4,13469.0,Berlin,12500928
2423916731,52.5265876,13.4085992,Cuore Di Vetro,Max-Beer-Straße 33,10119.0,Berlin,1100310
2426748297,52.5282247,13.29746,Cookie Dough,Tegeler Weg 23a,10589.0,Berlin,4300517
2429500285,52.5102963,13.4581081,Neumanns,Gabriel-Max-Straße 18,10245.0,Berlin,2500833
2438834478,52.509038,13.4592702,Calm Coffee,Wühlischstraße 38,10245.0,Berlin,2500834
2439759151,52.5099931,13.2735201,Eiscafé Mauritius,Theodor-Heuss-Platz 2,14052.0,Berlin,4200310
2444312258,52.501168,13.4211245,Companion Coffee,Oranienstraße 24,10999.0,Berlin,2300314
2445454961,52.4849551,13.3200649,Kunstwerk Blisse,Blissestraße 14,10713.0,Berlin,4501146
2451154240,52.485966,13.3637287,Naumann drei,Naumannstraße 3,10829.0,Berlin,7200414
2454290041,52.485329,13.3613164,Sully,Leberstraße 8,,,7200413
2464442845,52.5005854,13.4230002,Cafe Jenseits,,,,2300314
2466173887,52.502968,13.3009576,Eiscafé Juwel,Droysenstraße 19,10629.0,Berlin,4500936
2466173900,52.5054853,13.2970665,Bluebirds,Leonhardtstraße 9,14057.0,Berlin,4300416
2466173940,52.5057082,13.2992682,Windback-Coffee,,,,4300416
2475561025,52.4730163,13.4253955,Pomeranze,Leinestraße 48,12049.0,Berlin,8100103
2476315800,52.4788366,13.3325366,Café Crema,Wexstraße 23,10715.0,Berlin,4501153
2476384356,52.473589,13.4233614,Cafe Kanel,,,,8100103
2476698389,52.4966705,13.3711719,Beach 61,,,,2200207
2477049946,52.5333997,13.4153768,Belfort,,,,3701556
2477072118,52.4803102,13.4249827,Isla Coffee,Hermannstraße 37,12049.0,Berlin,8100102
2477073440,52.4773934,13.4236539,Kaffeeraum,Herrfurthstraße 7,12049.0,Berlin,8100102
2477393152,52.492394,13.4266994,Café Valentin,,,,8100310
2479053614,52.5016056,13.3211244,Callas Café,,,,4501041
2484347003,52.4861043,13.4307767,dreifünf,,,,8100312
2484347005,52.4866514,13.4305142,Fili,Pannierstraße 59,12047.0,Berlin,8100311
2484936123,52.5331589,13.4286271,Aromas Café,Marienburger Straße 26a,10405.0,Berlin,3701659
2485492848,52.4926043,13.4220394,Selimiye,,10967.0,Berlin,2200213
2491967179,52.4931566,13.4339937,L 18,,,,2300418
2492377699,52.5394405,13.3565383,Backufer,Nordufer 5,13353.0,Berlin,1401046
2492377707,52.5408872,13.357451,Coruba Dream,,,,1401046
2493363835,52.4666283,13.4896876,Café Behring,Behringstraße 6,12437.0,Berlin,9100304
2495554365,52.4873533,13.3872353,Los Angelitos,,,,2200211
2495554368,52.4891195,13.39017,Glutanada Café & Bistro,Nostitzstraße 33,10965.0,Berlin,2200211
2495554582,52.4897974,13.3879172,Frau Behrens Torten,,,,2200211
2495556406,52.4881298,13.3917754,Marameo,Chamissoplatz 7,10965.0,Berlin,2200211
2495675254,52.4884663,13.3972032,Conni Island,Heimstraße 24,10965.0,Berlin,2200211
2496651180,52.4900967,13.3884093,Canteen,Bergmannstraße 3,10961.0,Berlin,2200211
2496651195,52.4900418,13.3887714,Einstein Kaffee,Bergmannstraße 105,10961.0,Berlin,2200211
2496651327,52.4911669,13.3873422,Café Sarotti Höfe,Mehringdamm 57,10961.0,Berlin,2200211
2496651338,52.490789,13.3871797,Melitta Sundström,Mehringdamm 61,10961.0,Berlin,2200211
2496651341,52.4904706,13.3870665,espressolounge,Mehringdamm 67,10961.0,Berlin,2200211
2496752204,52.4896112,13.3915288,Fräulein nimmersatt,Bergmannstraße 95,10961.0,Berlin,2200211
2498341346,52.5144179,13.321606,i-café,Fraunhoferstraße 33-36,10587.0,Berlin,4300622
2498835742,52.5071262,13.302521,Eiscafé Italia,Kaiser-Friedrich-Straße 58a,10627.0,Berlin,4300623
2498835784,52.5069383,13.3035027,Venezia,Kantstraße 65,10627.0,Berlin,4300623
2501081509,52.5023302,13.3382153,The visit,Nürnberger Straße 17,10789.0,Berlin,4501042
2502014631,52.5110576,13.3239916,Atomic,Hardenbergstraße 36,10623.0,Berlin,4300622
2502057450,52.5118067,13.3248383,WiwiCafé,Straße des 17. Juni 145,10623.0,Berlin,4300622
2519923021,52.5119925,13.2010234,Freygeist,Alt-Pichelsdorf 1a,13595.0,Berlin,5200634
2520042607,52.5118224,13.288499,The Village,,,,4300414
2524533110,52.5035933,13.3195451,Chokocafé,Bleibtreustraße 15,10623.0,Berlin,4501041
2531902839,52.409948,13.403437,Coco Beach,Lichtenrader Damm 44,12305.0,Berlin,7601442
2532870724,52.5076388,13.3091999,The Passion,Krumme Straße 41,10627.0,Berlin,4300623
2532898304,52.5065804,13.3057457,Café au Lait,Kantstraße 110,10627.0,Berlin,4300623
2541111638,52.4732365,13.4406406,Nice Café,Karl-Marx-Straße 190,12055.0,Berlin,8100208
2542846158,52.5037732,13.4090016,Cafés,Oranienstraße 56,10969.0,Berlin,2100104
2547380145,52.532458,13.4096059,Gina bistrot,Zionskirchstraße 77,10119.0,Berlin,3701554
2552449932,52.4946637,13.3566501,Pallas Back-Snack & Bistro,,,,7100103
2575029355,52.4937361,13.3817731,Café Kreuzzwerg,Hornstraße 23,10963.0,Berlin,2200208
2578675608,52.5656023,13.4077074,blaffke Kaffeebar und Rösterei,Florastraße 37,13187.0,Berlin,3400723
2588408989,52.4625102,13.3149214,Café Mado,Gritznerstraße 43,12163.0,Berlin,6100102
2612036878,52.6247759,13.5017712,MDC Cafe,,,,3100103
2613470004,52.4481113,13.6246639,Heinrichs Kitchen,Bölschestraße 11,12587.0,Berlin,9501737
2613826861,52.5609121,13.4290391,McCafé,Prenzlauer Promenade 45,13089.0,Berlin,3300516
2623259624,52.5077563,13.4537124,KaffeeKult,Revaler Straße 99,10245.0,Berlin,2500834
2628471058,52.4933818,13.4382967,Five Elephant,Reichenberger Straße 101,10999.0,Berlin,2300418
2628596238,52.4897851,13.3957876,Chapter One,Mittenwalder Straße 30,10961.0,Berlin,2200211
2634883659,52.5021268,13.3457005,EspressoBar,Keithstraße 5,10787.0,Berlin,7100101
2634887161,52.5003754,13.3511239,brotzeit,,,,7100102
2637754155,52.4974665,13.2912767,Cups Coffee,Kurfürstendamm 114,10711.0,Berlin,4500937
2639416051,52.5402263,13.4125482,Nothaft,Schönhauser Allee 43a,10435.0,Berlin,3701555
2640326880,52.5071039,13.4686605,19grams,Boxhagener Straße 74,10245.0,Berlin,2500832
2642055411,52.4231349,13.4749346,Diyar Simit Evi,,,,8301037
2642104003,52.5219398,13.4031631,T2,Litfaß-Platz 3,10178.0,Berlin,1100310
2652913677,52.4477613,13.2809256,Cafe Tatort,Vant-Hoff-Straße 8,14195.0,Berlin,6400843
2660995028,52.5128261,13.4111961,Da Bäckerei und Café,,,,1100312
2664750640,52.5537509,13.3916108,Señiorita Ploff Café,,,,1300733
2678567862,52.5100341,13.4583681,Silo Coffee,Gabriel-Max-Straße 4,10245.0,Berlin,2500833
2680764046,52.5010678,13.4204778,USE ggmbh,Oranienstraße 26,10999.0,Berlin,2300314
2683662621,52.4294768,13.4553755,al teatro,,,,8300934
2688558597,52.5148559,13.4540863,Deniz,Warschauer Straße 85,10243.0,Berlin,2500830
2689706273,52.4898978,13.4246172,bRICK coffee&more,Lenaustraße 1,12047.0,Berlin,8100311
2690960245,52.4933909,13.3867428,Uppers,,,,2200208
2708769179,52.5086094,13.4620939,Lemon,Wühlischstraße 17/18,10245.0,Berlin,2500833
2712690375,52.5160502,13.2981003,Café - Villa Oppenheim,Schloßstraße 55,14059.0,Berlin,4300414
2722217302,52.5312173,13.4124939,Pirouette,Saarbrücker Straße 17,10405.0,Berlin,3701556
2722970663,52.5098242,13.255277,Café Benjamine,Sensburger Allee 26,14055.0,Berlin,4200205
2725618122,52.5289921,13.3974614,Röststätte Café,Ackerstraße 173,10115.0,Berlin,1100309
2734481331,52.4876481,13.3737245,Trainspot,Am Lokdepot 1,10965.0,,7200414
2752110987,52.5300891,13.4018041,Katz&Maus,,,,1100416
2756763446,52.5641045,13.3930733,Kahvalti Salonn,,,,1300732
2763457969,52.5293019,13.4705843,Plötners Cafe,Anton-Saefkow-Platz 11,10369.0,Berlin,11300617
2764078986,52.5129884,13.2896415,Giro dEspresso,Knobelsdorffstraße 47,14059.0,Berlin,4300414
2764110685,52.486663,13.431051,Café Espera,Pannierstraße 6,12047.0,Berlin,8100312
2772307545,52.5267285,13.4076235,Five Elephant,Alte Schönhauser Straße 14,10119.0,Berlin,1100309
2796742907,52.5255231,13.4037406,Kaffee Einstein,Rosenthaler Straße 51,10178.0,Berlin,1100309
2815379155,52.52867,13.3192881,Lila Pause,,,,1200517
2821132945,52.5244692,13.3689344,Costa,,,,1200628
2823022545,52.4790539,13.4387942,Prachtwerk,Ganghoferstraße 2,12043.0,Berlin,8100415
2828377772,52.4684303,13.4295399,Loislane,,,,8100104
2836862301,52.5029636,13.4692139,Haferkater,,10245.0,Berlin,2500835
2836947133,52.4562151,13.6250668,Softeis und Kugeleis,Bölschestraße 75,12587.0,Berlin,9501737
2837335509,52.5048459,13.3570157,Richters Backshop & Stehcafé,Lützowstraße 44,10785.0,Berlin,1100103
2841527486,52.4646563,13.3858412,Cafe Miro,,,,7400927
2844631419,52.4655683,13.3846894,Café Alt-Tempelhof,Alt-Tempelhof 23-25,12103.0,Berlin,7400824
2847667701,52.4633342,13.3444078,Kaffee Bohne,Rubensstraße 122,12157.0,Berlin,7300619
2849536401,52.59681,13.346672,Backshop & Cafe Zeit,,,,12601236
2852008191,52.528253,13.337775,Mana Moabit,Bremer Straße 67,10551.0,Berlin,1200520
2852280633,52.4769416,13.4198418,Aviatrix,Herrfurthstraße 13,12049.0,Berlin,8100102
2853426920,52.5387319,13.2055861,Café im Museum “Spandovia sacra”,,,,5100316
2860415301,52.5125555,13.4583684,What a Treat,Boxhagener Straße 27,10245.0,Berlin,2500833
2869920582,52.5363667,13.1809822,Thoben,,,,5200420
2882704098,52.4857761,13.3347549,Cafe Crema,Badensche Straße 46,10715.0,Berlin,4501153
2887512101,52.613738,13.4703802,Kaffeehaus Madlen,Bahnhofstraße 4,13125.0,Berlin,3300412
2888310036,52.4838674,13.4475129,Café Elsken,Kiehlufer 75,12059.0,Berlin,8100419
2901461528,52.4879074,13.394234,Hot Pot Soup,Friesenstraße 6,10965.0,Berlin,2200211
2904138761,52.5290523,13.3933697,Cheers,,,,1100415
2923825868,52.5044207,13.3075748,La Scarpetta,,10629.0,Berlin,4501040
2935229201,52.5642947,13.3261961,Cafe Juan,,,,12200309
2935237610,52.5004144,13.4271747,Café Klas,Manteuffelstraße 34,10997.0,Berlin,2300315
2935334701,52.478905,13.4380239,Rixbox,Richardstraße 1,12043.0,Berlin,8100416
2935337601,52.4810938,13.4265305,,,,,8100206
2935347901,52.5894704,13.2814308,Eiscafé Gelatoni,,,,12200515
2935364316,52.4877729,13.4287633,Barettino,Reuterstraße 59,12047.0,Berlin,8100311
2935422001,52.5059431,13.4662755,Safe,Sonntagstraße 10,10245.0,Berlin,2500834
2935582001,52.5263085,13.4034368,Funk You,Rosenthaler Straße 23,10119.0,Berlin,1100309
2939040146,52.5700973,13.5369257,Cafe Lehmsofa,Dorfstraße 4,13057.0,Berlin,11100102
2940887425,52.5444044,13.3579215,Schwarz & Rot,Genter Straße 7,13353.0,Berlin,1401047
2947954495,52.546906,13.417571,Krümel,Stargarder Straße 73,,,3601346
2947989521,52.4936763,13.4271241,Populus Coffee,Maybachufer 20,12047.0,Berlin,8100310
2952546542,52.5668897,13.3630253,Cafe Lounge,,,,12100102
2952547136,52.5709532,13.360916,,,,,12100103
2966072988,52.4512645,13.3373906,Caffe Appassionata,,,,6100208
2983759499,52.4892671,13.4084215,Eiscafe Delfin,Körtestraße 35,10967.0,Berlin,2200212
2987804839,52.4927967,13.3695214,MUG Backshop,Yorckstraße 51,10965.0,Berlin,7100206
2992722331,52.496401,13.511284,Spel Café,,,,11401136
3001258774,52.5000865,13.3060674,Einstein Kaffee,Kurfürstendamm 72,10709.0,Berlin,4500936
3004065021,52.4550905,13.5768641,amadeus,Bahnhofstraße 9,12555.0,Berlin,9501939
3007109027,52.4773317,13.4230613,LUX,Herrfurthstraße 9,12049.0,Berlin,8100102
3008715734,52.5134592,13.2932741,Café Smyrna,,14059.0,Berlin,4300413
3017245238,52.5020847,13.431415,Kantine Neun,,,,2300315
3021116548,52.5378357,13.603396,Eiscafé Allegro,Lil-Dagover-Gasse 2,12627.0,Berlin,10200421
3026664263,52.5291604,13.3957945,Lost my Love to Italy,Torstraße 165,10115.0,Berlin,1100415
3036860655,52.491379,13.4139775,playing with eels,Urbanstraße 32,10967.0,Berlin,2200212
3037805653,52.5106062,13.322831,Espresso House,Knesebeckstraße 2,10623.0,Berlin,4300624
3039049776,52.5484392,13.4594412,Happa Happa,Smetanastraße 17;21,13088.0,Berlin,3500936
3041547694,52.4515839,13.2703028,Wiener Conditorei,Clayallee 175,14195.0,Berlin,6400842
3042132580,52.5331601,13.4149232,Café Meyer,Kollwitzstraße 26,10405.0,Berlin,3701556
3042132628,52.5371041,13.420774,Neue Liebe,Rykestraße 42,10405.0,Berlin,3701555
3045267666,52.4157748,13.5781158,Cafe im Bürgerhaus Grünau,Wassersportallee 34,12527.0,Berlin,9301126
3045364456,52.5449083,13.5495374,Eiscafé La Gondola,Marzahner Promenade 31,12679.0,Berlin,10100210
3047207560,52.4908416,13.4010258,De Rosa,,,,2200210
3051044948,52.4592426,13.3837179,Pausini,Kaiserin-Augusta-Straße 78,12103.0,Berlin,7400825
3061480423,52.5010038,13.391636,Coffee Corner,,,,2100102
3061546254,52.4108082,13.4029351,Café Obergfell,Lichtenrader Damm 34-36,12305.0,Berlin,7601442
3064733044,52.4937829,13.3535448,meyan,Goltzstraße 36,10781.0,Berlin,7100204
3065469499,52.5392245,13.3958231,Café Wimpernboutique,,,,1300834
3065805133,52.5345909,13.4059197,Caffè Focacceria San Francesco,Kastanienallee 64,10119.0,Berlin,1100416
3070901377,52.5302359,13.4273788,Cafeteria KSES,Greifswalder Straße 16,10405.0,Berlin,3701660
3072343533,52.4896704,13.3370125,60 Grad,Stübbenstraße 8,10779.0,Berlin,7200307
3072345336,52.4941796,13.3375423,Patisserie & Café Lézard,Bamberger Straße 49,10779.0,Berlin,7200307
3073277843,52.4995131,13.4394071,Slava Berlin,Wrangelstraße 43,10997.0,Berlin,2300419
3073303915,52.4984724,13.4425063,Telecafé,Wrangelstraße 81,10997.0,Berlin,2300419
3073307411,52.4986235,13.4415686,Blueberry,Wrangelstraße 52,10997.0,Berlin,2300419
3074642875,52.4889466,13.4027232,Zuckerschock,Bergmannstraße 59,10961.0,Berlin,2200211
3077900876,52.5490597,13.3611113,Auf der Suche nach dem verlorenen Glück,Nazarethkirchstraße 43,13347.0,Berlin,1401048
3081222948,52.5434345,13.3765877,Eis Café Milano,Hochstraße 38,13357.0,Berlin,1300836
3095237531,52.5366234,13.4079042,Chestnut Coffee,Kastanienallee 79,,,3701554
3095299417,52.499718,13.426963,Görlitzer Bahnhof,Audre-Lorde-Straße 87,10997.0,Berlin,2300315
3098125030,52.5299249,13.4019341,Rizo,Torstraße 119,10119.0,Berlin,1100416
3098126329,52.5288123,13.4053958,Lois,Linienstraße 60,10119.0,Berlin,1100309
3099352105,52.4744754,13.5003064,Spreeschlösschen,,12459.0,Berlin,9200510
3100097109,52.5528659,13.4366208,torten & schnittchen,Langhansstraße 101,13086.0,Berlin,3500934
3104033692,52.5500787,13.4082194,Unser Café,Dänenstraße 14,10439.0,Berlin,3601141
3118107218,52.5190669,13.5650282,GenussPur No1,,,,10300732
3140301718,52.543135,13.3634365,,Burgsdorfstraße 16,13353.0,Berlin,1401047
3140301727,52.5432713,13.3641848,Mon Reve,Müllerstraße 163B,13353.0,Berlin,1401047
3149329260,52.4604033,13.3706252,Blanke Helle,,,,7400823
3152593408,52.5419122,13.3563747,NoLe,Sprengelstraße 40,13353.0,Berlin,1401046
3154395039,52.4854903,13.4293665,Roamers,Pannierstraße 64,12043.0,Berlin,8100314
3157743772,52.5265358,13.3776111,Cafeteria,Rahel-Hirsch-Weg 4,10117.0,Berlin,1100308
3157916992,52.4711198,13.3352295,Frau Behrens Torten,Rheinstraße 65,12159.0,Berlin,7300618
3161178436,52.5123101,13.4908099,Café Maggie,Frankfurter Allee 205,10365.0,Berlin,11300724
3163415890,52.4923829,13.3870342,Sindbad Shisha Lounge,Mehringdamm 44,10961.0,Berlin,2200209
3163972953,52.4927548,13.3982908,cafetti,Schleiermacherstraße 9,10961.0,Berlin,2200210
3164685739,52.4973706,13.3809365,Cafe am Möckernpark,Obentrautstraße 70,10963.0,Berlin,2200208
3170513905,52.5243218,13.3497318,Paradise,Kirchstraße 25,10557.0,Berlin,1200626
3178164315,52.4716126,13.3361405,DaBangg Teehaus,Hedwigstraße 18,12159.0,Berlin,7300618
3178171052,52.471628,13.335722,Stay healthy Eat fresh,Rheinstraße 66,12159.0,Berlin,7300618
3180358892,52.5029849,13.4206976,Kaffeekirsche,Adalbertstraße 23,10997.0,Berlin,2300314
3204976696,52.5140285,13.4758186,Coffee Fellows,Frankfurter Allee 113,10365.0,Berlin,11300722
3204999060,52.4631271,13.3236499,Coffee Fellows,Schloßstraße 15,12163.0,Berlin,6100103
3205029103,52.5227223,13.4096521,Coffee Fellows,Karl-Liebknecht-Straße 13,10178.0,Berlin,1100310
3209505565,52.5014295,13.4417758,Tante Emma,,,,2300316
3215791511,52.5106677,13.3305481,cafenero,Fasanenstraße 88,10623.0,Berlin,4300622
3215985262,52.5026689,13.4223606,Café Waldemar,,,,2300314
3219121362,52.4942071,13.3536452,Café M,Goltzstraße 33,10781.0,Berlin,7100204
3219121621,52.4917392,13.3267475,Adams,Trautenaustraße 12,10717.0,Berlin,4501149
3220715909,52.5138071,13.2788139,Café September,Haeselerstraße 20,14050.0,Berlin,4200311
3225776361,52.471258,13.3850948,Blue Eis-Café,Tempelhofer Damm 104,12099.0,Berlin,7400720
3229138226,52.4602687,13.3242827,Gregorys Coffee,Schloßstraße 106,12163.0,Berlin,6100102
3235442169,52.4793487,13.4513117,,,,,8100418
3235730004,52.4752259,13.4527548,Café Carşı,,,,8100417
3235752193,52.4753503,13.4525221,Tele-Internetcafé Sonnenallee,,,,8100417
3239758882,52.5251658,13.4060933,Kaffeemitte,Weinmeisterstraße 9a,10178.0,Berlin,1100309
3239761058,52.5276447,13.4034299,lekkamokka Espresso Bar,Rosenthaler Straße 62,10119.0,Berlin,1100309
3239761059,52.5243115,13.408829,oliv,Münzstraße 8,10178.0,Berlin,1100310
3256320761,52.4898756,13.4082246,Freudberg,,,,2200212
3265557369,52.5095865,13.3232008,Greek Delicious,Knesebeckstraße 97,10623.0,Berlin,4300624
3269283180,52.5485254,13.5060782,Mauritius,,,,11200411
3296607261,52.530919,13.406059,Belyzium Kakao Manufaktur,Lottumstraße 15,10119.0,Berlin,3701554
3296709961,52.534641,13.405447,G&G,Kastanienallee 45,10119.0,Berlin,1100416
3301212261,52.5373497,13.3970118,Hermann Eicke,Brunnenstraße 45,10115.0,Berlin,1100416
3309942461,52.5208464,13.4057651,Wine & Coffee House,Karl-Liebknecht-Straße 7,,,1100310
3312315280,52.4785002,13.4419468,Café Harem,Donaustraße 54,12043.0,Berlin,8100416
3314477540,52.5429448,13.339221,Rudolfs im Gästehaus,,,Berlin,1400938
3326963969,52.5086641,13.4529114,Roots Café,Libauer Straße 10,10245.0,Berlin,2500834
3330737658,52.520984,13.2771597,Café Bistro,,,,4200308
3342853687,52.4967824,13.482013,Crêpes à manger,,,,11501238
3343102776,52.49196,13.3510758,Le Bretagne,,,,7100204
3343102818,52.4900203,13.3535008,Käffilein,Grunewaldstraße 16,10823.0,Berlin,7100204
3343267710,52.5123636,13.3279986,Coffeebar am Audimax,Straße des 17. Juni 135,10623.0,Berlin,4300622
3343659750,52.4989491,13.3622347,call+more,Potsdamer Straße 132,10783.0,Berlin,7100103
3349916393,52.4948037,13.4155711,Milchmädchen,Grimmstraße 30,10967.0,Berlin,2200213
3350472097,52.4713953,13.4294188,Roasters,,,,8100208
3351605893,52.540199,13.40025,Lerncafé,,,,1300834
3354053698,52.4767619,13.3263263,Lehmbrucks,Fehlerstraße 1,12161.0,Berlin,7300515
3354430613,52.5031992,13.3348539,au petite delice,Rankestraße 31,10789.0,Berlin,4501042
3354437236,52.5014612,13.3253136,Berliner Kaffeerösterei,Uhlandstraße 173-174,10719.0,Berlin,4501042
3354437263,52.5007378,13.3251853,Blueberry,Uhlandstraße 168,10719.0,Berlin,4501042
3363345993,52.5324149,13.3979006,Café Cathrin,Invalidenstraße 161,10115.0,Berlin,1100415
3367877663,52.5068382,13.3282532,chicco di caffè,,,,4300622
3374664252,52.5425837,13.3439501,Cafeteria-Nord,,,,1400938
3381157694,52.527267,13.3989126,Factory Girl,Auguststraße 29,10119.0,Berlin,1100309
3383029141,52.5600506,13.4135936,Jannys Eis,Elsa-Brändström-Straße 1,13189.0,Berlin,3400829
3391940093,52.4996576,13.3036768,CousCous Schale,,,,4500936
3394536430,52.5231308,13.4404411,Traum-Bäckerei,Matthiasstraße 11,10249.0,Berlin,2400521
3398280593,52.5466528,13.4186419,Pursuit of Coffee,Pappelallee 36,10437.0,Berlin,3601347
3407084152,52.5112106,13.291342,Bärliner Tapasserie,Danckelmannstraße 30,14059.0,Berlin,4300414
3409427012,52.4759329,13.4262374,m|a - feine Kost,Kienitzer Straße 93,12049.0,Berlin,8100103
3411198757,52.4737828,13.4490888,Harvest,Böhmische Straße 46,12055.0,Berlin,8100416
3418007717,52.5896415,13.3090009,Cafeteria,,,,12500927
3427181066,52.4205254,13.4921181,Simit Haus,Alt-Rudow 19,12357.0,Berlin,8401243
3442750175,52.4940532,13.4378061,Antoinette Café,Glogauer Straße 6,10999.0,Berlin,2300418
3442988798,52.52446,13.4018019,Cocktailgarten & Kaffeekaschemme,,,,1100309
3444591295,52.4790196,13.3626214,Cafe Peppe,Torgauer Straße 2,10829.0,Berlin,7200413
3446657748,52.484251,13.3615931,Mokalola,Leberstraße 21,10829.0,Berlin,7200413
3446661006,52.4854375,13.3616363,Taubenschlag,Leberstraße 1-3,10829.0,Berlin,7200413
3452257598,52.5107582,13.2898207,,Kaiserdamm 11,14057.0,Berlin,4300414
3455613402,52.5058698,13.3183735,Der Kuchenladen,Kantstraße 138,10623.0,Berlin,4300624
3455614576,52.5058884,13.3182467,Saftpresse,Kantstraße 138,10623.0,Berlin,4300624
3455614578,52.5009885,13.3127798,Starbucks,Kurfürstendamm 61,10707.0,Berlin,4501040
3456238093,52.52183,13.3799778,Mittelpunkt-Café,Luisenstraße 39,10117.0,Berlin,1100308
3457756793,52.5247545,13.4103867,Bell’ Chicco,Rosa-Luxemburg-Straße 16,10178.0,Berlin,1100310
3465171793,52.4901952,13.402718,7 Schwestern,,,,2200210
3474035719,52.5133337,13.3043698,Hellas Feinkost,,,,4300621
3474035726,52.5063455,13.3097011,Waffle Brothers,,,,4300623
3474035729,52.5089491,13.3057679,Café Barachel,Wilmersdorfer Straße 52,10627.0,Berlin,4300623
3478877036,52.4956357,13.3608817,Alte Forno Cafe,Potsdamer Straße 164,10783.0,Berlin,7100103
3480282004,52.4933055,13.351924,Mattea,Frankenstraße 13,10781.0,Berlin,7100204
3481852919,52.486723,13.3551105,ayvys,Akazienstraße 28,10823.0,Berlin,7200409
3484323246,52.475629,13.42372,Café Pappelreihe,Kienitzer Straße 109,12049.0,Berlin,8100103
3487251661,52.5158077,13.302583,Café con Amore,Gierkezeile 31,10585.0,Berlin,4300621
3487433393,52.53622,13.397832,Du Bonheur,Brunnenstraße 39,10115.0,Berlin,1100416
3488852926,52.4953926,13.349552,SantAngelo,Eisenacher Straße 19,10781.0,Berlin,7100102
3499253022,52.4954179,13.4202243,Coffee Corner,Kottbusser Damm 1,10967.0,Berlin,2200213
3499253048,52.4889133,13.4109884,Carisma,Hasenheide 49,10967.0,Berlin,2200212
3500642516,52.5213186,13.3848801,Refinery,Albrechtstraße 11b,10117.0,Berlin,1100308
3503894822,52.5014009,13.4160011,Ora,Oranienplatz 14,10999.0,Berlin,2300314
3511118179,52.5494104,13.349232,Café Mandelzweig,,,,1400942
3518024329,52.5385998,13.4152714,Message In A Bottle,Knaackstraße 76,10435.0,Berlin,3701555
3519164464,52.5370225,13.419253,Stockholm,Kollwitzstraße 74,10435.0,Berlin,3701555
3524098862,52.4960753,13.3283337,Crème caramel,Pariser Straße 59,10719.0,Berlin,4501045
3524098878,52.4974242,13.3204209,Zuka,Emser Straße 25,10719.0,Berlin,4501044
3525872330,52.5378519,13.4238784,Melis Coffee,Prenzlauer Allee 51,10405.0,Berlin,3701658
3530843890,52.5054859,13.3201992,Roberts Café Berlin,,10623.0,Berlin,4300624
3530963486,52.470354,13.4285249,Lauter Eis,Warthestraße 4,12051.0,Berlin,8100104
3542093143,52.5117003,13.3044118,Exclusive Coffee,Bismarckstraße 45-47,10627.0,Berlin,4300621
3547096691,52.4933019,13.3527206,Der Cupcakeladen,Frankenstraße 15,10781.0,Berlin,7100204
3562916493,52.4844331,13.18156,Hannes Café,Buchwaldzeile 49,14089.0,Berlin,5400942
3566544710,52.5390599,13.2701981,Yeni Gala,,,,5300839
3570845452,52.4596337,13.323011,Café Baier,Schloßstraße 26,12163.0,Berlin,6100102
3573519568,52.4593596,13.32336,Chá,Schloßstraße 100,12163.0,Berlin,6100102
3577377788,52.5342235,13.5394451,Schröders,Poelchaustraße 2,12681.0,Berlin,10100312
3579004087,52.4740247,13.4473264,Zuckerbaby Café & Deli,Richardplatz 21,12055.0,Berlin,8100416
3580094293,52.48647,13.4346547,dots,Weserstraße 191,12045.0,Berlin,8100312
3586377540,52.5629228,13.3661021,Gigis Lounge,,,,12100101
3592488623,52.462735,13.4833096,Alfima,,,,9100304
3593968204,52.5292248,13.4434803,Neuer Hain,,,,2400520
3598904406,52.4326607,13.2594767,Coffeshop Z,Teltower Damm 25,14169.0,Berlin,6300526
3599641327,52.4333509,13.2604613,,Teltower Damm 15,14169.0,Berlin,6300526
3602840703,52.5462181,13.4181564,Friedl,Pappelallee 35,10437.0,Berlin,3601346
3609505023,52.4641975,13.5424312,Waldcafe,,,,9200512
3627094218,52.5302411,13.4361889,Sommerhaus KaffeeBar,Hufelandstraße 43,10407.0,Berlin,3701660
3630778534,52.4523288,13.3336425,Café Mai,Albrechtstraße 93,12167.0,Berlin,6100208
3631630870,52.5070283,13.306805,Einstein Kaffee,Wilmersdorfer Straße 112,10627.0,Berlin,4300623
3632387191,52.4925778,13.3666134,Café Manstein 4,Mansteinstraße 4,10783.0,Berlin,7100206
3632408148,52.4900829,13.3605679,Dinos Eiscafé,Langenscheidtstraße 1,10827.0,Berlin,7200411
3632641427,52.4877101,13.3596813,Café Projekt,Crellestraße 41,10827.0,Berlin,7200411
3632643128,52.4867146,13.358247,Prinz,,,,7200411
3637925677,52.5513221,13.4187538,Sonntags-club,Greifenhagener Straße 28,10437.0,Berlin,3601243
3644083393,52.5036466,13.3839735,Maracay Coffee,Stresemannstraße 72,,Berlin,2100101
3644153793,52.4682443,13.3217331,Frau Maus,Rheingaustraße 4,12161.0,Berlin,7300516
3644187393,52.5112096,13.4565904,East West Bridge,,,,2500833
3644546194,52.4723163,13.3146496,Gelapino,Rüdesheimer Straße 13,14197.0,Berlin,4400835
3650927951,52.4274696,13.3311231,Lüttes,Lorenzstraße 63,12209.0,Berlin,6200422
3654205952,52.5014596,13.3538868,Y not,Karl-Heinrich-Ulrichs-Straße 10,10787.0,Berlin,7100103
3654379541,52.5115566,13.4132492,Chez Gustave,Inselstraße 13,10179.0,Berlin,1100312
3655549447,52.5405022,13.3494011,Eiskult Wedding,Fehmarner Straße 20,13353.0,Berlin,1401046
3661696179,52.5031163,13.3908407,Espresso House,Friedrichstraße 230,10969.0,Berlin,2100102
3666540068,52.4953555,13.3402195,Victoria Eis,Motzstraße 58,10777.0,Berlin,7100101
3666623785,52.4967552,13.3456821,Face,Martin-Luther-Straße 22,10777.0,Berlin,7100101
3666623788,52.4962115,13.3428292,Viktoria Eis,Motzstraße 54,10777.0,Berlin,7100101
3666631696,52.4952211,13.3420572,Hey Schnecke,Viktoria-Luise-Platz 11,10777.0,Berlin,7100101
3668274196,52.53161,13.394174,Distrikt Coffee,Bergstraße 68,10115.0,Berlin,1100415
3668882625,52.5894912,13.2815209,Thoben Caffee,Alt-Tegel 8,13507.0,Berlin,12200515
3669161730,52.4866188,13.3161408,CoCo - Coffee & Coaching,Berliner Straße 54,10713.0,Berlin,4501146
3669516500,52.500652,13.3411637,Italia,Ansbacher Straße 32,10789.0,Berlin,7100101
3669886010,52.5011142,13.3369491,La Petite France,Nürnberger Straße 24a,10789.0,Berlin,4501042
3670473949,52.5297886,13.4152952,Coffee Room,Saarbrücker Straße 30,10405.0,Berlin,3701556
3675747756,52.5015473,13.3347882,Salut,Augsburger Straße 29,10789.0,Berlin,4501042
3677478899,52.5570961,13.2090849,Caffè Vero,,,,5100104
3680820641,52.4935124,13.3133563,Café im Preußenpark,,,,4501043
3688980395,52.5058089,13.3341209,ZooBa,,,,4501042
3693972410,52.4886787,13.3494473,Café Schöngrau,Eisenacher Straße 79,10823.0,Berlin,7200409
3694035419,52.4899342,13.3488679,Frau Bäckerin,Eisenacher Straße 40,10781.0,Berlin,7100204
3706912245,52.5437952,13.2908749,Sommergarten,,,,4100101
3708064006,52.5164723,13.4683027,Cebe coffee roasters,,,,2500728
3710018859,52.5156941,13.3044186,Milchbubies,Haubachstraße 16,10585.0,Berlin,4300621
3712396679,52.5122008,13.2974658,Bistro Aleksandra,Schloßstraße 33,14059.0,Berlin,4300414
3715481411,52.5129081,13.2973293,Café Lotka zum Schloss,Schloßstraße 38,14059.0,Berlin,4300414
3715490341,52.5110688,13.3022071,Cafe Istanbul,Bismarckstraße 76,10627.0,Berlin,4300623
3717577416,52.5757846,13.4131581,,,,,3400724
3719027965,52.4960817,13.5100846,Mokka-Milch-Eiscafé,Sewanstraße 174A,10319.0,Berlin,11401135
3733553131,52.5087455,13.3089371,Seelenglück,Goethestraße 50a,10625.0,Berlin,4300623
3734954302,52.5303309,13.3875982,Café Bondi,Eichendorffstraße 6,10115.0,Berlin,1100415
3751458628,52.489234,13.394105,Marktwirtschaft,Marheinekeplatz 15,10961.0,Berlin,2200211
3751642870,52.5340117,13.4158016,Le Bon Coin,Kollwitzstraße 42,10405.0,Berlin,3701556
3755995854,52.4992468,13.3930786,Kiezstube,,,,2100102
3756479706,52.5571759,13.3772525,Kawa Kaffeemanufaktur,Drontheimer Straße 1B,13359.0,Berlin,1300730
3757048825,52.4022732,13.5427067,Mamas Back+Bistro,,12524.0,Berlin,9300923
3758674232,52.4643293,13.3386458,Café klein & fein,Bismarckstraße 1,12157.0,Berlin,6100209
3758747572,52.5482976,13.3520419,Non Stop,Brüsseler Straße 6,13353.0,Berlin,1400942
3759638268,52.4548886,13.3244156,Die Kaffeenauten,Schützenstraße 4,12165.0,Berlin,6100102
3761121276,52.4675228,13.3851852,Eis Pfennig,Tempelhofer Damm 134,12099.0,Berlin,7400824
3763639065,52.5034971,13.4191496,Heilehaus,Waldemarstraße 36,10999.0,Berlin,2300314
3767970061,52.5411515,13.3402886,Rudolfs im Forum,,,,1400938
3770956049,52.5020877,13.3308709,Comebuy,Joachimsthaler Straße 14,,,4501042
3772705288,52.4153894,13.495359,Eiscafé Monello,,,,8401244
3775184619,52.486497,13.4296791,Café 1001,,,,8100311
3780185336,52.5469933,13.3498825,Art-In-Caffé,Brüsseler Straße 29,13353.0,Berlin,1400942
3780849349,52.5685937,13.3621796,La Femme Patisserie,Residenzstraße 128,13409.0,Berlin,12100103
3781996745,52.4795712,13.3500029,Osbili,Gustav-Freytag-Straße 5,10827.0,Berlin,7200308
3782374473,52.5014172,13.3308044,Espresso Company,,,,4501042
3790550758,52.5037283,13.324396,Kaffeehaus Mila,Grolmanstraße 40,10623.0,Berlin,4501041
3798843744,52.4988979,13.3622142,Your Best Shot,Potsdamer Straße 132,,,7100205
3799527239,52.500615,13.325199,Café San Sebastian,,,,4501042
3800610364,52.493435,13.436894,Cafe Bistro Filou,,,,2300418
3801422906,52.5090261,13.3739893,Qiu,,,,1100102
3803711355,52.5044051,13.410638,Café Zera,,10969.0,,2100104
3804233547,52.5325548,13.4121626,Impala Coffee,Schönhauser Allee 173,10119.0,Berlin,3701554
3815848334,52.5000634,13.3194026,Coffeeshop Fat Bean,,,,4501041
3826014012,52.4976161,13.3502476,Le Soleil,Nollendorfstraße 21,10777.0,Berlin,7100102
3826014914,52.49854,13.3538158,Reza,Maaßenstraße 4,10777.0,Berlin,7100102
3826451958,52.4993584,13.3483113,Brezel Company,Kalckreuthstraße 16,10777.0,Berlin,7100102
3826452467,52.4989406,13.3512559,Delta Cafes B&B,Motzstraße 8,10777.0,Berlin,7100102
3826455884,52.4983295,13.3493772,Romeo und Romeo,Motzstraße 20,10777.0,Berlin,7100102
3830162445,52.4997061,13.3637771,Café & Bistro endlich,Kurfürstenstraße 27,10785.0,Berlin,1100104
3830168142,52.5004685,13.3636862,Zimt & Zucker,Potsdamer Straße 103,10785.0,Berlin,1100104
3830235404,52.5020226,13.3547157,Cafe Einstein Stammhaus,Kurfürstenstraße 58,10785.0,Berlin,1100103
3832565601,52.4369971,13.4207387,Bistro am Kalenderplatz,,,,8200729
3834271558,52.50269,13.3656278,Die Löffelei,Potsdamer Straße 73,10785.0,Berlin,1100104
3837620182,52.5032983,13.3661611,Coffeelounge,,,,1100104
3837626623,52.5007425,13.3633042,Coffee & Deli,Pohlstraße 65,10785.0,Berlin,1100103
3842255157,52.5177858,13.4072054,Daisies,Am Nußbaum 8,10178.0,Berlin,1100310
3844382009,52.4884301,13.349918,Makrönchen Manufaktur,,,,7200409
3853848980,52.4849642,13.3454022,The Red,Martin-Luther-Straße 103,10825.0,Berlin,7200409
3854351583,52.4996833,13.3026506,Roberta,,,,4500936
3854427861,52.494048,13.3536315,Café Fragezeichen,Goltzstraße 34,,,7100204
3855567146,52.4973293,13.3615177,DiVan,Potsdamer Straße 146,10783.0,Berlin,7100103
3855578746,52.4969587,13.36197,Lucca,Potsdamer Straße 137,10783.0,Berlin,7100205
3859397151,52.4984442,13.3544758,Impala Coffee Kaffeerösterei,Maaßenstraße 5,10777.0,Berlin,7100103
3861437157,52.461025,13.317878,Ladys Antik,,,,6100102
3861762662,52.5017035,13.3174071,Einstein Kaffee,,10707.0,Berlin,4501041
3861762679,52.5033148,13.3217757,Princess Cheesecake,Knesebeckstraße 32,10623.0,Berlin,4501041
3861765082,52.5023708,13.3216412,Auf die Hand,Knesebeckstraße 35-37,10623.0,Berlin,4501041
3862782314,52.5002822,13.3247497,Miro,Uhlandstraße 33,10719.0,Berlin,4501041
3862847728,52.5056192,13.4694947,Hūftgold,Neue Bahnhofstraße 29,10245.0,Berlin,2500834
3864797259,52.5105298,13.2863693,Café Dreikäsehoch,Kaiserdamm 20,14057.0,Berlin,4300414
3864942884,52.4582324,13.2920817,Baci’s Coffee,Königin-Luise-Straße 39,14195.0,Berlin,6400844
3868790051,52.5274504,13.3981267,The Barn,Auguststraße 58,10119.0,Berlin,1100309
3868790052,52.5244438,13.4065961,Father Carpenter Coffee Brewers,Münzstraße 21,10178.0,Berlin,1100309
3869596912,52.4960064,13.3131527,eulinchen,Bayerische Straße 12,10707.0,Berlin,4501043
3874241761,52.499669,13.33023,Café Piter,Schaperstraße 14,10719.0,Berlin,4501045
3874428957,52.4999253,13.4412276,Passenger espresso,Oppelner Straße 44,10997.0,Berlin,2300419
3874558157,52.4763994,13.3112964,Cafe Pinjo,Johannisberger Straße 64,14197.0,Berlin,4400834
3876470382,52.5489518,13.4111377,Café Bom,,,,3601142
3878908357,52.4944446,13.4186046,Kaffeebar,Graefestraße 8,10967.0,Berlin,2200213
3882208072,52.4989799,13.3140033,Alas,,10707.0,Berlin,4501043
3883140251,52.4610262,13.5196457,Echo 36 Spätkauf,Wilhelminenhofstraße 82A,12459.0,Berlin,9200511
3883263612,52.4611103,13.5205151,Eiscafé,Wilhelminenhofstraße 40,12459.0,Berlin,9200511
3886926175,52.5124933,13.4068346,Back all in,,,,1100312
3895255523,52.5239479,13.4093818,Koro Café,Rosa-Luxemburg-Straße 7,,,1100310
3900932270,52.5380589,13.4195778,Anna Blume,Kollwitzstraße 83,10435.0,Berlin,3701555
3900932440,52.5384824,13.4173512,Berg Eis,,,,3701555
3900932443,52.5384829,13.4171739,Ludmilla,Sredzkistraße 33,,,3701555
3900935689,52.5390592,13.4175556,werkstatt der süße,Husemannstraße 25,10435.0,Berlin,3701555
3902472802,52.5277703,13.4005346,Milchhalle,Auguststraße 50,,,1100309
3903343966,52.5248662,13.3951822,Edelmond,,,,1100309
3903346162,52.5250846,13.3950698,Tadshikische Teestube,Oranienburger Straße 27,10117.0,Berlin,1100309
3904910955,52.4990463,13.4383392,eliza,Sorauer Straße 6,10997.0,Berlin,2300419
3906856105,52.5137288,13.4535431,Chimneys,Warschauer Straße 81,10243.0,Berlin,2500833
3906966628,52.5110517,13.4515415,Kiez Vegan,Warschauer Straße 24,10243.0,Berlin,2400624
3912365975,52.5480555,13.4078676,WIM,Sonnenburger Straße 68,10437.0,Berlin,3601142
3912478022,52.4375884,13.5548778,Eiscafe,,,,9200717
3918742516,52.4539608,13.3384671,Süße Momente,Bismarckstraße 30,12169.0,Berlin,6100208
3920547058,52.525315,13.401667,Eisenbergs,Sophienstraße 5,10178.0,Berlin,1100309
3924330200,52.5631094,13.4025798,Fritz Heyn,Heynstraße 15,13187.0,Berlin,3400721
3933415372,52.5136319,13.4583752,La Tienda del Barrio,,,,2500830
3937513355,52.5308372,13.4019336,Tres,Weinbergsweg 23,10119.0,Berlin,1100416
3937876096,52.5309287,13.3966067,Café Ribo,Ackerstraße 157,10115.0,,1100415
3951294555,52.4860971,13.3390066,Cafe LaVie,Wartburgstraße 25,10825.0,Berlin,7200307
3954285615,52.4874508,13.3590224,Wilde Ehe,Crellestraße 44,10827.0,Berlin,7200411
3954285617,52.4878927,13.3601498,Lili Marleen,Crellestraße 39,10827.0,Berlin,7200411
3954285621,52.4899158,13.3594546,Smyrna,Hauptstraße 4,10827.0,Berlin,7200409
3954639325,52.4153899,13.4776976,Neumanns kleine Backstube,Meißner Weg 54,12355.0,Berlin,8401242
3956555038,52.5282593,13.391331,Mörder Espressobar,Torstraße 199,10115.0,Berlin,1100415
3956555039,52.5282123,13.3913774,Salon Schneider,Torstraße 199,10115.0,Berlin,1100415
3958391457,52.4806571,13.4397666,Cafe Salotto,Anzengruberstraße 19,12043.0,Berlin,8100415
3968064311,52.6176794,13.3059217,Bäckerei & Konditorei Laufer,Heinsestraße 37,13467.0,Berlin,12400722
3986748898,52.5416001,13.4252032,Atopia Berlin,Prenzlauer Allee 187,10405.0,Berlin,3601348
3987051075,52.5195867,13.4152257,Starbucks,,,,1100311
3993562057,52.4919822,13.4206473,Zazza,Schönleinstraße 7b,10967.0,Berlin,2200213
4006159589,52.5342457,13.387974,Mauercafé,Bernauer Straße 117,13355.0,Berlin,1300835
4007032906,52.5405216,13.3854943,Café Oase,Gustav-Meyer-Allee 25,13355.0,Berlin,1300835
4024075048,52.479073,13.4415376,Cafè Mignón,Donaustraße 84,12043.0,Berlin,8100415
4024676693,52.5139371,13.4998139,Zeitenträumer,Fanningerstraße 55,10365.0,Berlin,11300725
4026592677,52.4643814,13.3260177,GM 26,Gutsmuthsstraße 26,12163.0,Berlin,6100103
4029448765,52.4582234,13.3245415,Cafe fünf,Kieler Straße 6,12163.0,Berlin,6100102
4034138652,52.5005468,13.4228384,Pfeiffers,,,,2300314
4035165240,52.5000786,13.4177996,Kremanski,Adalbertstraße 96,10999.0,Berlin,2300314
4053475456,52.5583606,13.3791243,La Tortuga,Koloniestraße 23,,,1300730
4054630091,52.5694221,13.3999566,Stück vom Glück,Wilhelm-Kuhr-Straße 2,13187.0,Berlin,3400721
4059516804,52.4914577,13.3866204,Belle Alliance,,,,2200209
4061488018,52.5158819,13.3048496,Zur Mieze,Wilmersdorfer Straße 158,10585.0,Berlin,4300621
4061948091,52.5595707,13.3797506,Hank Chinaski,Koloniestraße 32,13359.0,Berlin,1300730
4065458964,52.4988597,13.4001174,Mahlzeit Kreuzberg,Alexandrinenstraße 1a,10969.0,Berlin,2100105
4066840140,52.505292,13.4670571,Ans Tea House,Sonntagstraße 6,10245.0,Berlin,2500834
4070598678,52.5246456,13.3688359,Ritazza,,,,1200628
4072596989,52.445195,13.574089,KAVLAK Eiskalte Leidenschaft,,,,9401534
4100233309,52.5689607,13.1958122,Gartenlaube,,,,5100101
4103514010,52.4874342,13.4516916,passenger coffee,Elsenstraße 38,12435.0,Berlin,9100101
4104554190,52.5284646,13.3943337,Filmhaus,,,,1100309
4105132823,52.5247823,13.3828345,Café Flora,Philippstraße 13,10115.0,Berlin,1100308
4105354864,52.542537,13.359229,Just Brunch!,Sparrstraße 18,13353.0,Berlin,1401047
4107024538,52.4784979,13.4237818,Café Pilz,Weisestraße 58,12049.0,Berlin,8100102
4107529092,52.5173667,13.4435436,Saaldeck,Karl-Marx-Allee 103a,,,2400522
4109452993,52.4287391,13.164943,Café Max,,,,6400735
4127536098,52.5724005,13.1955885,JoCa,,,,5100101
4128553443,52.4862364,13.376384,Freiraum,Katzbachstraße 24,,,2200209
4138548489,52.5551324,13.3411784,Flop Cafe,Otawistraße 11,13351.0,Berlin,1400937
4138608262,52.4997486,13.4433667,Classic,Falckensteinstraße 4,10997.0,Berlin,2300419
4139413003,52.5568941,13.3775583,Café Güneş,Koloniestraße 143,13359.0,Berlin,1300730
4143174675,52.5719365,13.3304874,Café LichtHaus,Ollenhauerstraße 99,13403.0,Berlin,12200307
4149996991,52.5292294,13.3002129,Kiosk Bäckerei Café,,,,4300517
4153062559,52.5176546,13.4659567,IlCaffé della Peppina,Samariterstraße 14,10247.0,,2500728
4153838983,52.5398014,13.3881183,café und bistro freysinn,,,,1300835
4157496899,52.5489243,13.4115196,Bar Sigismondo,Kopenhagener Straße 6,,,3601142
4158950389,52.5139717,13.4622765,The Bread Shop,Mainzer Straße 5,10247.0,Berlin,2500830
4173963655,52.5129778,13.5946089,Der Eisladen,Bausdorfstraße 65,12621.0,Berlin,10400835
4188062814,52.5138051,13.3917145,Café Konzerthaus,,,,1100206
4195216134,52.5595199,13.4090755,KiezKlub Pankow,Tiroler Straße 51,13187.0,Berlin,3400826
4205495690,52.4305547,13.3178921,Bread&Coffee,,,,6200421
4219865883,52.5428711,13.4126676,Oak & Ice,Schönhauser Allee 52,10437.0,Berlin,3601346
4220986644,52.473783,13.4497545,Hallmann & Klee,Böhmische Straße 13,12055.0,Berlin,8100417
4221964045,52.5073652,13.322369,Spitz+Pfau,Knesebeckstraße 20-21,10623.0,Berlin,4300624
4222272408,52.5304372,13.3834937,Café Choix,Chausseestraße 21,,,1100415
4224268268,52.5498388,13.3535899,Çarik Kuruyemiş & Cafe,Müllerstraße 39,13353.0,Berlin,1401048
4225514215,52.5365575,13.3752048,vonLuck Mitte,Chausseestraße 94,10115.0,Berlin,1100308
4231573655,52.5316389,13.3813837,Karaca,Chausseestraße 106,10115.0,Berlin,1100308
4239735870,52.5791896,13.4816865,Storchencafé,,,,11100101
4250113289,52.5173585,13.3076546,Kalimera,,,,4300619
4254607601,52.5021882,13.336452,Cadadia,Marburger Straße 12,10789.0,Berlin,4501042
4259417431,52.5102725,13.2822205,Bäckerei Bistro,,,,4200311
4267091828,52.5337314,13.3844938,,,,,1100414
4269744605,52.5242487,13.3795469,[kafe:] small,,,,1100308
4271022999,52.4555175,13.1449754,Bio Company,Kladower Damm 362-364,14089.0,Berlin,5400944
4279698596,52.5177632,13.4655948,EVE coffee & kitchen,Samariterstraße 29,10247.0,Berlin,2500728
4281827547,52.5088286,13.3923006,Les Amis,Charlottenstraße 19,10117.0,Berlin,1100207
4288728889,52.4919183,13.4277045,Café Katulki,Friedelstraße 40,12047.0,Berlin,8100310
4295224659,52.5029511,13.3222749,What do you fancy love?,Knesebeckstraße 68-69,10623.0,,4501041
4298835594,52.5211518,13.4149628,Einstein Kaffee,,10178.0,Berlin,1100310
4303805095,52.5117393,13.4527803,Café Hexe 2.0,Warschauer Straße 70a,10243.0,Berlin,2500833
4303818517,52.5203994,13.410896,La Luna,,,,1100310
4304042189,52.4864292,13.3558514,Ilios,Akazienstraße 2,10823.0,Berlin,7200409
4304136089,52.5096635,13.4581211,44 Brekkie,Gabriel-Max-Straße 2,10245.0,Berlin,2500833
4304149095,52.5111196,13.4584912,Cozys,Gabriel-Max-Straße 15A,,,2500833
4304242992,52.5428218,13.4206355,Neo1,Lettestraße 1,10437.0,Berlin,3601347
4311571896,52.502348,13.3958211,Café Schmus,Lindenstraße 9-14,10969.0,Berlin,2100103
4311571992,52.5366338,13.4203939,No Fire No Glory,Rykestraße 45,10405.0,Berlin,3701555
4311621694,52.5802689,13.4009371,Café Auszeit,Hermann-Hesse-Straße 15,13156.0,Berlin,3200206
4315470218,52.5500996,13.3490651,Cafe Sohbet,,,,1400938
4315470219,52.5501691,13.3489468,Cafe Tee Stube,,,,1400938
4318473024,52.5209108,13.195933,Cafe Bar Adam,Jägerstraße 18,13595.0,Berlin,5200630
4320869993,52.5158088,13.4513207,OM Coffee,Karl-Marx-Allee 136,10243.0,Berlin,2400624
4321142332,52.5331947,13.3601271,Ein Moment,,,,1200624
4321142333,52.5343204,13.3591683,Moab,Lehrter Straße 36,10557.0,Berlin,1200624
4327994292,52.5339869,13.3980928,Puffle Bees,Brunnenstraße 165,10119.0,Berlin,1100415
4334344397,52.519357,13.392995,Café Weltgeist,Dorotheenstraße 24,10117.0,,1100206
4336930048,52.499273,13.4192421,The Coffee Brothers,Skalitzer Straße 134,10999.0,Berlin,2300314
4339053528,52.5668217,13.3630587,M&M Back,,,,12100102
4339053532,52.5631976,13.3640496,My Moon,Markstraße 4,13409.0,Berlin,12100204
4344303889,52.504183,13.420258,Bonanza,Adalbertstraße 70,10997.0,,2300314
4349755837,52.5516269,13.4308133,Nemo,,,,3500934
4351511590,52.5461691,13.3583304,Salon Cafebar 63,,,,1400942
4351511614,52.5499546,13.3643885,Café Appetito,,,,1401049
4353662601,52.5655124,13.4009605,Momenti Di Vini,Florastraße 15,13187.0,Berlin,3400721
4358916930,52.5331293,13.3801916,19grams,Chausseestraße 36,10115.0,Berlin,1100414
4360052976,52.4714766,13.4411066,,Karl-Marx-Straße 208,12055.0,Berlin,8100208
4362369189,52.589048,13.2798355,Café Wetterstein,Alt-Tegel 18,13507.0,Berlin,12200515
4362864756,52.4833964,13.441162,Companion Tea & Coffee,Weserstraße 166,12045.0,Berlin,8100312
4363560907,52.4800619,13.3240302,Le Petit Four Konditorei & Eiscafé,Weimarische Straße 6A,10715.0,Berlin,4501151
4363560908,52.479707,13.3256761,Mainzer Coffee & more,Mainzer Straße 10,10715.0,Berlin,4501151
4363623293,52.5066137,13.3039472,Café Pelmeni,,,,4300623
4368477789,52.5098553,13.2832082,chicco di caffe,Kaiserdamm 90,14057.0,Berlin,4200311
4373603313,52.553437,13.3764258,Kater und Goldfisch,Exerzierstraße 1,13357.0,Berlin,1401044
4375183730,52.5257704,13.382209,Kaffee Container,,,,1100308
4375746889,52.5836235,13.2867648,Waffle Brothers,,13507.0,Berlin,12200515
4379223590,52.4427167,13.3804584,Tabatabar,,12105.0,Berlin,7501029
4379223592,52.438783,13.380017,Café Backshop,,,,7501029
4379228000,52.4450418,13.3748899,Café Tulipes,Kaiserstraße 6,,,7501029
4379404319,52.5006694,13.419486,The Visit Coffee Roastery,Adalbertstraße 9,10999.0,Berlin,2300314
4381394734,52.5408784,13.3508029,Cafe Rosa,Torfstraße 23,13353.0,Berlin,1401046
4386329689,52.514648,13.3812369,Abia,Wilhelmstraße 76,10117.0,Berlin,1100205
4388936224,52.5212498,13.4115986,Starbucks,,,,1100310
4392776226,52.4884054,13.3400929,Café Tukan,,10779.0,Berlin,7200307
4393406590,52.4708197,13.4201717,Blaue Stunde Tagesbar,Oderstraße 22,12051.0,Berlin,8100103
4393654941,52.5413805,13.342387,Snack Corner,,,,1400938
4396174589,52.4121302,13.6634088,Eisdiele Müggelheim,Odernheimer Straße 2,,,9401635
4396230906,52.5446822,13.360672,Blessing 66,Triftstraße 3,,,1401047
4396255795,52.375587,13.6493666,Bistro Linie 68,,,,9301228
4396258266,52.542167,13.5003356,Cafeteria,,,,11200515
4397586158,52.4798435,13.3603929,PapalaCup,Gotenstraße 55,10829.0,Berlin,7200413
4403423603,52.4486878,13.4496127,Café Info-Station,Fritz-Reuter-Allee 44,12359.0,Berlin,8200726
4408597028,52.5131176,13.2943373,Eisfabrik Alan,Wundtstraße 4,14059.0,Berlin,4300414
4409599067,52.4716914,13.4292751,BONA,Hermannstraße 178,12051.0,Berlin,8100208
4412998228,52.4846389,13.4380084,Greens Cafe,Weserstraße 44,12045.0,Berlin,8100312
4420510590,52.4972613,13.3902445,Hallesches Haus,Tempelhofer Ufer 1,10961.0,,2200210
4423364915,52.5411151,13.4127101,Coffee Fellows,Danziger Straße 1,10435.0,Berlin,3601347
4426025291,52.5342481,13.4315383,Simply,Pasteurstraße 2,10407.0,Berlin,3701660
4427678891,52.5521855,13.4193768,Cafe Schneiderei,Kuglerstraße 31,10439.0,Berlin,3601243
4434157436,52.5178016,13.46852,Kaffefreunde,Bänschstraße 73,10247.0,Berlin,2500728
4437373441,52.5105511,13.3808201,Berlin Coffee,,,,1100205
4437531022,52.4742944,13.4265785,boardeau Berlin,Okerstraße 3,12049.0,Berlin,8100103
4440405277,52.5484269,13.2005567,Cafe Babylon,Schönwalder Straße 84,13585.0,Berlin,5100315
4450505158,52.4958226,13.4432288,Bulbul,Görlitzer Straße 38,,,2300419
4450832743,52.542161,13.4132554,Miss Coconut,Pappelallee 86,10437.0,Berlin,3601346
4452235647,52.509657,13.4601239,Naranj,Gärtnerstraße 27,10245.0,Berlin,2500833
4452581567,52.5251095,13.330273,Spontan,Gotzkowskystraße 29,10555.0,Berlin,1200521
4454024993,52.5326839,13.3287187,Neue Nachbarschaft,Beusselstraße 44,10553.0,Berlin,1200519
4454024999,52.5290074,13.3288778,D Joma,Beusselstraße 23,10553.0,Berlin,1200519
4454025007,52.5285096,13.328434,Vildan,Beusselstraße 70,10553.0,Berlin,1200518
4454265670,52.5265669,13.345171,Café Pinguin,Lübecker Straße 52,10559.0,Berlin,1200625
4457967928,52.5091533,13.3918004,Zwipf,Charlottenstraße 75,10117.0,Berlin,1100207
4457967930,52.5414548,13.4089012,Linnen,Eberswalder Straße 35,,,3601142
4461324689,52.4988892,13.3075292,Xantener Eck,,,,4501043
4466099589,52.525913,13.3064194,Cafe BrotZeit,,,,4300518
4471345153,52.4714251,13.429405,Roasters,Hermannstraße 176,12051.0,Berlin,8100208
4476720170,52.5471622,13.4271348,Ataya Caffe,Zelterstraße 6,10439.0,Berlin,3601244
4487529790,52.5501254,13.4172325,Pension Palermo,,,,3601243
4496928662,52.526552,13.3936902,Cappuccino Grand Cafe,,,,1100309
4500066989,52.4897565,13.3537982,Sardinen.bar,Grunewaldstraße 79,10823.0,Berlin,7200409
4502302720,52.5147732,13.4864215,Bamboo Bowl,Ruschestraße 103,10365.0,Berlin,11300724
4511819790,52.5362898,13.4075518,Chaplins,Kastanienallee 75,10435.0,Berlin,3701554
4513850099,52.4870598,13.3548354,Impala Coffee,,,,7200409
4515134130,52.4942211,13.4184427,Tribeca Ice Cream,Graefestraße 9,10967.0,Berlin,2200213
4524915745,52.5067569,13.4616719,Lovelite,Haasestraße 1,10245.0,Berlin,2500834
4533857097,52.5113938,13.4597283,Mokofuk,Grünberger Straße 75,10245.0,Berlin,2500833
4539977293,52.4930779,13.3336796,BagCo Coffee Bar,Prager Platz 6,10779.0,Berlin,4501152
4544613894,52.4693664,13.4305047,Coffee & Deli - Queen of Muffins,Hermannstraße 164,,,8100208
4549272413,52.5613254,13.4125042,Vilja Café und Deli,Maximilianstraße 1,,,3400826
4552354928,52.4548444,13.327414,Hafermilch,Albrechtstraße 114,12167.0,Berlin,6100208
4556214756,52.5252735,13.3104697,Formel 8 / Billard-Café,Ilsenburger Straße 15,10589.0,Berlin,4300518
4556223565,52.5509855,13.3541292,Billardtreff 65,Seestraße 50,13347.0,Berlin,1401048
4558464515,52.4949152,13.4308773,Elterncafé,,,,2300418
4561702262,52.6313524,13.5059061,Cafeteria,Lindenberger Weg 27,13125.0,Berlin,3100102
4563117791,52.5140309,13.3970535,Pax Coffee,,,,1100206
4582601010,52.4968973,13.3239431,Benedict,Uhlandstraße 49,10719.0,Berlin,4501044
4583828567,52.4656684,13.3940423,Jearsey Lounge,Germaniastraße 150,12099.0,Berlin,7400927
4583915411,52.5409779,13.41098,Schokochino,,,,3701554
4583979874,52.5852166,13.4285089,Café Pankow,,,,3400725
4589778497,52.4969872,13.5234075,Café Crusty,,,,11401137
4596967089,52.520454,13.3950002,Café Wilhelm,,,,1100206
4609342155,52.5131581,13.40932,Café CoCo,Fischerinsel 3,10179.0,Berlin,1100312
4611812289,52.510332,13.4688974,Carlaconradpaula,Müggelstraße 13,10247.0,,2500832
4632664177,52.5058775,13.4061616,Sportbar Stadtmitte,Kommandantenstraße 34,10969.0,Berlin,2100104
4639811894,52.444898,13.5763293,Antoni Berlin,,,,9401534
4640055908,52.6179754,13.3930382,Hofcafe Stadtgut Blankenfelde,,,,3200204
4682864289,52.4912481,13.4498138,Mashas,Bouchéstraße 15,12435.0,Berlin,9100101
4687628165,52.5509869,13.3848457,WonderWaffel,Grüntaler Straße 88,13357.0,Berlin,1300733
4690308991,52.4933933,13.4370187,,Reichenberger Straße 86,10999.0,Berlin,2300418
4690337763,52.5152105,13.3888747,Einstein Kaffee,Friedrichstraße 166,10117.0,Berlin,1100206
4692382890,52.535335,13.394977,The Rabbit Café,Strelitzer Straße 62,10115.0,Berlin,1100415
4698342025,52.5008818,13.343105,Grenander,Wittenbergplatz 3a,10789.0,Berlin,7100101
4698884695,52.4584424,13.5270166,Café Casino,Rathenaustraße 2,12459.0,Berlin,9200512
4700309060,52.4440505,13.299792,Café Viktoria,Gardeschützenweg 116,12203.0,Berlin,6300633
4707989357,52.4889454,13.4029223,Take A Brake,Bergmannstraße 59,10961.0,Berlin,2200211
4708524876,52.4990662,13.3121976,Zeit für Brot,,,,4501043
4712129077,52.4660668,13.4867927,Pauline P.,Kiefholzstraße 258,12437.0,Berlin,9100304
4712176331,52.4654983,13.4875038,Café Rose,Kiefholzstraße 257,12437.0,Berlin,9100304
4712176332,52.465455,13.4875668,Apos Musikcafé,Kiefholzstraße 257,12437.0,Berlin,9100304
4726496389,52.5126629,13.4530743,Fine Bagels,Warschauer Straße 74,10243.0,Berlin,2500833
4735919424,52.4818184,13.4369318,Simit Evi,Donaustraße 103,,,8100314
4736286826,52.5020648,13.3302638,Lê Orchid V Noir,,,,4501042
4736286836,52.5019215,13.3292759,Luardi,,,,4501042
4737034922,52.5097393,13.5576011,Cafe Schloss Biesdorf,Alt-Biesdorf 55,12683.0,Berlin,10300733
4746867826,52.5127409,13.3822271,Steel Vintage Bikes Café,Wilhelmstraße 91,10117.0,Berlin,1100205
4749062076,52.5240862,13.3343041,Lit Coffeebar & Bakery,Jagowstraße 23,10555.0,Berlin,1200522
4754036014,52.3868162,13.4044254,Gelato Bacio,,,,7601544
4757424123,52.5077392,13.437601,Sandwichart,Am Postbahnhof 16,10243.0,Berlin,2400625
4761858225,52.5267982,13.3327838,Alnatura Café-Bar,,10551.0,,1200521
4766962351,52.4919521,13.4205163,Mircey,Schönleinstraße 8,10967.0,Berlin,2200213
4770924228,52.5780868,13.4040512,Cafe Sommerlust,,,,3400722
4773438621,52.4813733,13.4251646,Two Planets,Hermannstraße 230,12049.0,Berlin,8100206
4775081056,52.4978285,13.3417388,Café Komine,Welserstraße 13-15,10777.0,Berlin,7100101
4783313906,52.5538161,13.3456348,Eis Bellissimo,Müllerstraße 122B,13349.0,Berlin,1400938
4788621923,52.4628469,13.3234125,Giovanni L.,,12163.0,Berlin,6100103
4796821923,52.4869117,13.3503741,Café Bärbucha,Eisenacher Straße 73,10823.0,Berlin,7200409
4799733106,52.5687309,13.4015207,Schön & Gut,Neue Schönholzer Straße 2,13187.0,Berlin,3400721
4807883323,52.5341358,13.4159236,Schlomos Bagels and Coffee,Kollwitzstraße 44,10405.0,Berlin,3701556
4809861322,52.5381519,13.3964017,Central,Brunnenstraße 49,10115.0,Berlin,1100416
4812222794,52.5650467,13.3938733,Tschumali,,,,3400721
4813846795,52.4669431,13.3280048,Zeitraum Kaffee,Bundesallee 93,12161.0,Berlin,7300516
4816206584,52.5336047,13.1978175,Thoben,,,,5200629
4827812634,52.5296298,13.3987549,Prior Artspace,Torstraße 141,10119.0,Berlin,1100415
4832553124,52.5233023,13.3991175,Café Latrio Bistro,Monbijouplatz 4,,,1100309
4836753766,52.5061288,13.3799037,Coffee & Cookies,Stresemannstraße 107,,,2100101
4840148119,52.5258152,13.4519225,Espressobar bei Jens und Viola,Ebertystraße 49,10249.0,Berlin,2500726
4841047608,52.5428261,13.418085,ewig freunde,Raumerstraße 9,10437.0,Berlin,3601347
4841361444,52.5293893,13.43391,Muckel Cafe,Am Friedrichshain 7,10407.0,Berlin,3701660
4852664721,52.529775,13.4074888,St. Oberholz Zehdenicker,Zehdenicker Straße 1,10119.0,,3701554
4853758032,52.5050532,13.3214245,Einstein Kaffee,,,,4300624
4855728623,52.5391997,13.4106316,Bronco Caffee,Kastanienallee 97,10435.0,Berlin,3701554
4859373722,52.4976672,13.429427,Bravo Bravko,Lausitzer Straße 47,10999.0,Berlin,2300417
4866112525,52.504214,13.2955068,Long Story Short,Friedbergstraße 21,,,4300416
4868088439,52.5465942,13.5493907,Zühli,,,,10100210
4868088442,52.5553107,13.5612126,Cafe im Ärztehaus,,,,10100208
4870092310,52.513708,13.4180811,Exlusive Coffee,Brückenstraße 6,,,1100313
4870379004,52.4963075,13.3578795,hub:raum Café,,,,7100103
4887801415,52.4924863,13.4282099,KulturCafe,Friedelstraße 28,,,8100310
4894301676,52.5437677,13.4183564,Café MoKannTi,Lettestraße 9,10437.0,Berlin,3601347
4897648137,52.6140078,13.3212405,Café Auenhof,,,,12400723
4897919620,52.5123173,13.4570932,Monti,Simon-Dach-Straße 3,10245.0,Berlin,2500833
4900462126,52.4963325,13.294772,Sa Jour,Westfälische Straße 39,,,4500938
4906464456,52.5076675,13.3879776,die espressonisten,Zimmerstraße 90,10117.0,Berlin,1100205
4907995181,52.5123013,13.4542965,BoBoQ,Grünberger Straße 37,10245.0,Berlin,2500833
4908049918,52.5113167,13.4602606,Smoobar Cafe,Grünberger Straße 79,10245.0,Berlin,2500833
4912175121,52.51665,13.3879755,Casa Italia,,,,1100206
4917255821,52.5393727,13.573131,The Cottage,,,,10100316
4918140021,52.5972853,13.3549199,Blixen Coffee Shop,Wilhelmsruher Damm 140,13439.0,,12601134
4920890147,52.5577577,13.390261,Rosa Louise,Soldiner Straße 13,13359.0,Berlin,1300732
4924542250,52.5349134,13.4182897,Bettyn Caty,Knaackstraße 26,10405.0,Berlin,3701556
4932293921,52.5336025,13.4252749,Luftschlößchen,Winsstraße 17,10405.0,Berlin,3701659
4936116181,52.5467225,13.5926139,La Boom,Alte Hellersdorfer Straße 146,,,10200417
4938816064,52.539388,13.4108883,The Heinrichs,Kastanienallee 99b,10435.0,Berlin,3701554
4940613664,52.5157744,13.4041102,Bibliotheks-Café,,,,1100207
4948137828,52.5354848,13.3974744,Süßfein,Brunnenstraße 156,10115.0,Berlin,1100415
4948140226,52.5082522,13.2945832,Brot und Schokolade,,,,4300416
4948143721,52.5008383,13.4172249,Nano Kaffee,,,,2300314
4954659369,52.5226674,13.3934847,Petit Bijou,Monbijoustraße 1,10117.0,Berlin,1100309
4955139082,52.5613032,13.3815015,Cafe Feysbuk,,,,1300731
4957187583,52.4591109,13.3207262,Café CoCosh,Muthesiusstraße 8,12163.0,Berlin,6100102
4962929345,52.5177268,13.4071636,Café zur Alten Zicke,Am Nußbaum 8,10178.0,Berlin,1100310
4970323728,52.4976994,13.4374639,Mugrabi,Görlitzer Straße 58,10997.0,Berlin,2300419
4970394421,52.5249782,13.4018807,Ben Rahim,Sophienstraße 7A,10178.0,Berlin,1100309
4979634421,52.493568,13.3330477,Café Engel,Prager Platz 1-3,10779.0,Berlin,4501152
4979653922,52.4977876,13.3476624,Cafe Kalwil,Motzstraße 30,10777.0,Berlin,7100102
4985709374,52.5547004,13.3847125,Cafe Bellermann,Bellermannstraße 96,13357.0,Berlin,1300733
4992082200,52.4801649,13.4381582,Anzengruberin,Anzengruberstraße 3,12043.0,Berlin,8100415
4992716421,52.5252771,13.483169,Café Blaupause,Paul-Zobel-Straße 9,10367.0,Berlin,11300620
4994211666,52.5126327,13.3052776,M&M Back,Wilmersdorfer Straße 143-144,10585.0,Berlin,4300621
4999166919,52.509859,13.3992936,Hashtag Berlin,Krausenstraße 41,,Berlin,1100207
5000336777,52.4730618,13.321831,wild caffè,Südwestkorso 63,12161.0,Berlin,7300515
5001796521,52.5096423,13.4558099,Aprilkind,Simon-Dach-Straße 15,10245.0,Berlin,2500834
5001897234,52.4799239,13.4229832,Karanfil,Weisestraße 3,12049.0,Berlin,8100102
5001897235,52.4798997,13.4227742,Mandolin Cafe,Mahlower Straße 7,12049.0,Berlin,8100102
5008942947,52.4395926,13.2143575,Goodies,Breisgauer Straße 2,14129.0,Berlin,6400737
5010782563,52.5177972,13.3975559,Museums-Café,,,,1100206
5012404710,52.4980587,13.2893891,Modi,Ringbahnstraße 4,10711.0,Berlin,4500937
5018132446,52.5885513,13.4351679,Wiesenbaude,Buschsperlingweg 1,13129.0,Berlin,3400725
5028871003,52.4944972,13.4289711,Kreuz Kaffee,,,,2300417
5032732328,52.5593061,13.3846108,Rosa Parks Café,Soldiner Straße 32,13359.0,Berlin,1300731
5043397654,52.4383941,13.5094825,Konditorei Engelmann,Walther-Huth-Straße 4,12487.0,Berlin,9100409
5053950406,52.4356902,13.5293987,Cafe Campus,Groß-Berliner Damm 138,12489.0,Berlin,9200715
5056884634,52.5244953,13.3296302,Tee Stube,,,,1200521
5062614777,52.5221419,13.3634943,,,,,1200628
5075102636,52.4855829,13.4252022,Jacobi Kaffeebar,,,,8100206
5075147517,52.4852757,13.4290998,Café Paradies,,,,8100314
5078345122,52.5237558,13.6210804,Eiscafé Flavio Gustibus,,,,10400938
5137029321,52.5323532,13.4305604,JUBEL feine pâtisserie,Hufelandstraße 10,10407.0,Berlin,3701660
5137247752,52.4928017,13.3716141,Café Bio Company,,,,2200207
5140817025,52.5283396,13.4095797,What do you fancy love?,Linienstraße 41,10119.0,Berlin,1100310
5141153071,52.5058246,13.4659577,Kleines Sonntag,Sonntagstraße 29,10245.0,Berlin,2500834
5151283976,52.4965964,13.2920059,Piccolina,,,,4500938
5171625294,52.589443,13.2930058,Back-Café Arelya,Ziekowstraße 114,13509.0,Berlin,12500824
5180183156,52.4931988,13.4214068,Kaffeekirsche,Böckhstraße 30,10967.0,Berlin,2200213
5186166877,52.5057864,13.3058261,Bao Bun Bar,,,,4300623
5191542959,52.5066437,13.2968728,DADA-Künstlercafè,Kantstraße 87a,10627.0,Berlin,4300416
5191728812,52.5158579,13.1970971,Kleines Café,,,,5200630
5191728949,52.5254125,13.1966725,amon,,,,5200630
5191728956,52.5328452,13.1976627,Cafe Klatsch,,,,5200629
5191729407,52.5317465,13.1970259,Smyrna,,,,5200629
5198695390,52.5149551,13.4714478,KleinMein,Waldeyerstraße 9,10247.0,Berlin,2500729
5205872369,52.4485842,13.3388829,Park Café,,,,6100206
5208178034,52.5210544,13.3275814,Meine Mama,,,,4300620
5212798828,52.486256,13.4652513,beauty&cake,Am Treptower Park 37,12435.0,Berlin,9100202
5212928986,52.5549093,13.3843568,Malör,Bellermannstraße 98,13357.0,Berlin,1300733
5216026322,52.5198075,13.3980659,Cafe im Neuen Museum,,,,1100206
5218164764,52.5060829,13.3145182,Zuka,,,,4300624
5222154376,52.5290266,13.4242482,Nonna,Greifswalder Straße 229,10405.0,Berlin,3701659
5223291543,52.5413721,13.4098794,California Pops,,,,3601142
5224049493,52.5399504,13.4242726,Na und,Prenzlauer Allee 193,10405.0,Berlin,3601348
5252959190,52.5204269,13.2997629,Kito Kaffee Eis Kuchen,,,,4300619
5256465930,52.5062632,13.2834293,NIMAS – Fresh & Tasty Food,Neue Kantstraße 17,14057.0,Berlin,4300415
5264060093,52.5745767,13.3645524,Café Klemke,,,,12100103
5289546925,52.4857179,13.3612874,Unser Café,Leberstraße 2,10829.0,Berlin,7200413
5290226774,52.4855588,13.3574754,Frieda Café & Bistro,Richard-von-Weizsäcker-Platz 1-2,10827.0,Berlin,7200410
5290293625,52.5506983,13.3488695,Familiencafé Zaunkönig,Lüderitzstraße 14,13351.0,Berlin,1400938
5292513150,52.517589,13.4647747,SaliGari,Schreinerstraße 53,10247.0,Berlin,2500728
5299559822,52.5002718,13.3387928,Café Sinn & Sinnlichkeit,,,,7100101
5299559823,52.5006244,13.337914,La Piadina,,,,7100101
5299559843,52.5020279,13.3379256,Vapori,,,,4501042
5331604374,52.4999905,13.3094925,Healthy Bar,,,,4501043
5332786082,52.5309987,13.4228741,POP UP!,Winsstraße 1,10405.0,Berlin,3701659
5335885121,52.4979494,13.4419264,The Boat Kaffee,Falckensteinstraße 33,10997.0,Berlin,2300419
5336742122,52.5168089,13.3904178,The Digital Eatery,Unter den Linden 17,10117.0,Berlin,1100206
5336750821,52.5247036,13.4099587,Type Hype,Rosa-Luxemburg-Straße 11-13,10178.0,Berlin,1100310
5340492943,52.5283359,13.386078,Freuden Grün,Chausseestraße 9,,,1100415
5352672780,52.497797,13.4232699,Commune,Reichenberger Straße 157,10999.0,Berlin,2300417
5352672813,52.4978419,13.4249523,lêlê,,,,2300417
5352673905,52.4991763,13.4299627,el Camba la che,,,,2300417
5352826464,52.4989354,13.4305407,Mano Café,Skalitzer Straße 46a,10999.0,Berlin,2300417
5354951057,52.5474929,13.4094453,Wanderlust,,,,3601142
5354951068,52.5474023,13.4084651,Samer Café,,,,3601142
5356347748,52.5319525,13.3892274,Baffels,Gartenstraße 92,,,1100415
5368793412,52.5346652,13.3790445,Black Coffee,Schwartzkopffstraße 19,10115.0,Berlin,1100414
5381467202,52.4395351,13.4602529,natürlich&schön,,,,8401140
5387089453,52.4803978,13.5243537,KaWi Café & Lunch,Wandlitzstraße 1-3,,Berlin,11501341
5389538547,52.5412189,13.4127493,Imogti Café,,,,3601347
5404159223,52.4697903,13.4259061,Café Plume,Warthestraße 60,12051.0,,8100104
5405885452,52.5102156,13.5013705,Ormado Kaffeehaus,Einbecker Straße 18,10317.0,Berlin,11400929
5411911921,52.5590203,13.2101949,Café Smilie,Streitstraße 18,13587.0,Berlin,5100104
5412597401,52.4864674,13.3574466,Coffee Pony,Richard-von-Weizsäcker-Platz 4,10827.0,Berlin,7200410
5433858378,52.5142622,13.4670711,Coffee For Coffee,Frankfurter Allee 70,10247.0,Berlin,2500831
5435520822,52.4954879,13.4179787,Petit Paris,Planufer 92d,10967.0,Berlin,2200213
5440526361,52.4688741,13.3859568,Cafe Sim,Tempelhofer Damm 123,12099.0,Berlin,7400927
5456337638,52.52394,13.3338029,Mia y Leo,Jagowstraße 26,10555.0,Berlin,1200522
5457613817,52.5287393,13.3838035,Ca Doro,,,,1100308
5467487738,52.5248057,13.3041606,Cafe Friedrichs,Mierendorffplatz 2-4,10589.0,Berlin,4300518
5471156337,52.5549666,13.4219758,Salzig & Süss,,,,3400827
5472057926,52.5168772,13.4067287,Creperie im Nikolaiviertel,Propststraße 4,10178.0,,1100310
5476711803,52.5087887,13.3176613,Reeham Coffee,,,,4300624
5480181390,52.5090532,13.3016539,Answer,Kaiser-Friedrich-Straße 40,10627.0,Berlin,4300416
5489586366,52.4985297,13.4348417,Gipfel,Görlitzer Straße 68,10997.0,Berlin,2300419
5490189206,52.5490158,13.3610483,Café JO|JO,Nazarethkirchstraße 44,13347.0,Berlin,1401048
5491405621,52.5396174,13.4230138,Brammibals Donuts,Danziger Straße 65,10435.0,Berlin,3601348
5502910920,52.5152595,13.4613955,Mama Marias,Frankfurter Allee 33,10247.0,Berlin,2500728
5503417521,52.4187796,13.5458205,Lieblings-Kaffee,,12524.0,,9300920
5503456917,52.5159891,13.4608631,Bankert Vinyl Café,Proskauer Straße 5,10247.0,Berlin,2500728
5505598526,52.5398383,13.4068458,Charlot,Oderberger Straße 23,10435.0,Berlin,3701554
5518569192,52.4885934,13.3625967,La Molisana,,,,7200411
5528648738,52.5237116,13.4002504,Cinamood,Oranienburger Straße 8,10178.0,Berlin,1100309
5528648746,52.5239553,13.3996161,Always Together,Große Hamburger Straße 24,10115.0,Berlin,1100309
5533363915,52.5520958,13.3414686,Eiscafé Kibo,Transvaalstraße 13,13351.0,Berlin,1400937
5534476062,52.5245299,13.4041265,The Barn,Neue Schönhauser Straße 12,10178.0,Berlin,1100309
5558640890,52.4722951,13.3135147,JEspresso,Wiesbadener Straße 33,14197.0,Berlin,4400834
5559298645,52.5108524,13.4563827,Macera,Simon-Dach-Straße 10,10245.0,Berlin,2500833
5563450711,52.5114558,13.4699363,Ca Phe 13,Travestraße 3,,,2500832
5574064596,52.4952775,13.4174367,Plan Café - Plan C,Planufer 92B,10967.0,Berlin,2200213
5578988345,52.5034816,13.3424664,Café Ansbach,,,,7100101
5585719525,52.5113456,13.3982387,German Cooking,Leipziger Straße 56,10117.0,Berlin,1100207
5587550741,52.4518489,13.2705479,Truman Cafe Edeka Schäfers,,,,6400842
5590788378,52.508263,13.463615,kaffee ingwer,Wühlischstraße 12,10245.0,Berlin,2500833
5598889424,52.4733136,13.3170138,Lotte am Platz,Rüdesheimer Platz 1,14197.0,Berlin,4400835
5611229251,52.5919925,13.2859161,Budde Kaffee,Buddestraße 31f,13507.0,Berlin,12200515
5615415321,52.5054593,13.4693533,Bagelmann,Neue Bahnhofstraße 30,10245.0,Berlin,2500834
5618113173,52.4961026,13.4224749,Concierge Coffee,Paul-Lincke-Ufer 39-40,,,2300417
5619070387,52.5140478,13.2640212,ANNA`s ToGo,Reichsstraße 89,14052.0,Berlin,4200310
5619908339,52.5233639,13.3851786,Mensa,,,,1100308
5628609221,52.5381186,13.2030361,Kaffee 26,Jüdenstraße 26,,,5100316
5631274664,52.4994742,13.4395131,Pastel,,,,2300419
5633810234,52.5269237,13.3934136,Beth Café,,,,1100309
5635827729,52.5442346,13.4220906,luuv,Dunckerstraße 72,10437.0,Berlin,3601347
5636598781,52.5117349,13.3898335,BoboQ,Friedrichstraße 63,10117.0,Berlin,1100207
5639326221,52.5155055,13.2912817,Berliner Eismanufaktur,Seelingstraße 38,14059.0,Berlin,4300413
5648008721,52.5462101,13.348835,Spinner und Weber,Brüsseler Straße 37,13353.0,,1400942
5649582352,52.489902,13.4237183,Akin Simit Frühstückshaus,Kottbusser Damm 24,,,2200213
5650154055,52.5509686,13.4117623,Zuckerstück,Schivelbeiner Straße 7,10439.0,Berlin,3601141
5650550037,52.5218283,13.3270743,Bitter & Süß,Helmholtzstraße 16,10587.0,Berlin,4300620
5655310279,52.5473979,13.4280168,Orange Coffee,Prenzlauer Allee 171,10409.0,Berlin,3601244
5661342170,52.5245387,13.335152,21 Tassen,,,,1200522
5661450748,52.5505594,13.4470104,Babuschka in der alten Fischräucherei,Behaimstraße 32,13086.0,Berlin,3500935
5664563367,52.5101309,13.380568,WonderWaffel,,,,1100205
5664563375,52.5104637,13.3799637,Einstein Kaffee,,,,1100205
5664575392,52.5124715,13.4577276,Noras Garden,Simon-Dach-Straße 46,10245.0,Berlin,2500833
5672974710,52.5049008,13.2988335,Doppio Pazzo,,,,4300416
5674154573,52.5277622,13.3304119,Garcia Kaffeebar,Waldstraße 59,10551.0,Berlin,1200519
5675869250,52.4987064,13.3168378,Nata,,,,4501043
5678335990,52.5132811,13.458543,Easy,,,,2500830
5693170695,52.5491142,13.3473456,"togo – Hunde, Kids & Coffee",,,,1400938
5715768002,52.5139594,13.3812055,Monument,,,,1100205
5718697052,52.4883451,13.3580098,Aspendos,Hauptstraße 11,10827.0,Berlin,7200409
5726043060,52.5413583,13.350938,Spazio Italian Bistrot,,,,1401046
5730442372,52.4579789,13.3847824,Kaffeeschwestern,Friedrich-Wilhelm-Straße 83,12099.0,Berlin,7400927
5736737654,52.4911868,13.394829,café Mos,Gneisenaustraße 24,10961.0,Berlin,2200211
5741776292,52.4806947,13.4314047,Wilke,Boddinstraße 10-11,12053.0,Berlin,8100206
5749818808,52.47532,13.3237587,Mr. Moose,Südwestkorso 9,12161.0,Berlin,7300515
5753860540,52.4802013,13.3279092,Café Wolkenstein,Bundesplatz 1,10715.0,Berlin,4501151
5754927460,52.5099555,13.2737073,King Momo,Theodor-Heuss-Platz 2,14052.0,Berlin,4200310
5758190721,52.5174493,13.3877424,The visit coffee,Unter den Linden 28,10117.0,Berlin,1100206
5758790547,52.4721789,13.4291542,21 gramm,Hermannstraße 179,12049.0,Berlin,8100208
5760441943,52.4901302,13.3565728,Caffèmania,,,,7200409
5773476267,52.5229164,13.4520852,Wundertüte,Straßmannstraße 33,10249.0,Berlin,2500726
5779323968,52.4119608,13.3669026,Cafe Erna & Else,,,,7601237
5782596487,52.51683,13.2617085,a modo tuo,,,,4200308
5794297295,52.5264835,13.3793031,Cafeteria,,,,1100308
5801381294,52.5001599,13.3218194,Aller & Liebst,,,,4501041
5801718200,52.4166617,13.1461285,Hofcafé Mutter Fourage,Chausseestraße 15a,14109.0,Berlin,6400735
5806630458,52.5654106,13.4028222,café genüsslich,Heynstraße 33,13187.0,Berlin,3400721
5810648254,52.5064752,13.3199852,A Never Ending Love Story,Bleibtreustraße 5,10623.0,Berlin,4300624
5810876299,52.4808391,13.3498768,Café de Enrico,Fritz-Reuter-Straße 13,10827.0,Berlin,7200308
5817114721,52.3869008,13.4005464,Cafe Riedinger Eck,,12305.0,Berlin,7601544
5823385069,52.5086568,13.3938575,Mix & Match,,,,1100207
5827057077,52.5227551,13.4074446,19grams Alex,Rochstraße 14,10178.0,Berlin,1100310
5834155486,52.4892197,13.3484217,Korn & Karamell,,,,7200409
5834297130,52.5071643,13.2992883,Café Glücklich,,,,4300416
5834297131,52.5070895,13.2993165,Café Society,,,,4300416
5838355086,52.4633298,13.345199,Vivantes Bistro,,,,7300619
5839757276,52.5097682,13.4545025,Café µ,Libauer Straße 2,,,2500834
5841367191,52.5219579,13.4147971,Cuccis,,,,1100310
5841873607,52.4726998,13.1448855,,,,,5400943
5858572252,52.5110185,13.4565123,Simons Coffee,Simon-Dach-Straße 9,10245.0,Berlin,2500833
5861697570,52.4954924,13.2986938,Markt Pur,Westfälische Straße 27,10709.0,Berlin,4500938
5863285413,52.506944,13.3011382,Le Pain,Kantstraße 70,10627.0,Berlin,4300416
5864981585,52.5105855,13.3755287,Schiller Backstube,,,,1100102
5865429438,52.5096266,13.2987379,Sister’s Kitchen Bistro,,,,4300416
5875283386,52.5094322,13.4230961,Cocina,,,,1100313
5908584937,52.4655648,13.3294024,Smoofees,Rheinstraße 42,12161.0,Berlin,6100103
5921033162,52.4985369,13.4470896,Cafe Frida,Schlesische Straße 28,,,2300419
5926476438,52.4652716,13.4241609,"Familienzentrum ""Vielfalt""",Silbersteinstraße 129,12051.0,Berlin,8100105
5926525200,52.482169,13.4222106,"Nachbarschaftshaus ""Vielfalt""",,,,8100101
5936986885,52.4871724,13.3541868,Coffee & Bagel House,Belziger Straße 21,10823.0,Berlin,7200409
5938875150,52.4702863,13.3336429,Café Sterntal Galerie,Rheinstraße 10,12159.0,Berlin,7300517
5942905631,52.4948297,13.4336012,Shoeshine,,,,2300418
5943563590,52.4923996,13.4282383,The Barn,Friedelstraße 27,12047.0,Berlin,8100310
5944293692,52.4889422,13.3937519,breakout Café,,,,2200211
5957855388,52.4920197,13.3937239,What A Treat,Gneisenaustraße 94,10961.0,Berlin,2200210
5957855389,52.490499,13.3939175,Café Schön,Zossener Straße 20,10961.0,,2200211
5977696148,52.5082687,13.4534439,Stilbruch Kaffee,,,,2500834
5986470676,52.5292095,13.3307394,Brettspielplatz,Waldstraße 50,10551.0,Berlin,1200519
5992981706,52.5059889,13.4060963,Backery & Coffee,Kommandantenstraße 31-32,10969.0,Berlin,2100104
5998401685,52.5016774,13.4174293,Butterbrot,Oranienstraße 168,10999.0,Berlin,2300314
6000099423,52.5398635,13.4847981,Coffee Station,Konrad-Wolf-Straße 87,13055.0,Berlin,11200513
6005972989,52.5019983,13.341323,Lenôtre Paris,,,,7100101
6009831370,52.5065807,13.3055023,Toast Brothers,Kantstraße 109,10627.0,Berlin,4300623
6019115389,52.4714836,13.4334646,Home,Jonasstraße 23,12053.0,,8100208
6026684785,52.501556,13.3097133,earlybean,Clausewitzstraße 9,10629.0,Berlin,4501040
6029583997,52.4701027,13.4311295,Cafe Berlin,Schierker Straße 25,,,8100208
6031975232,52.5644173,13.3168621,Café Schatztruhe,Weststraße 8,13405.0,Berlin,12200411
6032523119,52.5060106,13.4455995,Comebuy,,,,2400625
6041595446,52.4783816,13.4390834,Café Evim,Richardstraße 109,,,8100415
6048959095,52.5540484,13.3597495,Kantine N°1,Seestraße 65,13347.0,Berlin,1401048
6058235413,52.5086087,13.4339156,Cafe Martha,,,,2400623
6070390014,52.5097019,13.4984766,Cafe Lounge,Irenenstraße 25,10317.0,Berlin,11400929
6071422170,52.4558527,13.2969601,Kafete,Takustraße 9,14195.0,Berlin,6400843
6085961140,52.4916758,13.3830818,Gretel,,,,2200209
6106472481,52.4770012,13.3121425,Mensa Charité Zahnklinik,Aßmannshauser Straße 2-6,14197.0,Berlin,4400834
6123731658,52.4892186,13.3945263,Le Bretagne - Café Épicerie,,,,2200211
6123731661,52.4892319,13.3943588,Café del Mercato,,,,2200211
6123731662,52.4893932,13.3947939,Gizmo‘s Sweet Coffee,,,,2200211
6124022025,52.5069399,13.4680621,Bagel & Friends,Wühlischstraße 58,10245.0,Berlin,2500834
6124727196,52.5014426,13.4911172,Coffea,Lückstraße 56,10317.0,Berlin,11400929
6132638173,52.5052531,13.4952684,Cafe Johann,,,,11400929
6140668586,52.5117232,13.4135327,Yada Yada,,,,1100312
6163950534,52.4585819,13.3783212,Schmaus & Plausch,Friedrich-Wilhelm-Straße 67,12103.0,Berlin,7400825
6167488715,52.4813124,13.5244692,AllerMunde,,,,11501341
6170616566,52.5038354,13.3073191,Café Berg,,,,4501040
6171061224,52.4805799,13.525515,Co.me.in,,,,11501341
6190749887,52.4896379,13.377794,Tirelli‘s,,,,2200209
6192424368,52.4861034,13.3617521,Cafe Efsane,,,,7200414
6192424375,52.4856881,13.3627814,Daddy,,,,7200414
6202493286,52.5293286,13.4014104,Common Ground,Rosenthaler Straße 1,,,1100309
6214673004,52.5021921,13.316642,Superfoods & Organic Liquids,,,,4501041
6216154171,52.4863699,13.3626542,Koriat Kuchenmanufaktur,,,,7200414
6220960666,52.5976078,13.3555367,FUN Café Bar,,,,12601134
6228362811,52.5635819,13.3651864,Torten Träume,Residenzstraße 108,13409.0,Berlin,12100101
6228364865,52.5636697,13.3650798,Kral Simit,Residenzstraße 108,13409.0,Berlin,12100101
6250281632,52.492327,13.378074,nisk,,,,2200207
6251908867,52.5529701,13.3805058,Cafe Beykoz,,,,1401045
6251908868,52.5572357,13.3772533,X Café Bar,,,,1300730
6253992970,52.493873,13.4352644,Mr. Box,Liegnitzer Straße 30,10999.0,Berlin,2300418
6254277531,52.5179364,13.4628696,Verzuckert Berlin,Schreinerstraße 61,10247.0,Berlin,2500728
6254428437,52.4929032,13.3533462,The Visit,Goltzstraße 39,10781.0,Berlin,7100204
6256648224,52.5498861,13.474581,Kaffee Küche,Hansastraße 145,13088.0,Berlin,3501038
6261939658,52.4970613,13.4234152,% Arabica,Reichenberger Straße 36,10999.0,Berlin,2300417
6268326586,52.5265609,13.3408853,Sönmez Baklava,,,,1200520
6268406950,52.4998898,13.4445776,19grams Schlesi,Schlesische Straße 38,10997.0,Berlin,2300419
6268406951,52.5031274,13.4076703,Zweitausend,Lobeckstraße 30-35,10969.0,Berlin,2100104
6280785687,52.5000702,13.376532,Café Lycke Lunch,Luckenwalder Straße 15,10963.0,Berlin,2200207
6282529804,52.5510594,13.4105793,Naschpunkt,,,,3601141
6289073097,52.4983149,13.4301104,Café Lu,Wiener Straße 63,10999.0,Berlin,2300417
6289101644,52.5282425,13.3815953,Coffeebar HU Mensa Nord,Hannoversche Straße 7,10115.0,Berlin,1100308
6289101645,52.4294073,13.530074,Coffeebar,Rudower Chaussee 25,12489.0,Berlin,9200715
6289101646,52.4854566,13.3381977,Coffeebar der Mensa HWR Badensche Straße,Badensche Straße 52,10825.0,Berlin,7200308
6289101647,52.5100043,13.3259726,Coffeebar,Hardenbergstraße 34,10623.0,Berlin,4300622
6291140254,52.534948,13.4235264,Town Mouse,Marienburger Straße 5,10405.0,Berlin,3701659
6297557786,52.5412546,13.4112914,Haferkater,Eberswalder Straße 26,10437.0,Berlin,3601142
6299003229,52.5145039,13.5668439,Bistro Hexenhaus,Brebacher Weg 15,12683.0,Berlin,10300732
6303668764,52.507682,13.2581871,Harveys,,,,4200207
6316591600,52.4727781,13.4408825,Café Fairouz,Karl-Marx-Straße 196,12055.0,Berlin,8100208
6322426329,52.4548251,13.6280042,Rabu,,,,9501737
6322875025,52.506653,13.3915625,betahaus Cafe,,,,2100102
6325006706,52.5280016,13.3309729,Wald Café,,,,1200519
6325963105,52.5049281,13.3566973,my deli love,Lützowstraße 46,10785.0,Berlin,1100103
6326356395,52.5075952,13.467407,hunger & freude,Boxhagener Straße 55,10245.0,Berlin,2500833
6328515794,52.4551405,13.325109,Morgenstern,Schützenstraße 54,12165.0,Berlin,6100207
6340183390,52.5441223,13.4929394,Kaffee Strudel,Konrad-Wolf-Straße 114,13055.0,Berlin,11200513
6343240190,52.4797702,13.4435529,Holy Coffee,Sonnenallee 132,12059.0,Berlin,8100415
6360044247,52.4469487,13.5761396,PEPs,Kirchstraße 1,12555.0,Berlin,9401534
6360239076,52.4450035,13.576966,Fräulein O,Grünstraße 13,12555.0,Berlin,9401534
6373530592,52.5438105,13.3729322,Cafe des Schicksals,Gerichtstraße 68,13347.0,Berlin,1300836
6383316362,52.5089644,13.4246022,Café Le Vent,Köpenicker Straße 44,10179.0,Berlin,1100313
6384174185,52.4696705,13.4388724,Jaliya,Kirchhofstraße 17,12051.0,,8100208
6384283185,52.5305729,13.4003179,Mod Coffee,Brunnenstraße 193,10119.0,,1100415
6385471113,52.5185682,13.4642562,Sweet Sisters,Bänschstraße 41,10247.0,Berlin,2500728
6388785136,52.504851,13.3296252,Imogti,Kurfürstendamm 2,10719.0,Berlin,4501042
6418054530,52.52101,13.5884786,Café Dream,,,,10200629
6422776108,52.5075445,13.3901143,Einstein Kaffee,,,,2100102
6426071297,52.5406293,13.3511496,Chamelion Coffee,Torfstraße 25,13353.0,Berlin,1401046
6428294267,52.5155479,13.2918727,Röstwerk,Seelingstraße 32,14059.0,Berlin,4300413
6433846648,52.5402584,13.5687006,Café & Bäckerei Sahnebaiser,,,,10100315
6449298061,52.4828157,13.4413761,tante boukje,Wildenbruchstraße 87,12045.0,Berlin,8100312
6458744289,52.4641376,13.3165393,Relax II,Schildhornstraße 71,12163.0,Berlin,6100102
6470345311,52.5047784,13.4691969,Transfair,Neue Bahnhofstraße 1A,10245.0,Berlin,2500834
6472142086,52.5093679,13.4232634,Grüngut,Köpenicker Straße 53,10179.0,Berlin,1100313
6472969308,52.4952828,13.3277805,Café Lama,Hohenzollerndamm 7,10717.0,Berlin,4501045
6473150811,52.5074146,13.3066573,The Alley Wilmersdorf,Wilmersdorfer Straße 115,10627.0,Berlin,4300623
6509724286,52.5264567,13.3435867,WonderWaffel,,,,1200625
6513417589,52.5064762,13.390707,Malu,Friedrichstraße 41,10969.0,Berlin,2100102
6522579859,52.5106529,13.4375313,Haßelbach,,,,2400625
6530432185,52.510584,13.3822627,Ormado Kaffeehaus,Leipziger Platz 12,10117.0,,1100205
6552544711,52.5345827,13.3994639,,,,,1100416
6564734372,52.4931942,13.4653227,Bruschetta Bar Berlin,,,,9100101
6569710889,52.5313994,13.3440678,Anadolu,,,,1200625
6573839963,52.4793139,13.4309744,Café Babette,Am Sudhaus 3,12053.0,Berlin,8100206
6588859242,52.5057007,13.3316262,Starbucks,Joachimsthaler Straße 1-4,10623.0,Berlin,4501042
6589636628,52.4249221,13.5751213,Tous les jours,Regattastraße 35,12527.0,Berlin,9301126
6596706590,52.5459278,13.3448983,Von morgens bis Späti,,,,1400942
6596977800,52.5500251,13.3523071,chokkolatta,,,,1400942
6612961274,52.484471,13.4272863,Agora,Mainzer Straße 3,12053.0,Berlin,8100206
6632057585,52.5315647,13.3618789,Ein Blick,,,,1200624
6649035185,52.4837555,13.432072,Our Authentic Kitchen,Weichselstraße 66,12043.0,Berlin,8100314
6652933076,52.5326604,13.3985793,Codos,Invalidenstraße 1,10115.0,Berlin,1100415
6653396110,52.4779354,13.4380426,Cafe Simbur,Karl-Marx-Straße 124,12043.0,Berlin,8100207
6655311489,52.5059494,13.4707801,Dosha,Boxhagener Straße 65,10245.0,Berlin,2500832
6656463727,52.4591597,13.3198003,Duo Chá,Muthesiusstraße 17,12163.0,Berlin,6100102
6679597653,52.5338305,13.4052276,,Kastanienallee 59,10119.0,Berlin,1100416
6687804305,52.5277484,13.3888247,Suō Noodle House,Novalisstraße 16,,,1100415
6688326490,52.4197312,13.1587855,Café Exner,Königstraße 15,14109.0,Berlin,6400735
6697296985,52.5544454,13.384241,Yablanovo,,,,1300733
6698553797,52.550776,13.3509834,Das Café-Haus,Müllerstraße 135,13349.0,Berlin,1400938
6700509921,52.5334592,13.3988575,My Goodness,Brunnenstraße 24,10119.0,Berlin,1100416
6700717678,52.4495839,13.2692543,Breadleys,Clayallee 225,14195.0,Berlin,6400842
6706569253,52.4708555,13.4446927,Floral Bistro Tom Otto,Braunschweiger Straße 66,,,8100417
6714794979,52.5134769,13.3896088,Einstein,Friedrichstraße 71,,,1100206
6719001756,52.5341571,13.5748665,Galerie-Cafe,,,,10300732
6723408551,52.48633,13.3595091,Cafe Seven,,,,7200410
6723408556,52.4865699,13.3591343,Café Star,,,,7200411
6724707385,52.5300803,13.4241163,Make Tea Not War,Heinrich-Roller-Straße 6,10405.0,Berlin,3701659
6726277881,52.5174031,13.3096114,Zucka,,,,4300619
6735275979,52.5573836,13.4049418,,,,,3601139
6739388159,52.5178335,13.3067592,Hez Lounge,,,,4300619
6740249580,52.4789438,13.4490306,Café ohne Titel,Treptower Straße 91,12059.0,Berlin,8100418
6743618885,52.5447118,13.4372178,Café Gold Stück,Erich-Weinert-Straße 128,10409.0,,3601245
6760848265,52.5079949,13.3081047,Lami’s,Pestalozzistraße 28,10627.0,Berlin,4300623
6764078993,52.5397199,13.4223031,Bubble Bauch,Danziger Straße 59,10435.0,Berlin,3601348
6766853189,52.5521845,13.3647891,Brooclyn,,,,1401049
6769219613,52.4797502,13.421463,Café Istanbul,,,,8100102
6772466198,52.5641296,13.32858,Café am Kutschi,,,,12100205
6793842997,52.4923296,13.3711516,New Yorck Coffee,Bautzener Straße 40,10829.0,Berlin,7100206
6813921789,52.5225403,13.3680214,Tucano Coffee,Rahel-Hirsch-Straße 10,10557.0,Berlin,1200628
6825777498,52.5030077,13.330725,Einstein Kaffee,,,,4501042
6832915881,52.5133051,13.3819381,Cafe Bar Italia,Wilhelmstraße 86,10117.0,Berlin,1100205
6833361555,52.4814667,13.4315242,Cafe Gediz,,,,8100206
6833361556,52.4815109,13.4318865,Maulana,,,,8100206
6835710243,52.4804596,13.435196,WonderWaffel,,,,8100206
6848436877,52.5038817,13.3299109,Gregory’s,,,,4501042
6851358195,52.5298692,13.3401827,Monkey Mind Cafe,Bredowstraße 14,10551.0,Berlin,1200520
6853266785,52.5351095,13.4222322,Kaffee Kiana,Prenzlauer Allee 38,10405.0,Berlin,3701659
6855165592,52.4966527,13.3928346,Tims,Blücherplatz 1,10961.0,Berlin,2200210
6857427415,52.4389401,13.3890708,Cafe Red & Blue,,,,7501134
6865484753,52.4977512,13.4484525,Anne Schranke,Schlesische Straße 26,10997.0,Berlin,2300419
6868834338,52.5284432,13.4024425,Pao Pao,Rosenthaler Straße 66,10119.0,Berlin,1100309
6908729685,52.5264661,13.344438,Exclusive Coffee,,,Berlin,1200625
6913471103,52.4912816,13.2911986,Pauls Deli,,,,4400727
6913930085,52.5698177,13.3987195,Meana,Kreuzstraße 19,13187.0,Berlin,3400721
6915842985,52.4758574,13.4435157,Unicorn Village,Richardstraße 86,12043.0,Berlin,8100416
6919102842,52.4895509,13.389763,Coffee Circle,,,,2200211
6932885257,52.5015605,13.3646733,,,,,1100104
6942567346,52.4985073,13.434937,Annelies,Görlitzer Straße 68,10997.0,Berlin,2300419
6948758189,52.4941918,13.3377527,The Hummus Guys,Hohenstaufenstraße 39,10779.0,Berlin,7200307
6981216483,52.4806971,13.4389327,Asbury Park Coffee,Donaustraße 94,12043.0,Berlin,8100415
6982103606,52.4582142,13.2909032,BioBackHaus,,,,6400844
6983349351,52.5266873,13.371948,Coffee Fellows,Hilda-Geiringer-Weg 8,10557.0,Berlin,1200628
6984432011,52.4909582,13.3315417,Times,Güntzelstraße 10,10717.0,Berlin,4501152
6984780038,52.4440893,13.5689133,Baguette & Buch,,,,9200819
6986359516,52.4872604,13.4220944,Bonjour,Hasenheide 10,10967.0,Berlin,2200212
6987208792,52.5064041,13.40798,HOA,,10969.0,,1100312
7008420713,52.503301,13.3168241,Private View,Schlüterstraße 33,10629.0,,4501041
7025879071,52.5344101,13.436069,Café Coconut,Danziger Straße 144,10407.0,Berlin,3701660
7025879084,52.5357239,13.4333335,Café Danziger,Danziger Straße 122,10407.0,Berlin,3701660
7025879189,52.5362005,13.4336993,Cafè / Bar MM,Danziger Straße 119,10407.0,Berlin,3601451
7054504783,52.524597,13.3479459,TRIIIO,Alt-Moabit 104,10559.0,Berlin,1200626
7055629498,52.5273031,13.3728895,Humboldt-Café,,,,1200628
7058016109,52.4974091,13.3465002,Geschmackssache,Motzstraße 34,10777.0,Berlin,7100102
7060207088,52.4974129,13.3493889,elementa,Eisenacher Straße 11,10777.0,Berlin,7100102
7061308397,52.509379,13.4121691,Bavul Kunst & Kultur Café,,,,1100312
7069825856,52.5319691,13.4322073,SantAmbroeus da Marco,Hufelandstraße 17,10407.0,Berlin,3701660
7069825859,52.5323376,13.4313754,Bronco,Hufelandstraße 13,10407.0,Berlin,3701660
7080484500,52.5183026,13.3841452,ama,Dorotheenstraße 83,10117.0,Berlin,1100206
7084015705,52.506946,13.3174066,Mezem,Schlüterstraße 19,,,4300624
7093312886,52.4793991,13.4369849,Leckerback Café,Karl-Marx-Straße 100,12043.0,Berlin,8100206
7098138245,52.4499521,13.6249254,Eiscafe Klatsch,Bölschestraße 25,,,9501737
7104496146,52.5044452,13.338384,Tiffanys,,,,4501042
7106771743,52.6182133,13.3066273,Zwei Kraniche,Heinsestraße 42,13467.0,Berlin,12400723
7114134079,52.5082563,13.3224983,Couéro,Knesebeckstraße 15,10623.0,Berlin,4300624
7118201696,52.4956938,13.3211749,Boris,Düsseldorfer Straße 68,10719.0,Berlin,4501044
7124396902,52.4534031,13.5684399,Behappy,,,,9501939
7124425863,52.4668493,13.321987,Delizie & Sapori,Bornstraße 16,12163.0,Berlin,7300516
7129246761,52.5422478,13.3695611,Evra,Reinickendorfer Straße 120,13347.0,Berlin,1300836
7132010681,52.5063819,13.4497985,Starbucks,,,,2500835
7142525701,52.516701,13.4612169,Roj Cafe Bar,,,,2500728
7148985179,52.5048157,13.3379504,Mr. Box Planet,Tauentzienstraße 9-12,10789.0,Berlin,4501042
7159044717,52.5437931,13.3677735,Coffee Circle Café,Lindower Straße 18,13347.0,Berlin,1300836
7166724117,52.3868199,13.3956659,Stil Cafe,,,,7601546
7167351575,52.4887575,13.2936823,Dombili - Back&Snack,Charlottenbrunner Straße 12,14193.0,Berlin,4400727
7171914485,52.5226169,13.3674466,Maxway Coffee,,,,1200628
7184234441,52.5280239,13.3417232,Co-workingspace,,,,1200520
7185001706,52.5020958,13.3166271,Daluma,,,,4501041
7200854535,52.5159595,13.3044984,Hängemate,Wilmersdorfer Straße 15,10585.0,Berlin,4300621
7211080883,52.5342936,13.430382,Café á Gogo,Greifswalder Straße 198,10405.0,Berlin,3701658
7216141846,52.4820775,13.3623391,Café Noli,Gustav-Müller-Straße 15,10829.0,Berlin,7200413
7228517906,52.4910499,13.4240367,Alem,,,,8100311
7233554320,52.543108,13.4406366,Lynn Tea & Coffee,Greifswalder Straße 158,10409.0,Berlin,3601245
7233815673,52.484869,13.3824553,Go to Coffee,,,,7400720
7237267914,52.5529072,13.414745,P-Berg Coffee,Schönhauser Allee 89,10439.0,Berlin,3601243
7239464453,52.4969206,13.3549269,La Femme Quality,Winterfeldtstraße 39,10781.0,Berlin,7100103
7252377725,52.5110808,13.4618059,Sugarclan,Grünberger Straße 85,,,2500833
7253124489,52.473758,13.4276876,Café 27 M.K,,,,8100103
7257482323,52.4794491,13.4252766,Diggi Eiscafé,,,,8100102
7261140334,52.4738595,13.427632,Cafe Deniz,,,,8100103
7261208964,52.474134,13.4270259,Oker Café,,,,8100103
7272856131,52.5426392,13.4211448,Dodo,Dunckerstraße 12,10437.0,Berlin,3601348
7274447383,52.5441717,13.4220194,Kajumi,Dunckerstraße 73,10437.0,Berlin,3601347
7276736007,52.4734105,13.4385833,Monet,Thomasstraße 17,12053.0,Berlin,8100208
7277454704,52.4758642,13.4257708,Cafe Metrom,,,,8100103
7280818966,52.5454905,13.4193332,,Lychener Straße 63,10437.0,Berlin,3601347
7289061027,52.5403596,13.422385,Cookies & Co.,Senefelderstraße 4,10437.0,Berlin,3601348
7289162274,52.4880264,13.3904891,Rekorder,,,,2200211
7289650000,52.5202188,13.2865155,Omi Rosis Suppen,,,,4300412
7292317454,52.5434839,13.4190738,Moloko,Lettestraße 6,10437.0,Berlin,3601347
7292325636,52.5428502,13.4205748,La Petite Boulangerie,Lettestraße 1,10437.0,Berlin,3601347
7308437146,52.5429404,13.4178048,Tilda,Raumerstraße 7,10437.0,Berlin,3601347
7345442914,52.5071477,13.2955706,Antquitäten Cafe,,,,4300416
7382754552,52.4342927,13.4547033,Fritz Erler Treff,,,,8300934
7388634885,52.55088,13.3846478,Lumoss,Badstraße 14,,,1300733
7389038823,52.4935672,13.3644441,Hermanos,Goebenstraße 10,10783.0,Berlin,7100206
7392103175,52.5368642,13.4224481,Plant Base,Prenzlauer Allee 208,10405.0,Berlin,3701555
7415668961,52.4927657,13.4164346,muoto,Dieffenbachstraße 58a,10967.0,Berlin,2200213
7428910087,52.556514,13.3417455,Cafe Bar eko,Müllerstraße 66,13349.0,Berlin,1400939
7441490915,52.5271617,13.5060609,Cafeteria KEH,,,,11300721
7446841170,52.5656447,13.4128476,Café Jasmino,,,,3400830
7497952456,52.4739017,13.4554001,SnackCafé On4,Sonnenallee 218,12059.0,Berlin,8100417
7515205017,52.473234,13.454972,Yacht Cafe,Saalestraße 39B,12055.0,Berlin,8100417
7517427994,52.4581395,13.3177773,Petit Pâté,Grunewaldstraße 6a,12165.0,Berlin,6100102
7531805359,52.5230488,13.2883146,Joli Cafe,Heubnerweg 3,14059.0,Berlin,4300412
7541757196,52.5129209,13.4531863,Brammibals Donuts,Warschauer Straße 76,10243.0,Berlin,2500833
7541757197,52.5196928,13.4627065,Eis & Café Lekker,Dolziger Straße 1,10247.0,Berlin,2500728
7554137781,52.4704833,13.3345276,SuJis Box,Rheinstraße 62,12159.0,Berlin,7300618
7554137782,52.470338,13.3343619,BoBaLism,Rheinstraße 61,12159.0,Berlin,7300618
7589526279,52.5200272,13.3886628,Waynes Coffee,,,,1100206
7597560505,52.4882917,13.4428714,Cafe Bread,Mengerzeile 14,12435.0,Berlin,9100101
7597700581,52.4810947,13.4265145,YaMe NumNums,Flughafenstraße 46,12053.0,Berlin,8100206
7616134547,52.4980288,13.2950912,Cafe Kudamm 1♡4,Kurfürstendamm 104,10711.0,Berlin,4500937
7617569039,52.4555704,13.2935432,KAFFEE!,,,,6400843
7620604047,52.4759613,13.3350157,Witty Stories,Perelsplatz 1,12159.0,Berlin,7300517
7623775574,52.5520244,13.3413658,Cafe Favorite,Transvaalstraße 13,13351.0,Berlin,1400937
7633023883,52.5555816,13.3424895,Cafe Tara,Müllerstraße 113A,13349.0,Berlin,1400937
7664110126,52.4973791,13.380832,Piniks,,,,2200208
7668979479,52.5277283,13.3892738,90 °C,,,,1100415
7682213885,52.5208444,13.4113176,Bubble Bär,,,,1100310
7684780822,52.4829574,13.4420224,Mona Lisa Classique,,,,8100418
7685796319,52.4863837,13.3170977,Cup Cafe,Berliner Straße 116,10713.0,Berlin,4501146
7688040514,52.4124451,13.5731511,Iss mir Stulle,Richterstraße 15,12526.0,Berlin,9301126
7688108908,52.4588362,13.5261728,Gastro-Norm,Wilhelminenhofstraße 53,12459.0,Berlin,9200511
7700452323,52.4845379,13.3199576,Café Streusel,Blissestraße 20,10713.0,Berlin,4501146
7700544481,52.5088626,13.3233144,Love to sweet you,Goethestraße 4,10623.0,Berlin,4300624
7710976595,52.5579484,13.3787933,Café Kalliya,Koloniestraße 21,13359.0,Berlin,1300730
7724065963,52.5047337,13.5235834,Schlosscafe,,,,11401034
7737895317,52.5138698,13.4540678,Boxi Espresso,Boxhagener Straße 12,10245.0,Berlin,2500833
7744836616,52.4387139,13.2165412,Gutes von Busch,Matterhornstraße 54,14129.0,Berlin,6400838
7746191685,52.5850623,13.3661712,Kiez-Café,Hauptstraße 12,13158.0,Berlin,3400619
7779451176,52.4875928,13.3761443,Ripieno,Monumentenstraße 21,10965.0,Berlin,2200209
7781499699,52.5152631,13.4090693,The Greens,Am Krögel 2,10179.0,Berlin,1100310
7798400777,52.486186,13.3228707,Mauritius Eis Café Tee,,,,4501150
7798817385,52.4882295,13.3542986,Bar Oro Nero,Akazienstraße 10,10823.0,Berlin,7200409
7802654692,52.4654677,13.4229404,Stern Café,Silbersteinstraße 140,12051.0,Berlin,8100105
7803196080,52.4990847,13.3733055,jules,Luckenwalder Straße 6b,10963.0,Berlin,2200207
7804846344,52.4863027,13.3232566,Maracay Coffee,Berliner Straße 137,10715.0,Berlin,4501150
7813547006,52.4718768,13.3237568,Aperitivo Café,Stubenrauchstraße 57,12161.0,Berlin,7300515
7820738523,52.562148,13.3728018,Siuts Café und Feines,Reginhardstraße 55,13409.0,Berlin,12100101
7821126097,52.4797189,13.325094,Dal Bhat,Mainzer Straße 8,10715.0,Berlin,4501151
7835643849,52.5013439,13.3353049,Clavé,,,,4501042
7836880350,52.5524736,13.4508897,Portugiesische Konditorei,Pistoriusstraße 25,13086.0,Berlin,3500933
7839124566,52.4548564,13.4374445,Britzer Stübchen,,,,8200624
7850876158,52.4928559,13.3798524,Bites,,,,2200208
7853722744,52.5128592,13.3897282,Caras,,,,1100206
7864807685,52.4974429,13.3421028,jules,Geisbergstraße 9,10777.0,Berlin,7100101
7867810050,52.5355282,13.4266165,Cafelix,Winsstraße 47,10405.0,Berlin,3701658
7887536006,52.5155826,13.2925224,Brotgarten Bistro,Seelingstraße 28,14059.0,Berlin,4300413
7902877159,52.516451,13.4653612,all about,Rigaer Straße 75,10247.0,Berlin,2500728
7902894774,52.4164273,13.4967336,Café Reichelt,,,,8401243
7906370932,52.5054736,13.3320635,Comebuy Tea,Joachimsthaler Straße 43,10623.0,Berlin,4501042
7907933564,52.5315976,13.3615396,Zazza Kaffeebar,Lehrter Straße 24e,10557.0,Berlin,1200624
7910232822,52.4468362,13.3063874,Nellies Cafe,Gardeschützenweg 68,12203.0,Berlin,6300633
7920003931,52.5052653,13.4116776,Gönül Kahvesi,Heinrich-Heine-Straße 38,10179.0,Berlin,1100312
7924890022,52.5037918,13.3300029,Arket Café,Kurfürstendamm 19-24,10719.0,Berlin,4501042
7947979809,52.5677099,13.4402031,fritz & friedrich,Romain-Rolland-Straße 62,13089.0,Berlin,3300516
7966718455,52.4597227,13.3223633,Zimmer3,Zimmermannstraße 3,12163.0,Berlin,6100102
7976386006,52.4933018,13.4311,La Maison,Paul-Lincke-Ufer 17,10999.0,Berlin,2300418
7978440748,52.5708141,13.3609662,Café 21,,,,12100103
7998010522,52.485115,13.3526845,Nostoni,Eisenacher Straße 63,10823.0,Berlin,7200409
8062396514,52.4815255,13.4323606,,,,,8100206
8065800330,52.4832047,13.4290994,Safé,Reuterstraße 13,12053.0,Berlin,8100206
8075137842,52.5449926,13.3664482,Little Mars,,,,1401043
8119481804,52.4569373,13.3192761,Café Schwartzsche Villa,Grunewaldstraße 55,12165.0,Berlin,6100101
8120989366,52.4578761,13.3203204,al teatro,,,,6100102
8120989392,52.4574937,13.3202234,Meyerbeer Coffee,,,,6100102
8169541139,52.4411108,13.424127,Grünes Cafe,,,,8200729
8223127027,52.4850131,13.3546164,Bunter Panda,Hauptstraße 136,10827.0,Berlin,7200410
8223127029,52.4848495,13.3543044,Velvet Coffee,Hauptstraße 134,10827.0,Berlin,7200410
8223127044,52.4815324,13.3494947,Cafe Domino,,,,7200410
8262111146,52.488411,13.4271741,Radikalecker,Weserstraße 212,12047.0,Berlin,8100311
8264913105,52.4996493,13.3349673,Cafe&more Europa,Lietzenburger Straße 28,10789.0,Berlin,4501045
8264923017,52.4954023,13.3349004,Café Flair,Nachodstraße 5,10779.0,Berlin,4501045
8284410725,52.5317483,13.3443355,Moabogen,,,,1200623
8285124434,52.5309447,13.3681831,Exclusive Coffee,Heidestraße 11,,,1200624
8286083413,52.526449,13.3450833,coffee ela,Turmstraße 24,10559.0,Berlin,1200625
8318800266,52.5531637,13.4077309,North Andes Coffee,Czarnikauer Straße 22,10439.0,Berlin,3601141
8330247317,52.4727419,13.3147039,Kaffeehaus am Platz,Rüdesheimer Platz 7,14197.0,Berlin,4400835
8330505680,52.6048197,13.3553107,Café Züri,Senftenberger Ring 51,13435.0,Berlin,12601134
8379002237,52.465626,13.325416,Kiezgeflüster,Bornstraße 7,12163.0,Berlin,7300516
8412278263,52.4947426,13.4238482,Tatas Muffles,Maybachufer 11,12047.0,Berlin,8100310
8413213032,52.4608457,13.5023798,Junge,Schnellerstraße 18,12439.0,Berlin,9200613
8422865846,52.4879029,13.333551,Miss Minty,Berliner Straße 7,10715.0,Berlin,4501152
8423129512,52.4880505,13.337268,Fillo,Kufsteiner Straße 1,10825.0,Berlin,7200307
8423617306,52.4860778,13.3454146,Café Olea,Martin-Luther-Straße 95,10825.0,Berlin,7200409
8459440163,52.5351031,13.4962271,San Remo,Landsberger Allee 277,13055.0,Berlin,11200514
8494343860,52.5417016,13.3905143,The Barn Annex Café,Voltastraße 28,13355.0,Berlin,1300835
8497586161,52.4810719,13.4261127,Bln Coffee,Flughafenstraße 48,12053.0,Berlin,8100206
8510656515,52.506078,13.3233654,Chito Coffee,Savignyplatz 3,10623.0,Berlin,4300624
8510656516,52.5062822,13.3110113,Lokma Company,,,,4300623
8564372025,52.564439,13.3276093,Eis Café La Piazzetta,,,,12200309
8603169789,52.4835329,13.2900564,Bistro Grundschlag,Flinsberger Platz 8,14193.0,Berlin,4400727
8618548372,52.5498589,13.563447,Akis Cafe & Bar,Jan-Petersen-Straße 20,12679.0,Berlin,10100209
8622790479,52.5039298,13.3044059,La Rue de Shi Shi,Lewishamstraße 14,10629.0,Berlin,4501040
8625793647,52.4495515,13.2525101,Tricolore – Bistro und Eiscafé,,,,6400840
8626109348,52.5148106,13.2943931,Eiscafé Fedora,,,,4300413
8637878912,52.4871582,13.3533281,Tumabé,Belziger Straße 26,10823.0,Berlin,7200409
8637878915,52.4828798,13.3438141,Laax,Fritz-Elsas-Straße 30,10825.0,Berlin,7200308
8647316810,52.4770977,13.4211655,Airport Café,,,,8100102
8658121118,52.4413787,13.2926792,Fuchs Curtis,Curtiusstraße 27,12205.0,Berlin,6300634
8662635815,52.5227745,13.4516255,Café to Go,,,,2500726
8668888717,52.4152491,13.5996059,Nino,Möllhausenufer 30,12557.0,,9401330
8704670910,52.5474213,13.4012056,KURHAUS BERLIN,Schwedter Straße 78,,,3601142
8733485918,52.486643,13.3526263,Portier Coffee,,,,7200409
8755125357,52.473928,13.4503746,Sfera,Schudomastraße 42/44,12055.0,Berlin,8100417
8812122886,52.4788438,13.4272504,Espresso Bar,,,,8100206
8812635548,52.4723328,13.3365463,MoaMoa,Hauptstraße 81,12159.0,Berlin,7300618
8851297645,52.4558116,13.3243027,Lookma,Albrechtstraße 8,12165.0,Berlin,6100102
8861496960,52.483976,13.4286457,Caffee Hamatt,,,,8100206
8864146716,52.5064079,13.3084903,WonderWaffel,Kantstraße 117,,Berlin,4300623
8865703416,52.4237955,13.704966,Hollands Pannekoekhuis,Spreestraße 22,12559.0,Berlin,9401635
8865733765,52.4991837,13.3040886,Blunck Pâtisserie,,,,4500938
8906750629,52.5001529,13.4181752,TOASTcu,Adalbertstraße 96,,,2300314
8909368571,52.5414125,13.4129863,PuntaTime,Pappelallee 3,,,3601347
8913103184,52.4806579,13.4327743,Habibi Taal,Boddinstraße 59,12053.0,Berlin,8100206
8917540608,52.5638698,13.2147925,Laila,,,,5100103
8930497566,52.618031,13.2409366,Sampor-Kaffee-Berlin,Ruppiner Chaussee 289,13503.0,Berlin,12400618
8955200355,52.5063484,13.4653192,U&P,,,,2500834
8986452951,52.532919,13.3984528,Chimneys,Brunnenstraße 173,10119.0,Berlin,1100415
8988223636,52.4650358,13.3289005,Bubble Tea Bar,Rheinstraße 40,12161.0,Berlin,6100103
8989819200,52.4832915,13.3820845,Bolinas,Manfred-von-Richthofen-Straße 16,12101.0,Berlin,7400720
8996370133,52.5237386,13.3692951,Coffee Fellows,,,,1200628
8999045067,52.4901426,13.3533786,Someone loves you,,,,7100204
8999104602,52.5962068,13.3531318,Café Apostel,Wilhelmsruher Damm 159,13439.0,Berlin,12601235
9006699817,52.5028072,13.3662512,Concierge Coffee,,,,1100104
9006934263,52.5523695,13.3872908,Cafe Dreizehn,Grüntaler Straße 13,,,1300733
9018344814,52.5253298,13.4104329,Coffee Circle,Rosa-Luxemburg-Straße 19,10178.0,Berlin,1100310
9021974915,52.484005,13.4686176,Goodies,Am Treptower Park 51,12435.0,Berlin,9100202
9029174217,52.5367612,13.4204938,44 Brekkie,Rykestraße 44,10405.0,Berlin,3701555
9046285206,52.5450518,13.3624594,Münis Coffee,Gerichtstraße 45,,,1401043
9066101185,52.6342495,13.2917134,Johannes Garten,,,,12400721
9073826793,52.5585726,13.4126898,Rocky Blue,Brennerstraße 92,,,3400826
9073875617,52.5529588,13.4673241,Coffee House 168,Berliner Allee 168,13088.0,Berlin,3501038
9073947337,52.5598462,13.466745,Rita’s Baguette-Eck,,,,3501037
9074458269,52.5463068,13.4191135,Host,Stargarder Straße 68,10437.0,Berlin,3601347
9083998942,52.5330313,13.3876194,Espresso House,Gartenstraße 85,10115.0,Berlin,1100415
9092377879,52.5030302,13.4378721,Mon Chéri,Köpenicker Straße 183,,,2300316
9098892393,52.5438736,13.4181051,Ocha Tea,Lettestraße 10,10437.0,Berlin,3601347
9122275031,52.5333722,13.3659575,Café Zuckersüss,,10557.0,Berlin,1200624
9138888336,52.5527448,13.4077455,Land Markt,,,,3601141
9140504017,52.4822211,13.4385242,Snaubar,Sonnenallee 96,,,8100314
9155779778,52.5259607,13.3881315,Velvet 52,,,,1100309
9161995041,52.5032276,13.3440615,Hasty Pastry,,,,7100101
9173277641,52.5018014,13.3171608,Kaiser Café,,,,4501041
9180014319,52.5015478,13.3412126,Daluma,Tauentzienstraße 21-24,10789.0,Berlin,7100101
9183226479,52.4592866,13.3232948,Mikro Café,,,,6100102
9187332407,52.5452644,13.3435694,CholoSoy,,,,1400938
9187753963,52.4694594,13.429497,Gartencafé,,,,8100104
9190011690,52.501729,13.4180464,Pablo Coffee,Oranienstraße 35,10999.0,Berlin,2300314
9201250436,52.5715757,13.3737396,,,,,12100102
9215132935,52.4786255,13.2968823,Backstube Zuckersüß,,,,4400830
9237900836,52.5148066,13.4633468,,,,,2500728
9247043525,52.5531836,13.3994493,Café Weißer Rabe,,,,3601140
9252938317,52.5243024,13.3960858,YUNA,Oranienburger Straße 22,,,1100309
9261437462,52.4543717,13.5169995,Lories,Fennstraße 24,12439.0,Berlin,9200613
9270681697,52.5013261,13.411828,Kioski,,,,2100104
9271906587,52.5896338,13.2819201,Café Papa Nini,Alt-Tegel 6,13507.0,Berlin,12200515
9286220458,52.5282322,13.3422856,Café Khyrat Berlin,Bugenhagenstraße 6,10551.0,Berlin,1200520
9286971099,52.4959189,13.4677677,Kap Frida,Alt-Stralau 61,10245.0,,2500836
9293817161,52.5248449,13.4055296,The Alley Mitte,Neue Schönhauser Straße 1,10178.0,Berlin,1100309
9293885243,52.5300625,13.4902651,BoboQ,,10365.0,Berlin,11300721
9309752752,52.5597924,13.379896,Kahve Mavi Deniz,Koloniestraße 33,13359.0,Berlin,1300730
9346551332,52.4380368,13.2313775,Tee Tea Thé,Limastraße 2,14163.0,Berlin,6400838
9371078317,52.5358889,13.4215137,Mataró,Wörther Straße 25,,,3701555
9388745724,52.5438843,13.3679205,Krümels,Lindower Straße 18,13347.0,Berlin,1300836
9389606069,52.5652937,13.4044958,Daimi Bäckerei & Café,Florastraße 31,13187.0,Berlin,3400721
9395437338,52.5191372,13.299412,KuchenZeit,Kaiser-Friedrich-Straße 1,10585.0,Berlin,4300414
9395439117,52.5307291,13.3842003,MarcAnns,Invalidenstraße 114,10115.0,Berlin,1100415
9429184185,52.4979914,13.2946912,Dong Nam Coffee Lab,Kurfürstendamm 105,10711.0,Berlin,4500937
9439287621,52.5311375,13.1971042,Sönmez Baklava,,,,5200629
9441046762,52.5238098,13.1743147,Çaykovski,,,,5200527
9441951387,52.4716407,13.3660226,Blumenfisch,,,,7400822
9451203428,52.5015683,13.320873,Exclusive Coffee,,,,4501041
9458740129,52.481241,13.3539065,Son Durak Endstation,Ebersstraße 81,10827.0,Berlin,7200410
9460741693,52.4670779,13.3253375,Babka & Krantz,Hackerstraße 1,,,7300516
9495360250,52.497078,13.3123882,Cadôh,,,,4501043
9500044233,52.4866589,13.3212869,Okka,,,,4501147
9502948634,52.5529059,13.3662822,Soul of coffee,,,,1401049
9516157594,52.5540713,13.2104431,Restaurant Cafè Havelblick,Havelschanze 9,13587.0,Berlin,5100313
9516304097,52.5482518,13.4527079,Cafe im Familienzentrum,Mahlerstraße 4,13088.0,Berlin,3500936
9532550380,52.5035428,13.3984937,Café Dix,Alte Jakobstraße 124-128,10969.0,Berlin,2100103
9543735487,52.4596524,13.3242366,hoshi,Deitmerstraße 14,12163.0,Berlin,6100102
9556212670,52.5347357,13.4953314,Cafe Night & Day,,,,11200514
9609273012,52.4242974,13.5754816,Guard Coffee,,,,9301126
9620186718,52.5070444,13.3325663,Starbucks,,,,4501042
9633555361,52.5305899,13.4115883,Junge,Schönhauser Allee 10-11,10119.0,Berlin,3701556
9633744539,52.5349522,13.4221493,Cebe Coffee Roasters,Prenzlauer Allee 37,,,3701659
9655793381,52.5235777,13.3691694,Campus Suite,Washingtonplatz 3,10557.0,Berlin,1200628
9656079781,52.5172015,13.4011771,Forum Café,Schloßplatz 1,10178.0,Berlin,1100206
9661594881,52.4856721,13.3559088,deli am Markt,,,,7200410
9681190210,52.5535933,13.3657374,Redcard cafe,,,,1401049
9683154604,52.4718353,13.4292145,Its a long story,Hermannstraße 178,12051.0,Berlin,8100208
9697984817,52.5012317,13.4211675,voo deli,,,,2300314
9703079917,52.5010234,13.3575351,Exclusive Coffee,Kurfürstenstraße 137,,,7100103
9704341066,52.4476451,13.3413796,Café Palu,,,,6100205
9705662317,52.5413117,13.4106429,Café Flo,Eberswalder Straße 29,10437.0,Berlin,3601142
9709063834,52.4406987,13.3158925,Vakorama,Hindenburgdamm 95B,12203.0,Berlin,6300633
9733511949,52.511495,13.2927092,Café Nokata,Wundtstraße 20,14059.0,Berlin,4300414
9741694017,52.5479781,13.374874,Hünerwald,Pankstraße 27,,,1300836
9743275514,52.4860242,13.3763819,Oshione,Katzbachstraße 25,,,2200209
9746943258,52.5370574,13.4107375,Lia Ppang,Choriner Straße 45,10435.0,Berlin,3701554
9748408584,52.4972931,13.3239797,Goldmohn,,,,4501044
9749382416,52.4809579,13.3632491,Pretty Hill,Naumannstraße 54,10829.0,Berlin,7200413
9762236058,52.4753597,13.2914255,Bubble Tree,Breite Straße 23,14199.0,Berlin,4400832
9781203165,52.5468666,13.2024933,Café Paule,Schönwalder Straße 23,13585.0,Berlin,5100314
9793638719,52.5140705,13.3907784,Bonanza Coffee Roasters Gendarmenmarkt,Jägerstraße 58,10117.0,,1100206
9793656618,52.5341512,13.4159459,Zacharias,Kollwitzstraße 44,10405.0,,3701556
9793667517,52.5468857,13.417617,Café Luc,Stargarder Straße 72,10437.0,,3601346
9793792717,52.4928616,13.4282979,Kitten Deli,Friedelstraße 31,12047.0,,8100310
9815364440,52.4456835,13.3841364,Kaiserhütte,Kaiserstraße 112,12105.0,Berlin,7501030
9822691034,52.550052,13.2075037,Vivantes Bistro,,,,5100314
9846857724,52.5001119,13.3063423,Kaffee Karamell,,,,4500936
9846863893,52.499802,13.4170095,Geicha,,,,2300314
9862135619,52.5216583,13.3945684,Café im Bode-Museum,,,,1100206
9862655130,52.4987096,13.469097,Urbayn,Glasbläserallee 25,,,2500836
9870917114,52.519892,13.2937447,Museumscafé,Spandauer Damm 22,,,4300412
9871181178,52.5311437,13.1965164,Waffle Brothers,Klosterstraße 12,13581.0,Berlin,5200629
9887705717,52.5410634,13.3570965,Mansfield Park,Kiautschoustraße 1,13353.0,Berlin,1401046
9888789494,52.5326157,13.4694019,Tucano Eis Cafe&Bar,Landsberger Allee 171,10369.0,Berlin,11300616
9892264509,52.4381972,13.383436,Waffel Kingz,Friedenstraße 7,12107.0,Berlin,7501133
9908254096,52.5196923,13.1627292,Café Bella,,,,5200528
9916691119,52.5047082,13.3824186,Margarete,Anhalter Straße 90,10963.0,Berlin,2100101
9933325834,52.5267746,13.4526252,Café im Fenster,,,,2500726
9946027160,52.5334984,13.3663195,Balu Coffee,Otto-Weidt-Platz 5,10557.0,Berlin,1200624
9954706571,52.4940718,13.3831502,Soul Food & Coffee,Großbeerenstraße 27A,10965.0,Berlin,2200208
9971682520,52.4876566,13.4232852,Pala Berlin,Hasenheide 4-5,10967.0,,2200212
9974869750,52.4206203,13.477264,Susam Café & Frühstückshaus,Theodor-Loos-Weg 31,12353.0,Berlin,8301037
9974915603,52.4581212,13.4200596,Café Bergholz,Bergholzstraße 2,12099.0,Berlin,7400928
9976849318,52.5076118,13.3915098,lets talk about juice!,Zimmerstraße 23,10969.0,Berlin,2100102
9983950190,52.5035919,13.3750823,Pinch,Gabriele-Tergit-Promenade 21,10963.0,Berlin,1100102
9988547917,52.5010551,13.3916068,Coffee corner,,,,2100102
9991258485,52.4981381,13.3532327,"Melody ""dein Spätcafe""",Nollendorfstraße 10,10777.0,Berlin,7100102
9991400849,52.5511149,13.4500668,Kugelbahn Cafe,Pistoriusplatz 3,13086.0,,3500935
9993248007,52.5106712,13.3804793,Masti,,,,1100205
10001315678,52.512455,13.2655453,Schumanns,,,,4200310
10003807500,52.513185,13.2887364,Cafe Freyza,,,,4300413
10015764555,52.5334492,13.4251508,cosi,Winsstraße 16,,,3701659
10016225165,52.5188277,13.3394219,Sweet & salty,,,,1200629
10020756700,52.5048673,13.3941656,Cee Cee Cafe,Besselstraße 13,10969.0,Berlin,2100102
10035859800,52.5426908,13.4126569,Spro,Schönhauser Allee 50A,10437.0,Berlin,3601346
10046858842,52.4342989,13.3773049,deli im Markt,Großbeerenstraße 62-64,12107.0,Berlin,7501133
10057200172,52.4644791,13.3267209,Bunter Panda,Schloßstraße 1,12163.0,Berlin,6100103
10057200173,52.4644636,13.3271941,Eiscafé Di Russillo,,,,6100103
10064345624,52.5427289,13.4166877,Bistro Bizou,Pappelallee 26,10437.0,Berlin,3601347
10074744045,52.511369,13.4571132,Ete,,,,2500833
10080485096,52.4928591,13.4342743,La Tienda,,,,2300418
10084805955,52.5342275,13.4161615,Mood - Café & Spätkauf,Kollwitzstraße 46,10405.0,Berlin,3701556
10092355835,52.5295388,13.4248375,Café Melon,Greifswalder Straße 228,10405.0,Berlin,3701659
10098812510,52.4661512,13.3285802,Cup & Kaffee,Bundesallee 107,12161.0,Berlin,7300516
10101327812,52.5453174,13.420613,22deli,Stargarder Straße 22,10437.0,Berlin,3601347
10103287168,52.5328944,13.4246738,La Bohème,Winsstraße 12,10405.0,,3701659
10108299146,52.498435,13.3602987,Bistro FreiFläche,Bülowstraße 90,10783.0,Berlin,7100103
10111578841,52.5028454,13.3955066,Café des Schicksals,Lindenstraße 16,10969.0,Berlin,2100103
10117030454,52.4712056,13.3322388,Berliner Kaffeerösterei,,,,7300517
10130124873,52.5375764,13.3736329,Café the last rose,Chausseestraße 85,,,1100308
10132597656,52.5442854,13.359522,Seven Café und Lounge,Triftstraße 7,,,1401047
10139140236,52.5402645,13.2125768,,,,,5300736
10154127029,52.5266022,13.4075153,Bonanza Coffee Roasters,Alte Schönhauser Straße 15,,,1100309
10160853565,52.4306295,13.2592178,Maries,,,,6300526
10161767633,52.5163893,13.460466,Bonpland,Proskauer Straße 34,,,2500727
10168877009,52.5067371,13.3233102,La Petite,Carmerstraße 8,10623.0,Berlin,4300624
10180980032,52.4872984,13.3238099,Fechner Café,Fechnerstraße 6A,10717.0,Berlin,4501149
10185637017,52.5292609,13.3307565,Brettspielplatz - Spielecafe,Waldstraße 50,10551.0,,1200519
10188586874,52.5087411,13.3081836,,,,,4300623
10202743917,52.4911737,13.4477018,LA FÈVE,Karl-Kunger-Straße 58,12435.0,Berlin,9100101
10223983255,52.4980339,13.3625637,Einstein Kaffee,,,,7100205
10249332783,52.5300472,13.4017743,The Barn,Weinbergsweg 1,,,1100416
10262280005,52.5458432,13.3696629,Baraka,,,,1401044
10281125100,52.5178436,13.4165298,Coffee Fellows,,,,1100311
10308747445,52.5480787,13.3556579,Öz Antep Baklavaria,Müllerstraße 144,,,1400942
10309449688,52.5206963,13.4043897,Go Cha,,,,1100310
10313585322,52.511438,13.4268672,Café Holzmarktperle,Holzmarktstraße 25,10243.0,Berlin,2400623
10314445642,52.4894259,13.3505506,Die Orchidee Das Café,Grunewaldstraße 76,10823.0,Berlin,7200409
10314816007,52.4892261,13.3595551,Lookma,Hauptstraße 155,10827.0,Berlin,7200411
10314838611,52.5527024,13.3877771,Macchiato Rosen Cafe,Grüntaler Straße 14,,,1300733
10374459919,52.4951286,13.3267027,Bernstein,,,,4501045
10542792281,52.5237548,13.3862191,Café Nr. 10,,,,1100308
10567940335,52.5102635,13.6126118,Café Kunst & Krümel,,,,10400939
10572344795,52.6181392,13.3067682,Zwei Kraniche,,13467.0,Berlin,12400723
10573015200,52.501218,13.6219796,Porta Café,,,,10400941
10574782154,52.4664202,13.2739757,CAFÉ IM KUNSTHAUS DAHLEM,Käuzchensteig 12,14195.0,Berlin,6400842
10594722937,52.5003431,13.3542799,Mahlwerk,Karl-Heinrich-Ulrichs-Straße 2,,,7100103
10600017438,52.4457928,13.3859679,Monkey D. Coffee,Mariendorfer Damm 77,12109.0,Berlin,7501031
10601112238,52.5470282,13.3586868,Café Leo,,,,1401048
10603797041,52.5350605,13.4536794,Bistro 125,,,,3601450
10608118503,52.5061499,13.3413148,Cafeteria Pekka,Budapester Straße 32,10787.0,Berlin,1100102
10612720105,52.5311222,13.3451287,Unter den Birken,Birkenstraße 57,10559.0,Berlin,1200625
10616111005,52.5294675,13.4012114,Codos,,,,1100309
10648363525,52.5054161,13.2973148,La Piadina,Leonhardtstraße 7,14057.0,Berlin,4300416
10675984522,52.4805618,13.2987573,Café No.1528,Forckenbeckstraße 67,14199.0,Berlin,4400830
10678344201,52.5271198,13.3929721,good q,,,,1100309
10678661784,52.50673,13.3087699,Coffee Bar by Chon Thong,,,,4300623
10693118843,52.5081632,13.3746722,Waffel Brothers,,,,1100102
10693118853,52.5083198,13.375049,Comebuy,,,,1100102
10704808953,52.5277467,13.3893628,Bellas Café,,,,1100415
10710895028,52.5841254,13.2867206,,,,,12200515
10710987905,52.5293481,13.3884607,Sakura,Tieckstraße 8,10115.0,,1100415
10739627444,52.5462254,13.3902257,Lucca,Brunnenstraße 98,,,1300834
10746789195,52.5514327,13.3821642,Cafe San,,,,1300836
10756051191,52.5072061,13.5037492,Café Weit.Blick,Archenholdstraße 25,10315.0,Berlin,11400930
10760911449,52.5450276,13.3767463,BSTW Kiezcafé,,,,1300836
10774865324,52.456608,13.5186488,Schmackofatz By Different & Elegant,Hasselwerderstraße 14,,,9200613
10794932605,52.4477443,13.2695023,Casa Carlotta UG,,14195.0,,6400843
10800211947,52.5207067,13.4142897,Starbucks,,,,1100310
10820248679,52.5478352,13.3458517,Back & Snack,Guineastraße 40,13351.0,Berlin,1400938
10821131635,52.548426,13.3472882,Wachmacher,Seestraße 108,13353.0,Berlin,1400938
10834060636,52.4641781,13.3307786,Café Lilly,,,,6100209
10862201417,52.4772208,13.2892218,JoCaffè Kaffeehaus,Reichenhaller Straße 1,14199.0,Berlin,4400830
10866985677,52.5100373,13.3798672,Schokofabrik,Leipziger Platz 12,10117.0,Berlin,1100205
10867086634,52.5100895,13.3798404,Streuselbar,Leipziger Platz 12,10117.0,Berlin,1100205
10879673819,52.5178141,13.3877591,World Chess Club Berlin,Unter den Linden 26-30,10117.0,Berlin,1100206
10885842627,52.5031948,13.3084634,BioBackHaus,,,,4501040
10911174397,52.5501583,13.35842,Klee Back,,,,1401048
10916095622,52.4999526,13.3053468,Chapeau,,,,4500936
10926110294,52.5034467,13.4099958,rock-paper,Prinzenstraße 85,10969.0,Berlin,2100104
10939634458,52.5128742,13.396523,Cerita Zeks Dewasa Hot Kisah Nyata,,10117.0,,1100206
10956460957,52.5371765,13.6204092,Louis Cafe,,,,10200524
10967992205,52.503865,13.374432,Elemenza Coffee Roasters,Gabriele-Tergit-Promenade 21,10963.0,,1100102
10967993605,52.5061205,13.3092548,Smoozery Berlin,Krumme Straße 52-53,10627.0,,4300623
10971509337,52.5063463,13.302098,Shanti Lounge,,,,4300416
10977483099,52.4935419,13.3646314,Calypso,,,,7100206
10992900905,52.4865877,13.4468568,Hearts Fear,Wildenbruchstraße 24,,,8100419
11003043005,52.4911843,13.4830802,Hafencafé,Tunnelstraße 36,10245.0,,2500836
11011811034,52.4241823,13.4849339,Express,,,,8301037
11012756287,52.5240631,13.4089089,Organisierter Waffelhandel,Münzstraße 3,,,1100310
11016468063,52.547871,13.4517117,Café am Antonplatz,Berliner Allee 36,13088.0,Berlin,3500936
11034086602,52.4797376,13.4316135,Cafe Praxis,,,,8100206
11035783627,52.4938172,13.3539615,Schmuckcafé,,,,7100204
11042634325,52.5851003,13.3662299,# du-hier,Hauptstraße 12,13158.0,Berlin,3400619
11046687305,52.4880044,13.5393299,Jäätelö,Zwieseler Straße 44,10318.0,,11501340
11048612532,52.5339651,13.3502255,Brühgruppe,,,,1200623
11052496534,52.4927942,13.4219323,Pia Kaffee,,,,2200213
11060082861,52.549315,13.364251,Café Vildan,,,,1401043
11063047756,52.5899941,13.4013931,Mosubi,,,,3200205
11064324705,52.4994328,13.4275715,Steel Bean,,,,2300315
11077550173,52.5290567,13.4100352,St. Oberholz Torstraße,Torstraße 49,10119.0,Berlin,3701556
11079304440,52.4687052,13.4333242,Rote Lilly,Emser Str. 114,,,8100208
11090522920,52.4601509,13.1552845,Kaffeehaus9,Kladower Damm 289,14089.0,Berlin,5400942
11112178238,52.5083944,13.4668616,Cebe Coffee Roasters,Boxhagener Straße 82,,,2500832
11112693145,52.4881871,13.3939057,Brezelbar,,,,2200211
11119222516,52.5279346,13.3451727,KUKUMU,,,,1200625
11132216482,52.5309029,13.3510972,Wafele,Kruppstraße 11,10559.0,Berlin,1200623
11132633085,52.5521828,13.3914256,Café Salam,,,,1300733
11141729205,52.5163455,13.445982,Pretty Café Deli,Karl-Marx-Allee 110,,,2400624
11145895905,52.5161485,13.4726696,kyo coffee,Pettenkoferstraße 4,10247.0,,2500729
11146585271,52.5598647,13.2203791,Heimaten,,,,5100104
11148685943,52.5296518,13.398976,Royals Tea,Torstraße 139,10119.0,Berlin,1100415
11162476132,52.5327225,13.3389748,Kuchentischlerei,Bremer Straße 41,10551.0,Berlin,1200520
11165712771,52.542898,13.5951036,Café EINS,Brigitte-Reimann-Straße 5,12629.0,Berlin,10200418
11177273536,52.5167505,13.5702024,Café der Stille,,,,10300732
11187196683,52.4861167,13.4307223,Café Dreifünf,Sonnenallee 35,,,8100312
11196172822,52.4546441,13.3291226,Latti Matti,Plantagenstraße 21,,,6100208
11202111534,52.5114562,13.4525288,Catnip Coffee,Warschauer Straße 69,,,2500833
11207891154,52.5085894,13.3510084,Blue Nordic Coffee,,,,1100101
11221971885,52.5488626,13.3810779,Lobe Canteen,Böttgerstraße 16,,,1300836
11224713383,52.5323504,13.3938887,Café Lisbeth,Bergstraße 29,10115.0,Berlin,1100415
11237734829,52.504353,13.4425865,Einstein Kaffee,,,,2400625
11240947425,52.4834967,13.5013668,Muschkebart,Blockdammweg 1,,,11501238
11253337889,52.4899283,13.4252308,Refugio,,,,8100311
11254826275,52.5395676,13.3713475,M3,,,,1300836
11257477734,52.3878147,13.397521,Malzcafé Alte Mälzerei,Steinstraße 41,,,7601544
11264656069,52.5138066,13.2787407,Café September Berlin,Haeselerstraße 20,14050.0,,4200311
11273812609,52.5467572,13.3590289,The Coffee Man,,,,1401048
11288307631,52.5251165,13.3914943,,,,,1100309
11290917325,52.5306574,13.4022724,Croissant Couture,Weinbergsweg 4,10119.0,Berlin,1100416
11293017164,52.4931555,13.4253595,Madame Hobrecht,Hobrechtstraße 48,12047.0,Berlin,8100310
11300921351,52.4672371,13.3304427,Rheinstein,Rheinstraße 28,12161.0,Berlin,7300516
11302548737,52.4916157,13.411858,doppio,Körtestraße 2,,,2200212
11309276604,52.514049,13.3231689,Cafe A,,,,4300622
11329195453,52.5172414,13.3051371,VVE,,,,4300621
11350408810,52.5246872,13.3932556,L’oui,,,,1100309
11363945056,52.5108141,13.4617724,coffee circle,,,,2500833
11373833031,52.5059281,13.4670022,Mamā,,,,2500834
11376045613,52.4936695,13.353524,Sironi Café,Goltzstraße 36,10781.0,Berlin,7100204
11380847469,52.5505059,13.4602191,Cafe,Berliner Allee 115,13088.0,,3500933
11385082936,52.5044173,13.3965787,Café Nea,,,,2100103
11385540731,52.5257118,13.3943331,Art.City.People.: Creative Space & Craft Coffee,Oranienburger Straße 32,10117.0,Berlin,1100309
11405674877,52.458068,13.4527612,Cafeteria OSZ-IMT,,,,8200623
11407140470,52.537593,13.4116601,Aunties,,,,3701554
11452201269,52.4890368,13.42424,Sengüloglu,Kottbusser Damm 32,,,2200213
